{
  "type": "FeatureCollection",
  "features": [
    {
      "type": "Feature",
      "id": "way/118535509",
      "properties": {
        "landuse": "commercial",
        "name": "Tata Consultancy Services, Synergy Park",
        "source": "OpenStreetMap",
        "synthetic": false,
        "osm_type": "way",
        "osm_id": 118535509
      },
      "geometry": {
        "type": "Polygon",
        "coordinates": [
          [
            [
              78.3483228,
              17.4496494
            ],
            [
              78.3490631,
              17.45011
            ],
            [
              78.3507406,
              17.4502517
            ],
            [
              78.3507191,
              17.4518689
            ],
            [
              78.3511209,
              17.4522888
            ],
            [
              78.3525419,
              17.4515026
            ],
            [
              78.3541812,
              17.450821
            ],
            [
              78.3554597,
              17.4504127
            ],
            [
              78.3547278,
              17.4491076
            ],
            [
              78.3540183,
              17.4485896
            ],
            [
              78.3534517,
              17.4480068
            ],
            [
              78.3531981,
              17.4475393
            ],
            [
              78.3522219,
              17.4456611
            ],
            [
              78.3483228,
              17.4496494
            ]
          ]
        ]
      }
    },
    {
      "type": "Feature",
      "id": "way/626653638",
      "properties": {
        "landuse": "residential",
        "name": "Lotus Park",
        "source": "OpenStreetMap",
        "synthetic": false,
        "osm_type": "way",
        "osm_id": 626653638
      },
      "geometry": {
        "type": "Polygon",
        "coordinates": [
          [
            [
              78.3622083,
              17.4614929
            ],
            [
              78.3628892,
              17.4612107
            ],
            [
              78.3626335,
              17.46057
            ],
            [
              78.362461,
              17.4606405
            ],
            [
              78.3620573,
              17.4605288
            ],
            [
              78.3619618,
              17.4608874
            ],
            [
              78.3622083,
              17.4614929
            ]
          ]
        ]
      }
    },
    {
      "type": "Feature",
      "id": "way/630865069",
      "properties": {
        "landuse": "commercial",
        "source": "OpenStreetMap",
        "synthetic": false,
        "osm_type": "way",
        "osm_id": 630865069
      },
      "geometry": {
        "type": "Polygon",
        "coordinates": [
          [
            [
              78.3635063,
              17.4506095
            ],
            [
              78.3628077,
              17.4479626
            ],
            [
              78.363385,
              17.4477881
            ],
            [
              78.3634459,
              17.447823
            ],
            [
              78.3634638,
              17.4480028
            ],
            [
              78.3634823,
              17.4482972
            ],
            [
              78.3635108,
              17.4485775
            ],
            [
              78.3636231,
              17.449211
            ],
            [
              78.3637016,
              17.4496537
            ],
            [
              78.3637151,
              17.4499531
            ],
            [
              78.3637141,
              17.4501308
            ],
            [
              78.3635802,
              17.4505873
            ],
            [
              78.3635063,
              17.4506095
            ]
          ]
        ]
      }
    },
    {
      "type": "Feature",
      "id": "way/740697717",
      "properties": {
        "landuse": "forest",
        "leisure": "park",
        "source": "OpenStreetMap",
        "synthetic": false,
        "osm_type": "way",
        "osm_id": 740697717
      },
      "geometry": {
        "type": "Polygon",
        "coordinates": [
          [
            [
              78.3555565,
              17.4599592
            ],
            [
              78.3559429,
              17.4604401
            ],
            [
              78.3565244,
              17.4611317
            ],
            [
              78.3572161,
              17.461876
            ],
            [
              78.3578091,
              17.4625877
            ],
            [
              78.3605733,
              17.4621223
            ],
            [
              78.3607594,
              17.4616255
            ],
            [
              78.3611161,
              17.4611293
            ],
            [
              78.3618339,
              17.4608366
            ],
            [
              78.3617632,
              17.4606371
            ],
            [
              78.3616843,
              17.4604147
            ],
            [
              78.3613806,
              17.4604264
            ],
            [
              78.3607981,
              17.4605925
            ],
            [
              78.3601677,
              17.4606257
            ],
            [
              78.3593845,
              17.4605055
            ],
            [
              78.359414,
              17.460178
            ],
            [
              78.3595991,
              17.4594922
            ],
            [
              78.3600819,
              17.4590368
            ],
            [
              78.3602631,
              17.4582539
            ],
            [
              78.3602681,
              17.457814
            ],
            [
              78.3601421,
              17.4575179
            ],
            [
              78.3555565,
              17.4599592
            ]
          ]
        ]
      }
    },
    {
      "type": "Feature",
      "id": "way/846806441",
      "properties": {
        "landuse": "forest",
        "source": "OpenStreetMap",
        "synthetic": false,
        "osm_type": "way",
        "osm_id": 846806441
      },
      "geometry": {
        "type": "Polygon",
        "coordinates": [
          [
            [
              78.3618943,
              17.4576086
            ],
            [
              78.3619179,
              17.4566898
            ],
            [
              78.3617762,
              17.4566333
            ],
            [
              78.3601421,
              17.4575179
            ],
            [
              78.3602341,
              17.4577277
            ],
            [
              78.3602681,
              17.457814
            ],
            [
              78.3618943,
              17.4576086
            ]
          ]
        ]
      }
    },
    {
      "type": "Feature",
      "id": "way/846806442",
      "properties": {
        "landuse": "residential",
        "source": "OpenStreetMap",
        "synthetic": false,
        "osm_type": "way",
        "osm_id": 846806442
      },
      "geometry": {
        "type": "Polygon",
        "coordinates": [
          [
            [
              78.3632149,
              17.4592782
            ],
            [
              78.3627916,
              17.4587515
            ],
            [
              78.3627514,
              17.4584515
            ],
            [
              78.3626873,
              17.4579732
            ],
            [
              78.3628898,
              17.4579147
            ],
            [
              78.3627916,
              17.4573119
            ],
            [
              78.3629879,
              17.456557
            ],
            [
              78.3621659,
              17.4564867
            ],
            [
              78.3617762,
              17.4566333
            ],
            [
              78.3619179,
              17.4566898
            ],
            [
              78.3618943,
              17.4576086
            ],
            [
              78.3618553,
              17.4591264
            ],
            [
              78.361506,
              17.4591012
            ],
            [
              78.3615785,
              17.459708
            ],
            [
              78.362844,
              17.4598526
            ],
            [
              78.3629758,
              17.4595288
            ],
            [
              78.3632955,
              17.4594659
            ],
            [
              78.3632149,
              17.4592782
            ]
          ]
        ]
      }
    }
  ]
}