{
  "type": "FeatureCollection",
  "features": [
    {
      "type": "Feature",
      "id": "node/2714172218",
      "properties": {
        "bus": "yes",
        "highway": "bus_stop",
        "name": "Anjaya Nagar",
        "public_transport": "platform",
        "source": "OpenStreetMap",
        "synthetic": false,
        "osm_type": "node",
        "osm_id": 2714172218
      },
      "geometry": {
        "type": "Point",
        "coordinates": [
          78.3637319,
          17.4521229
        ]
      }
    },
    {
      "type": "Feature",
      "id": "node/13273738340",
      "properties": {
        "leisure": "playground",
        "source": "OpenStreetMap",
        "synthetic": false,
        "osm_type": "node",
        "osm_id": 13273738340
      },
      "geometry": {
        "type": "Point",
        "coordinates": [
          78.3600707,
          17.4553702
        ]
      }
    },
    {
      "type": "Feature",
      "id": "way/29124485",
      "properties": {
        "access": "yes",
        "alt_name": "Kotla Vijayabhaskara Reddy Botanical Garden",
        "garden:type": "botanical",
        "leisure": "garden",
        "name": "Botanical Gardens",
        "wikidata": "Q6434103",
        "wikimedia_commons": "Category:Kotla Vijayabhaskara Reddy Botanical Garden",
        "wikipedia": "en:Hyderabad Botanical Garden",
        "source": "OpenStreetMap",
        "synthetic": false,
        "osm_type": "way",
        "osm_id": 29124485
      },
      "geometry": {
        "type": "Polygon",
        "coordinates": [
          [
            [
              78.3571265,
              17.4587742
            ],
            [
              78.3553261,
              17.4596887
            ],
            [
              78.353941,
              17.4582505
            ],
            [
              78.3514575,
              17.4552571
            ],
            [
              78.3502922,
              17.4542168
            ],
            [
              78.3505083,
              17.4535011
            ],
            [
              78.3511209,
              17.4522888
            ],
            [
              78.3525419,
              17.4515026
            ],
            [
              78.3541812,
              17.450821
            ],
            [
              78.3554597,
              17.4504127
            ],
            [
              78.3555702,
              17.4506149
            ],
            [
              78.3565513,
              17.4509834
            ],
            [
              78.3591375,
              17.4509248
            ],
            [
              78.3601753,
              17.4513873
            ],
            [
              78.3622528,
              17.4524736
            ],
            [
              78.3632793,
              17.4531013
            ],
            [
              78.3634278,
              17.453234
            ],
            [
              78.3634832,
              17.4533846
            ],
            [
              78.3635205,
              17.4544696
            ],
            [
              78.3635795,
              17.4550734
            ],
            [
              78.3636719,
              17.4553854
            ],
            [
              78.3636761,
              17.455438
            ],
            [
              78.3636571,
              17.4554905
            ],
            [
              78.3632308,
              17.4557003
            ],
            [
              78.3628525,
              17.4558425
            ],
            [
              78.3620077,
              17.4561481
            ],
            [
              78.3571265,
              17.4587742
            ]
          ]
        ]
      }
    },
    {
      "type": "Feature",
      "id": "way/116074737",
      "properties": {
        "leisure": "boating",
        "natural": "water",
        "water": "pond",
        "source": "OpenStreetMap",
        "synthetic": false,
        "osm_type": "way",
        "osm_id": 116074737
      },
      "geometry": {
        "type": "Polygon",
        "coordinates": [
          [
            [
              78.361493,
              17.4553929
            ],
            [
              78.3615501,
              17.4554419
            ],
            [
              78.3615725,
              17.455484
            ],
            [
              78.3615564,
              17.4556056
            ],
            [
              78.3615338,
              17.4556617
            ],
            [
              78.3614506,
              17.4556858
            ],
            [
              78.3613874,
              17.4556936
            ],
            [
              78.3613973,
              17.4557436
            ],
            [
              78.3614093,
              17.4558296
            ],
            [
              78.361407,
              17.4559309
            ],
            [
              78.3614093,
              17.4560042
            ],
            [
              78.361433,
              17.4560893
            ],
            [
              78.36163,
              17.456021
            ],
            [
              78.3617684,
              17.4559383
            ],
            [
              78.3618603,
              17.4558955
            ],
            [
              78.3620298,
              17.4558021
            ],
            [
              78.3621966,
              17.4556782
            ],
            [
              78.3623613,
              17.4555894
            ],
            [
              78.3624532,
              17.4555087
            ],
            [
              78.3624785,
              17.4554501
            ],
            [
              78.3624749,
              17.4554044
            ],
            [
              78.3624,
              17.4553112
            ],
            [
              78.3623452,
              17.4552661
            ],
            [
              78.362243,
              17.455248
            ],
            [
              78.362149,
              17.455304
            ],
            [
              78.3620695,
              17.4553403
            ],
            [
              78.3620577,
              17.4554058
            ],
            [
              78.3620324,
              17.4554644
            ],
            [
              78.3619466,
              17.4555265
            ],
            [
              78.3618589,
              17.4555317
            ],
            [
              78.3617983,
              17.4555006
            ],
            [
              78.3617065,
              17.4554321
            ],
            [
              78.3615624,
              17.4553808
            ],
            [
              78.3615075,
              17.4553653
            ],
            [
              78.361493,
              17.4553929
            ]
          ]
        ]
      }
    },
    {
      "type": "Feature",
      "id": "way/214170899",
      "properties": {
        "natural": "water",
        "water": "pond",
        "source": "OpenStreetMap",
        "synthetic": false,
        "osm_type": "way",
        "osm_id": 214170899
      },
      "geometry": {
        "type": "Polygon",
        "coordinates": [
          [
            [
              78.3634669,
              17.4619895
            ],
            [
              78.3634186,
              17.4619229
            ],
            [
              78.3634266,
              17.4618104
            ],
            [
              78.3634722,
              17.4617182
            ],
            [
              78.3634937,
              17.4615443
            ],
            [
              78.3634105,
              17.4612014
            ],
            [
              78.3634427,
              17.4610172
            ],
            [
              78.3635071,
              17.4608125
            ],
            [
              78.3636251,
              17.4606487
            ],
            [
              78.363719,
              17.4605899
            ],
            [
              78.3642635,
              17.4604684
            ],
            [
              78.3644968,
              17.4604185
            ],
            [
              78.3646283,
              17.4604492
            ],
            [
              78.3646926,
              17.4605349
            ],
            [
              78.3646873,
              17.4607102
            ],
            [
              78.3646229,
              17.460943
            ],
            [
              78.3645797,
              17.4611427
            ],
            [
              78.3645726,
              17.4612975
            ],
            [
              78.3645869,
              17.4615524
            ],
            [
              78.364625,
              17.4618437
            ],
            [
              78.3646656,
              17.4620098
            ],
            [
              78.3647133,
              17.4621578
            ],
            [
              78.3647262,
              17.462244
            ],
            [
              78.3647127,
              17.4622978
            ],
            [
              78.3646886,
              17.4623451
            ],
            [
              78.3646122,
              17.4623899
            ],
            [
              78.3645143,
              17.4624219
            ],
            [
              78.3644029,
              17.4624244
            ],
            [
              78.3642152,
              17.462372
            ],
            [
              78.3639497,
              17.462276
            ],
            [
              78.3637109,
              17.4621519
            ],
            [
              78.3634669,
              17.4619895
            ]
          ]
        ]
      }
    },
    {
      "type": "Feature",
      "id": "way/361514319",
      "properties": {
        "leisure": "park",
        "source": "OpenStreetMap",
        "synthetic": false,
        "osm_type": "way",
        "osm_id": 361514319
      },
      "geometry": {
        "type": "Polygon",
        "coordinates": [
          [
            [
              78.3608743,
              17.4514564
            ],
            [
              78.3610471,
              17.4511601
            ],
            [
              78.3611218,
              17.4512113
            ],
            [
              78.3611101,
              17.4513338
            ],
            [
              78.3610447,
              17.4513984
            ],
            [
              78.360984,
              17.4515276
            ],
            [
              78.3608743,
              17.4514564
            ]
          ]
        ]
      }
    },
    {
      "type": "Feature",
      "id": "way/362010506",
      "properties": {
        "leisure": "park",
        "source": "OpenStreetMap",
        "synthetic": false,
        "osm_type": "way",
        "osm_id": 362010506
      },
      "geometry": {
        "type": "Polygon",
        "coordinates": [
          [
            [
              78.3605974,
              17.4513546
            ],
            [
              78.3608352,
              17.4514583
            ],
            [
              78.3609991,
              17.4511164
            ],
            [
              78.3607613,
              17.4510127
            ],
            [
              78.3605974,
              17.4513546
            ]
          ]
        ]
      }
    },
    {
      "type": "Feature",
      "id": "way/362010507",
      "properties": {
        "leisure": "pitch",
        "sport": "basketball",
        "source": "OpenStreetMap",
        "synthetic": false,
        "osm_type": "way",
        "osm_id": 362010507
      },
      "geometry": {
        "type": "Polygon",
        "coordinates": [
          [
            [
              78.3610004,
              17.450905
            ],
            [
              78.3611863,
              17.4510373
            ],
            [
              78.361271,
              17.450929
            ],
            [
              78.3610852,
              17.4507967
            ],
            [
              78.3610004,
              17.450905
            ]
          ]
        ]
      }
    },
    {
      "type": "Feature",
      "id": "way/549932563",
      "properties": {
        "admin_level": "10",
        "boundary": "administrative",
        "source": "OpenStreetMap",
        "synthetic": false,
        "osm_type": "way",
        "osm_id": 549932563
      },
      "geometry": {
        "type": "LineString",
        "coordinates": [
          [
            78.3637081,
            17.4384912
          ],
          [
            78.3635084,
            17.4403902
          ],
          [
            78.362742,
            17.4417108
          ],
          [
            78.3629532,
            17.4435832
          ],
          [
            78.3634938,
            17.4466333
          ],
          [
            78.363888,
            17.448857
          ],
          [
            78.3638018,
            17.4520909
          ],
          [
            78.3638015,
            17.4555295
          ],
          [
            78.3625304,
            17.4561752
          ],
          [
            78.3620737,
            17.4564072
          ],
          [
            78.3489893,
            17.4630542
          ],
          [
            78.347438,
            17.4635374
          ],
          [
            78.3490688,
            17.4680558
          ],
          [
            78.34914,
            17.4711351
          ],
          [
            78.3491716,
            17.4721972
          ],
          [
            78.3492458,
            17.4749394
          ],
          [
            78.3497192,
            17.478052
          ],
          [
            78.3497875,
            17.4796882
          ],
          [
            78.3498064,
            17.4801412
          ],
          [
            78.3497232,
            17.4823139
          ]
        ]
      }
    },
    {
      "type": "Feature",
      "id": "way/639403244",
      "properties": {
        "natural": "wood",
        "source": "OpenStreetMap",
        "synthetic": false,
        "osm_type": "way",
        "osm_id": 639403244
      },
      "geometry": {
        "type": "Polygon",
        "coordinates": [
          [
            [
              78.348653,
              17.4504933
            ],
            [
              78.3489373,
              17.4504831
            ],
            [
              78.3489421,
              17.4516999
            ],
            [
              78.3489427,
              17.4518622
            ],
            [
              78.350662,
              17.4519288
            ],
            [
              78.3506459,
              17.4502093
            ],
            [
              78.3489212,
              17.4501197
            ],
            [
              78.348653,
              17.4504933
            ]
          ]
        ]
      }
    },
    {
      "type": "Feature",
      "id": "way/639403248",
      "properties": {
        "intermittent": "yes",
        "natural": "water",
        "source": "OpenStreetMap",
        "synthetic": false,
        "osm_type": "way",
        "osm_id": 639403248
      },
      "geometry": {
        "type": "Polygon",
        "coordinates": [
          [
            [
              78.3580649,
              17.4563784
            ],
            [
              78.3583948,
              17.4566828
            ],
            [
              78.3578986,
              17.4570104
            ],
            [
              78.3576009,
              17.4571076
            ],
            [
              78.3570564,
              17.4571511
            ],
            [
              78.3569491,
              17.4571306
            ],
            [
              78.3569384,
              17.4569106
            ],
            [
              78.3570537,
              17.4568645
            ],
            [
              78.3570591,
              17.4566956
            ],
            [
              78.3571798,
              17.4566496
            ],
            [
              78.3572549,
              17.4568133
            ],
            [
              78.3575472,
              17.4567161
            ],
            [
              78.3576357,
              17.4567289
            ],
            [
              78.3579442,
              17.4565421
            ],
            [
              78.3578932,
              17.4564577
            ],
            [
              78.3580649,
              17.4563784
            ]
          ]
        ]
      }
    },
    {
      "type": "Feature",
      "id": "way/658049832",
      "properties": {
        "leisure": "park",
        "name": "Nerella Park",
        "source": "OpenStreetMap",
        "synthetic": false,
        "osm_type": "way",
        "osm_id": 658049832
      },
      "geometry": {
        "type": "Polygon",
        "coordinates": [
          [
            [
              78.3633619,
              17.4621779
            ],
            [
              78.3632868,
              17.4620807
            ],
            [
              78.3632546,
              17.461917
            ],
            [
              78.3632439,
              17.461789
            ],
            [
              78.3633029,
              17.4616458
            ],
            [
              78.3633404,
              17.4614871
            ],
            [
              78.3632546,
              17.4613745
            ],
            [
              78.3631258,
              17.4613029
            ],
            [
              78.3629971,
              17.4612671
            ],
            [
              78.3629595,
              17.4611443
            ],
            [
              78.3628898,
              17.4609754
            ],
            [
              78.3628147,
              17.4608065
            ],
            [
              78.3629166,
              17.4606991
            ],
            [
              78.3631366,
              17.4606325
            ],
            [
              78.3633243,
              17.4605711
            ],
            [
              78.3635604,
              17.4605148
            ],
            [
              78.3637588,
              17.4604432
            ],
            [
              78.3639734,
              17.4603767
            ],
            [
              78.364188,
              17.4603204
            ],
            [
              78.3644348,
              17.4602436
            ],
            [
              78.3645689,
              17.4602129
            ],
            [
              78.3646922,
              17.4601157
            ],
            [
              78.3647942,
              17.4600952
            ],
            [
              78.36488,
              17.4601106
            ],
            [
              78.3649122,
              17.4601669
            ],
            [
              78.3649229,
              17.4603153
            ],
            [
              78.3649122,
              17.4604534
            ],
            [
              78.3648693,
              17.4605865
            ],
            [
              78.3648264,
              17.46074
            ],
            [
              78.3647942,
              17.4608782
            ],
            [
              78.3647566,
              17.4610163
            ],
            [
              78.364703,
              17.461175
            ],
            [
              78.364703,
              17.4613029
            ],
            [
              78.364703,
              17.4614922
            ],
            [
              78.364703,
              17.4616458
            ],
            [
              78.3647405,
              17.46183
            ],
            [
              78.3647727,
              17.4619323
            ],
            [
              78.3647942,
              17.4620449
            ],
            [
              78.3648317,
              17.462137
            ],
            [
              78.3648639,
              17.4622445
            ],
            [
              78.3648907,
              17.4623315
            ],
            [
              78.3649176,
              17.4623929
            ],
            [
              78.364939,
              17.4624696
            ],
            [
              78.3649497,
              17.4625413
            ],
            [
              78.3647459,
              17.4625976
            ],
            [
              78.3645689,
              17.4626231
            ],
            [
              78.364424,
              17.4626078
            ],
            [
              78.3642738,
              17.462572
            ],
            [
              78.3640861,
              17.4625157
            ],
            [
              78.3639305,
              17.462444
            ],
            [
              78.3637588,
              17.4623724
            ],
            [
              78.3636194,
              17.4623263
            ],
            [
              78.3634799,
              17.4622752
            ],
            [
              78.3633941,
              17.462224
            ],
            [
              78.3633619,
              17.4621779
            ]
          ]
        ]
      }
    },
    {
      "type": "Feature",
      "id": "way/737782314",
      "properties": {
        "name": "kothaguda lake",
        "name:te": "\u0c15\u0c4a\u0c24\u0c4d\u0c24\u0c17\u0c42\u0c21 \u0c1a\u0c46\u0c30\u0c41\u0c35\u0c41",
        "natural": "water",
        "source": "OpenStreetMap",
        "synthetic": false,
        "osm_type": "way",
        "osm_id": 737782314
      },
      "geometry": {
        "type": "Polygon",
        "coordinates": [
          [
            [
              78.3588655,
              17.4600065
            ],
            [
              78.3588481,
              17.4598952
            ],
            [
              78.3588709,
              17.4598377
            ],
            [
              78.3588414,
              17.4597929
            ],
            [
              78.3587676,
              17.4597468
            ],
            [
              78.3586912,
              17.4596854
            ],
            [
              78.3586214,
              17.459624
            ],
            [
              78.3585638,
              17.4595754
            ],
            [
              78.3585437,
              17.4595306
            ],
            [
              78.3585785,
              17.4594731
            ],
            [
              78.3587086,
              17.4594462
            ],
            [
              78.3589929,
              17.4593989
            ],
            [
              78.3590667,
              17.4593886
            ],
            [
              78.3591136,
              17.4593349
            ],
            [
              78.3591458,
              17.4591673
            ],
            [
              78.3591525,
              17.4589562
            ],
            [
              78.3590935,
              17.4588296
            ],
            [
              78.3590265,
              17.4587899
            ],
            [
              78.3588964,
              17.4587272
            ],
            [
              78.3588307,
              17.4586581
            ],
            [
              78.3587918,
              17.4585315
            ],
            [
              78.3587985,
              17.4584496
            ],
            [
              78.3588213,
              17.4583844
            ],
            [
              78.3589205,
              17.458305
            ],
            [
              78.3590493,
              17.4582206
            ],
            [
              78.3592156,
              17.4581374
            ],
            [
              78.3594342,
              17.4580197
            ],
            [
              78.3596756,
              17.4578701
            ],
            [
              78.3598606,
              17.4577485
            ],
            [
              78.3599813,
              17.4576718
            ],
            [
              78.3600444,
              17.4576411
            ],
            [
              78.3601007,
              17.45765
            ],
            [
              78.3601731,
              17.4577037
            ],
            [
              78.3602107,
              17.4577818
            ],
            [
              78.3602174,
              17.4579097
            ],
            [
              78.3602093,
              17.4582027
            ],
            [
              78.3601302,
              17.4585558
            ],
            [
              78.3600765,
              17.4587477
            ],
            [
              78.3599988,
              17.4588884
            ],
            [
              78.359862,
              17.4590496
            ],
            [
              78.3597118,
              17.4591622
            ],
            [
              78.3595254,
              17.459372
            ],
            [
              78.3594596,
              17.4595767
            ],
            [
              78.3594288,
              17.4598492
            ],
            [
              78.3594087,
              17.459972
            ],
            [
              78.3593671,
              17.4601281
            ],
            [
              78.3592692,
              17.4602279
            ],
            [
              78.3591337,
              17.4602957
            ],
            [
              78.3590493,
              17.4603148
            ],
            [
              78.3589715,
              17.4602841
            ],
            [
              78.3589138,
              17.4602304
            ],
            [
              78.3588655,
              17.4600065
            ]
          ]
        ]
      }
    },
    {
      "type": "Feature",
      "id": "way/881874401",
      "properties": {
        "leisure": "park",
        "source": "OpenStreetMap",
        "synthetic": false,
        "osm_type": "way",
        "osm_id": 881874401
      },
      "geometry": {
        "type": "Polygon",
        "coordinates": [
          [
            [
              78.3564314,
              17.4502208
            ],
            [
              78.3565079,
              17.4502016
            ],
            [
              78.3565173,
              17.4493175
            ],
            [
              78.3562088,
              17.4492907
            ],
            [
              78.3562061,
              17.4492024
            ],
            [
              78.3559553,
              17.4492113
            ],
            [
              78.3560613,
              17.449512
            ],
            [
              78.3562155,
              17.4498523
            ],
            [
              78.3563228,
              17.4500391
            ],
            [
              78.3564314,
              17.4502208
            ]
          ]
        ]
      }
    },
    {
      "type": "Feature",
      "id": "way/1446923976",
      "properties": {
        "natural": "water",
        "water": "pond",
        "source": "OpenStreetMap",
        "synthetic": false,
        "osm_type": "way",
        "osm_id": 1446923976
      },
      "geometry": {
        "type": "Polygon",
        "coordinates": [
          [
            [
              78.3564738,
              17.4555781
            ],
            [
              78.3564317,
              17.4549941
            ],
            [
              78.3567083,
              17.4548702
            ],
            [
              78.3567768,
              17.455087
            ],
            [
              78.3570414,
              17.4553417
            ],
            [
              78.3567901,
              17.4555815
            ],
            [
              78.3564738,
              17.4555781
            ]
          ]
        ]
      }
    },
    {
      "type": "Feature",
      "id": "way/1446923977",
      "properties": {
        "natural": "rock",
        "source": "OpenStreetMap",
        "synthetic": false,
        "osm_type": "way",
        "osm_id": 1446923977
      },
      "geometry": {
        "type": "LineString",
        "coordinates": [
          [
            78.3570414,
            17.4553417
          ],
          [
            78.3567768,
            17.455087
          ],
          [
            78.3567083,
            17.4548702
          ],
          [
            78.3567456,
            17.4547554
          ],
          [
            78.3569512,
            17.454674
          ],
          [
            78.3572615,
            17.4549161
          ],
          [
            78.3575706,
            17.4555425
          ],
          [
            78.3570414,
            17.4553417
          ]
        ]
      }
    },
    {
      "type": "Feature",
      "id": "way/1446923979",
      "properties": {
        "natural": "water",
        "water": "pond",
        "source": "OpenStreetMap",
        "synthetic": false,
        "osm_type": "way",
        "osm_id": 1446923979
      },
      "geometry": {
        "type": "Polygon",
        "coordinates": [
          [
            [
              78.3578963,
              17.4577245
            ],
            [
              78.3575209,
              17.4576769
            ],
            [
              78.3572354,
              17.4574295
            ],
            [
              78.3573127,
              17.457188
            ],
            [
              78.3577828,
              17.4571118
            ],
            [
              78.3578751,
              17.4572451
            ],
            [
              78.3580796,
              17.4571773
            ],
            [
              78.3581719,
              17.4573759
            ],
            [
              78.3578963,
              17.4577245
            ]
          ]
        ]
      }
    },
    {
      "type": "Feature",
      "id": "way/1446927456",
      "properties": {
        "natural": "water",
        "water": "pond",
        "source": "OpenStreetMap",
        "synthetic": false,
        "osm_type": "way",
        "osm_id": 1446927456
      },
      "geometry": {
        "type": "Polygon",
        "coordinates": [
          [
            [
              78.3599644,
              17.4568417
            ],
            [
              78.3598305,
              17.4567823
            ],
            [
              78.3597969,
              17.4567135
            ],
            [
              78.3598436,
              17.4566794
            ],
            [
              78.3599444,
              17.4566799
            ],
            [
              78.3600354,
              17.4567254
            ],
            [
              78.3600256,
              17.4567957
            ],
            [
              78.3599644,
              17.4568417
            ]
          ]
        ]
      }
    },
    {
      "type": "Feature",
      "id": "way/1446927457",
      "properties": {
        "natural": "water",
        "water": "pond",
        "source": "OpenStreetMap",
        "synthetic": false,
        "osm_type": "way",
        "osm_id": 1446927457
      },
      "geometry": {
        "type": "Polygon",
        "coordinates": [
          [
            [
              78.3597747,
              17.4566815
            ],
            [
              78.3596902,
              17.4567058
            ],
            [
              78.359623,
              17.4566313
            ],
            [
              78.3596848,
              17.4565667
            ],
            [
              78.3597823,
              17.4565962
            ],
            [
              78.35983,
              17.4566386
            ],
            [
              78.3597747,
              17.4566815
            ]
          ]
        ]
      }
    },
    {
      "type": "Feature",
      "id": "way/1446927458",
      "properties": {
        "natural": "water",
        "water": "pond",
        "source": "OpenStreetMap",
        "synthetic": false,
        "osm_type": "way",
        "osm_id": 1446927458
      },
      "geometry": {
        "type": "Polygon",
        "coordinates": [
          [
            [
              78.3600419,
              17.4566706
            ],
            [
              78.3598918,
              17.4566479
            ],
            [
              78.3598674,
              17.4565796
            ],
            [
              78.3598977,
              17.4565295
            ],
            [
              78.3599915,
              17.4564974
            ],
            [
              78.3600804,
              17.4565574
            ],
            [
              78.3600419,
              17.4566706
            ]
          ]
        ]
      }
    }
  ]
}