{
  "type": "FeatureCollection",
  "features": [
    {
      "type": "Feature",
      "id": "node/2507787513",
      "properties": {
        "power": "tower",
        "source": "OpenStreetMap",
        "synthetic": false,
        "osm_type": "node",
        "osm_id": 2507787513
      },
      "geometry": {
        "type": "Point",
        "coordinates": [
          78.3584002,
          17.4509585
        ]
      }
    },
    {
      "type": "Feature",
      "id": "node/2507787550",
      "properties": {
        "power": "tower",
        "source": "OpenStreetMap",
        "synthetic": false,
        "osm_type": "node",
        "osm_id": 2507787550
      },
      "geometry": {
        "type": "Point",
        "coordinates": [
          78.3596217,
          17.4544437
        ]
      }
    },
    {
      "type": "Feature",
      "id": "node/2507787552",
      "properties": {
        "power": "tower",
        "source": "OpenStreetMap",
        "synthetic": false,
        "osm_type": "node",
        "osm_id": 2507787552
      },
      "geometry": {
        "type": "Point",
        "coordinates": [
          78.3609046,
          17.4548345
        ]
      }
    },
    {
      "type": "Feature",
      "id": "node/2507787554",
      "properties": {
        "power": "tower",
        "source": "OpenStreetMap",
        "synthetic": false,
        "osm_type": "node",
        "osm_id": 2507787554
      },
      "geometry": {
        "type": "Point",
        "coordinates": [
          78.3583998,
          17.455075
        ]
      }
    },
    {
      "type": "Feature",
      "id": "node/2507787555",
      "properties": {
        "power": "tower",
        "source": "OpenStreetMap",
        "synthetic": false,
        "osm_type": "node",
        "osm_id": 2507787555
      },
      "geometry": {
        "type": "Point",
        "coordinates": [
          78.3551637,
          17.456524
        ]
      }
    },
    {
      "type": "Feature",
      "id": "node/2507787557",
      "properties": {
        "power": "tower",
        "source": "OpenStreetMap",
        "synthetic": false,
        "osm_type": "node",
        "osm_id": 2507787557
      },
      "geometry": {
        "type": "Point",
        "coordinates": [
          78.3600365,
          17.4556379
        ]
      }
    },
    {
      "type": "Feature",
      "id": "node/2507787558",
      "properties": {
        "power": "tower",
        "source": "OpenStreetMap",
        "synthetic": false,
        "osm_type": "node",
        "osm_id": 2507787558
      },
      "geometry": {
        "type": "Point",
        "coordinates": [
          78.3523097,
          17.4556447
        ]
      }
    },
    {
      "type": "Feature",
      "id": "node/2507787561",
      "properties": {
        "power": "tower",
        "source": "OpenStreetMap",
        "synthetic": false,
        "osm_type": "node",
        "osm_id": 2507787561
      },
      "geometry": {
        "type": "Point",
        "coordinates": [
          78.3507815,
          17.4557941
        ]
      }
    },
    {
      "type": "Feature",
      "id": "node/2507787593",
      "properties": {
        "power": "tower",
        "source": "OpenStreetMap",
        "synthetic": false,
        "osm_type": "node",
        "osm_id": 2507787593
      },
      "geometry": {
        "type": "Point",
        "coordinates": [
          78.361244,
          17.4590895
        ]
      }
    },
    {
      "type": "Feature",
      "id": "way/243008536",
      "properties": {
        "cables": "6",
        "power": "line",
        "voltage": "220000",
        "source": "OpenStreetMap",
        "synthetic": false,
        "osm_type": "way",
        "osm_id": 243008536
      },
      "geometry": {
        "type": "LineString",
        "coordinates": [
          [
            78.3547398,
            17.4355812
          ],
          [
            78.3548599,
            17.4361488
          ],
          [
            78.3555567,
            17.4391543
          ],
          [
            78.3562104,
            17.442473
          ],
          [
            78.356576,
            17.444353
          ],
          [
            78.3571726,
            17.4474214
          ],
          [
            78.3584002,
            17.4509585
          ],
          [
            78.3596217,
            17.4544437
          ],
          [
            78.3600365,
            17.4556379
          ],
          [
            78.3605972,
            17.4572408
          ],
          [
            78.361244,
            17.4590895
          ],
          [
            78.3616881,
            17.4603564
          ],
          [
            78.3624929,
            17.4626522
          ],
          [
            78.3635231,
            17.4656571
          ],
          [
            78.3655135,
            17.4672671
          ],
          [
            78.3658564,
            17.4675496
          ],
          [
            78.3670905,
            17.468552
          ],
          [
            78.3671513,
            17.4686014
          ],
          [
            78.36806,
            17.4693394
          ],
          [
            78.3700036,
            17.4709365
          ],
          [
            78.3703544,
            17.4712153
          ],
          [
            78.370204,
            17.4717809
          ],
          [
            78.3699848,
            17.4732784
          ],
          [
            78.3698157,
            17.4734516
          ],
          [
            78.3699911,
            17.4760304
          ],
          [
            78.3700412,
            17.4766577
          ],
          [
            78.3716811,
            17.4766547
          ],
          [
            78.3743044,
            17.4767181
          ],
          [
            78.3764434,
            17.4763316
          ],
          [
            78.3773528,
            17.4769511
          ],
          [
            78.378454,
            17.4778973
          ],
          [
            78.3794236,
            17.4805282
          ],
          [
            78.3807138,
            17.4840408
          ],
          [
            78.3819791,
            17.4874071
          ],
          [
            78.3832824,
            17.4909425
          ],
          [
            78.3836282,
            17.4913259
          ],
          [
            78.3849993,
            17.4928503
          ],
          [
            78.3861059,
            17.4941015
          ],
          [
            78.3872756,
            17.495424
          ],
          [
            78.387884,
            17.496088
          ],
          [
            78.3897845,
            17.4981665
          ],
          [
            78.3903777,
            17.4987764
          ],
          [
            78.3908441,
            17.4992973
          ],
          [
            78.3911957,
            17.4993054
          ]
        ]
      }
    },
    {
      "type": "Feature",
      "id": "way/243355862",
      "properties": {
        "cables": "6",
        "power": "line",
        "voltage": "132000",
        "source": "OpenStreetMap",
        "synthetic": false,
        "osm_type": "way",
        "osm_id": 243355862
      },
      "geometry": {
        "type": "LineString",
        "coordinates": [
          [
            78.3184783,
            17.4602961
          ],
          [
            78.3196573,
            17.4595729
          ],
          [
            78.3225625,
            17.4589424
          ],
          [
            78.3240019,
            17.4586213
          ],
          [
            78.3252943,
            17.4583507
          ],
          [
            78.3269952,
            17.4579818
          ],
          [
            78.328262,
            17.457696
          ],
          [
            78.3299137,
            17.4575557
          ],
          [
            78.3312189,
            17.4574411
          ],
          [
            78.3323218,
            17.4573276
          ],
          [
            78.3337872,
            17.4572249
          ],
          [
            78.3356149,
            17.4570706
          ],
          [
            78.3373473,
            17.456902
          ],
          [
            78.3389679,
            17.4567811
          ],
          [
            78.340358,
            17.4566525
          ],
          [
            78.3433401,
            17.4563911
          ],
          [
            78.3447827,
            17.4562683
          ],
          [
            78.3463577,
            17.4561904
          ],
          [
            78.3493243,
            17.4559395
          ],
          [
            78.3507815,
            17.4557941
          ],
          [
            78.3523097,
            17.4556447
          ],
          [
            78.3531275,
            17.4558967
          ],
          [
            78.3551637,
            17.456524
          ],
          [
            78.3583998,
            17.455075
          ],
          [
            78.3609046,
            17.4548345
          ],
          [
            78.3655996,
            17.4551515
          ],
          [
            78.3671726,
            17.4542571
          ],
          [
            78.3686311,
            17.454129
          ],
          [
            78.3698003,
            17.4540036
          ],
          [
            78.3729007,
            17.4537066
          ],
          [
            78.3742891,
            17.4535481
          ],
          [
            78.3750169,
            17.4535537
          ],
          [
            78.3771517,
            17.4533266
          ],
          [
            78.3781747,
            17.4532191
          ],
          [
            78.3813083,
            17.4529303
          ],
          [
            78.3827906,
            17.4527869
          ],
          [
            78.3840721,
            17.4526821
          ],
          [
            78.3853689,
            17.4525519
          ],
          [
            78.3867175,
            17.4524204
          ],
          [
            78.3882979,
            17.4522631
          ],
          [
            78.3896048,
            17.4521436
          ],
          [
            78.3911894,
            17.4519982
          ],
          [
            78.3940975,
            17.4517194
          ],
          [
            78.3954689,
            17.4515836
          ],
          [
            78.3971725,
            17.4514183
          ],
          [
            78.3984209,
            17.4512909
          ],
          [
            78.3987846,
            17.4512725
          ],
          [
            78.3997717,
            17.4511475
          ],
          [
            78.399939,
            17.4511319
          ],
          [
            78.402756,
            17.4508696
          ],
          [
            78.4050439,
            17.4506498
          ],
          [
            78.407226,
            17.4504401
          ],
          [
            78.4094967,
            17.4502307
          ],
          [
            78.4095837,
            17.4502184
          ],
          [
            78.4096516,
            17.4502088
          ],
          [
            78.4117204,
            17.4499157
          ]
        ]
      }
    },
    {
      "type": "Feature",
      "id": "way/356461591",
      "properties": {
        "man_made": "water_tower",
        "source": "OpenStreetMap",
        "synthetic": false,
        "osm_type": "way",
        "osm_id": 356461591
      },
      "geometry": {
        "type": "LineString",
        "coordinates": [
          [
            78.3634799,
            17.4506451
          ],
          [
            78.3634652,
            17.4506504
          ],
          [
            78.3634538,
            17.4506606
          ],
          [
            78.3634474,
            17.4506742
          ],
          [
            78.3634469,
            17.4506892
          ],
          [
            78.3634524,
            17.4507031
          ],
          [
            78.3634632,
            17.450714
          ],
          [
            78.3634774,
            17.4507202
          ],
          [
            78.3634931,
            17.4507206
          ],
          [
            78.3635078,
            17.4507154
          ],
          [
            78.3635192,
            17.4507051
          ],
          [
            78.3635256,
            17.4506915
          ],
          [
            78.3635261,
            17.4506766
          ],
          [
            78.3635206,
            17.4506626
          ],
          [
            78.3635098,
            17.4506517
          ],
          [
            78.3634956,
            17.4506455
          ],
          [
            78.3634799,
            17.4506451
          ]
        ]
      }
    },
    {
      "type": "Feature",
      "id": "way/1446923980",
      "properties": {
        "man_made": "wastewater_plant",
        "source": "OpenStreetMap",
        "synthetic": false,
        "osm_type": "way",
        "osm_id": 1446923980
      },
      "geometry": {
        "type": "LineString",
        "coordinates": [
          [
            78.3599326,
            17.4579318
          ],
          [
            78.3598235,
            17.4577568
          ],
          [
            78.3590952,
            17.4581698
          ],
          [
            78.3592043,
            17.4583449
          ],
          [
            78.3599326,
            17.4579318
          ]
        ]
      }
    }
  ]
}