{
"type": "FeatureCollection",
"name": "utility_lines",
"crs": { "type": "name", "properties": { "name": "urn:ogc:def:crs:OGC:1.3:CRS84" } },
"features": [
{ "type": "Feature", "properties": { "utility_id": "SYN-UL-00001", "department": "water", "connection_id": "SYN-WAT-L00001", "synthetic": true }, "geometry": { "type": "LineString", "coordinates": [ [ 78.3523621005439, 17.450000069184693 ], [ 78.352334995033502, 17.45187608496661 ] ] } },
{ "type": "Feature", "properties": { "utility_id": "SYN-UL-00002", "department": "water", "connection_id": "SYN-WAT-L00002", "synthetic": true }, "geometry": { "type": "LineString", "coordinates": [ [ 78.352334995033502, 17.45187608496661 ], [ 78.352305651985972, 17.453906700347968 ] ] } },
{ "type": "Feature", "properties": { "utility_id": "SYN-UL-00003", "department": "water", "connection_id": "SYN-WAT-L00003", "synthetic": true }, "geometry": { "type": "LineString", "coordinates": [ [ 78.352305651985972, 17.453906700347968 ], [ 78.352276304980663, 17.455937315267708 ] ] } },
{ "type": "Feature", "properties": { "utility_id": "SYN-UL-00004", "department": "water", "connection_id": "SYN-WAT-L00004", "synthetic": true }, "geometry": { "type": "LineString", "coordinates": [ [ 78.352276304980663, 17.455937315267708 ], [ 78.352246954017374, 17.457967929725783 ] ] } },
{ "type": "Feature", "properties": { "utility_id": "SYN-UL-00005", "department": "water", "connection_id": "SYN-WAT-L00005", "synthetic": true }, "geometry": { "type": "LineString", "coordinates": [ [ 78.352246954017374, 17.457967929725783 ], [ 78.35221759909588, 17.45999854372214 ] ] } },
{ "type": "Feature", "properties": { "utility_id": "SYN-UL-00006", "department": "water", "connection_id": "SYN-WAT-L00006", "synthetic": true }, "geometry": { "type": "LineString", "coordinates": [ [ 78.35221759909588, 17.45999854372214 ], [ 78.352188660862268, 17.46200006509909 ] ] } },
{ "type": "Feature", "properties": { "utility_id": "SYN-UL-00007", "department": "water", "connection_id": "SYN-WAT-L00007", "synthetic": true }, "geometry": { "type": "LineString", "coordinates": [ [ 78.350000007519895, 17.451844989009235 ], [ 78.352334995033502, 17.45187608496661 ] ] } },
{ "type": "Feature", "properties": { "utility_id": "SYN-UL-00008", "department": "water", "connection_id": "SYN-WAT-L00008", "synthetic": true }, "geometry": { "type": "LineString", "coordinates": [ [ 78.352334995033502, 17.45187608496661 ], [ 78.354696670868151, 17.451907508468327 ] ] } },
{ "type": "Feature", "properties": { "utility_id": "SYN-UL-00009", "department": "water", "connection_id": "SYN-WAT-L00009", "synthetic": true }, "geometry": { "type": "LineString", "coordinates": [ [ 78.354696670868151, 17.451907508468327 ], [ 78.357058351630116, 17.451938904002464 ] ] } },
{ "type": "Feature", "properties": { "utility_id": "SYN-UL-00010", "department": "water", "connection_id": "SYN-WAT-L00010", "synthetic": true }, "geometry": { "type": "LineString", "coordinates": [ [ 78.357058351630116, 17.451938904002464 ], [ 78.359420037314962, 17.451970271568765 ] ] } },
{ "type": "Feature", "properties": { "utility_id": "SYN-UL-00011", "department": "water", "connection_id": "SYN-WAT-L00011", "synthetic": true }, "geometry": { "type": "LineString", "coordinates": [ [ 78.359420037314962, 17.451970271568765 ], [ 78.361781727918327, 17.452001611166978 ] ] } },
{ "type": "Feature", "properties": { "utility_id": "SYN-UL-00012", "department": "water", "connection_id": "SYN-WAT-L00012", "synthetic": true }, "geometry": { "type": "LineString", "coordinates": [ [ 78.361781727918327, 17.452001611166978 ], [ 78.364000008083522, 17.452031022179149 ] ] } },
{ "type": "Feature", "properties": { "utility_id": "SYN-UL-00013", "department": "water", "connection_id": "SYN-WAT-L00013", "synthetic": true }, "geometry": { "type": "LineString", "coordinates": [ [ 78.354724205211852, 17.450000110285053 ], [ 78.354696670868151, 17.451907508468327 ] ] } },
{ "type": "Feature", "properties": { "utility_id": "SYN-UL-00014", "department": "water", "connection_id": "SYN-WAT-L00014", "synthetic": true }, "geometry": { "type": "LineString", "coordinates": [ [ 78.354696670868151, 17.451907508468327 ], [ 78.354667353919709, 17.453938127733817 ] ] } },
{ "type": "Feature", "properties": { "utility_id": "SYN-UL-00015", "department": "water", "connection_id": "SYN-WAT-L00015", "synthetic": true }, "geometry": { "type": "LineString", "coordinates": [ [ 78.354667353919709, 17.453938127733817 ], [ 78.354638033016997, 17.455968746537771 ] ] } },
{ "type": "Feature", "properties": { "utility_id": "SYN-UL-00016", "department": "water", "connection_id": "SYN-WAT-L00016", "synthetic": true }, "geometry": { "type": "LineString", "coordinates": [ [ 78.354638033016997, 17.455968746537771 ], [ 78.35460870815983, 17.457999364880131 ] ] } },
{ "type": "Feature", "properties": { "utility_id": "SYN-UL-00017", "department": "water", "connection_id": "SYN-WAT-L00017", "synthetic": true }, "geometry": { "type": "LineString", "coordinates": [ [ 78.35460870815983, 17.457999364880131 ], [ 78.354579379347967, 17.460029982760854 ] ] } },
{ "type": "Feature", "properties": { "utility_id": "SYN-UL-00018", "department": "water", "connection_id": "SYN-WAT-L00018", "synthetic": true }, "geometry": { "type": "LineString", "coordinates": [ [ 78.354579379347967, 17.460029982760854 ], [ 78.354550920458664, 17.462000108289345 ] ] } },
{ "type": "Feature", "properties": { "utility_id": "SYN-UL-00019", "department": "water", "connection_id": "SYN-WAT-L00019", "synthetic": true }, "geometry": { "type": "LineString", "coordinates": [ [ 78.350000012638461, 17.453875991946045 ], [ 78.352305651985972, 17.453906700347968 ] ] } },
{ "type": "Feature", "properties": { "utility_id": "SYN-UL-00020", "department": "water", "connection_id": "SYN-WAT-L00020", "synthetic": true }, "geometry": { "type": "LineString", "coordinates": [ [ 78.352305651985972, 17.453906700347968 ], [ 78.354667353919709, 17.453938127733817 ] ] } },
{ "type": "Feature", "properties": { "utility_id": "SYN-UL-00021", "department": "water", "connection_id": "SYN-WAT-L00021", "synthetic": true }, "geometry": { "type": "LineString", "coordinates": [ [ 78.354667353919709, 17.453938127733817 ], [ 78.357029060780988, 17.453969527148622 ] ] } },
{ "type": "Feature", "properties": { "utility_id": "SYN-UL-00022", "department": "water", "connection_id": "SYN-WAT-L00022", "synthetic": true }, "geometry": { "type": "LineString", "coordinates": [ [ 78.357029060780988, 17.453969527148622 ], [ 78.359390772565419, 17.454000898592145 ] ] } },
{ "type": "Feature", "properties": { "utility_id": "SYN-UL-00023", "department": "water", "connection_id": "SYN-WAT-L00023", "synthetic": true }, "geometry": { "type": "LineString", "coordinates": [ [ 78.359390772565419, 17.454000898592145 ], [ 78.361752489268639, 17.454032242064109 ] ] } },
{ "type": "Feature", "properties": { "utility_id": "SYN-UL-00024", "department": "water", "connection_id": "SYN-WAT-L00024", "synthetic": true }, "geometry": { "type": "LineString", "coordinates": [ [ 78.361752489268639, 17.454032242064109 ], [ 78.364000012873362, 17.454062043988589 ] ] } },
{ "type": "Feature", "properties": { "utility_id": "SYN-UL-00025", "department": "water", "connection_id": "SYN-WAT-L00025", "synthetic": true }, "geometry": { "type": "LineString", "coordinates": [ [ 78.357086313999417, 17.450000123300992 ], [ 78.357058351630116, 17.451938904002464 ] ] } },
{ "type": "Feature", "properties": { "utility_id": "SYN-UL-00026", "department": "water", "connection_id": "SYN-WAT-L00026", "synthetic": true }, "geometry": { "type": "LineString", "coordinates": [ [ 78.357058351630116, 17.451938904002464 ], [ 78.357029060780988, 17.453969527148622 ] ] } },
{ "type": "Feature", "properties": { "utility_id": "SYN-UL-00027", "department": "water", "connection_id": "SYN-WAT-L00027", "synthetic": true }, "geometry": { "type": "LineString", "coordinates": [ [ 78.357029060780988, 17.453969527148622 ], [ 78.356999765981129, 17.456000149833326 ] ] } },
{ "type": "Feature", "properties": { "utility_id": "SYN-UL-00028", "department": "water", "connection_id": "SYN-WAT-L00028", "synthetic": true }, "geometry": { "type": "LineString", "coordinates": [ [ 78.356999765981129, 17.456000149833326 ], [ 78.356970467230312, 17.458030772056532 ] ] } },
{ "type": "Feature", "properties": { "utility_id": "SYN-UL-00029", "department": "water", "connection_id": "SYN-WAT-L00029", "synthetic": true }, "geometry": { "type": "LineString", "coordinates": [ [ 78.356970467230312, 17.458030772056532 ], [ 78.356941164528337, 17.460061393818179 ] ] } },
{ "type": "Feature", "properties": { "utility_id": "SYN-UL-00030", "department": "water", "connection_id": "SYN-WAT-L00030", "synthetic": true }, "geometry": { "type": "LineString", "coordinates": [ [ 78.356941164528337, 17.460061393818179 ], [ 78.356913184175042, 17.462000123374672 ] ] } },
{ "type": "Feature", "properties": { "utility_id": "SYN-UL-00031", "department": "water", "connection_id": "SYN-WAT-L00031", "synthetic": true }, "geometry": { "type": "LineString", "coordinates": [ [ 78.350000014445826, 17.455906994513576 ], [ 78.352276304980663, 17.455937315267708 ] ] } },
{ "type": "Feature", "properties": { "utility_id": "SYN-UL-00032", "department": "water", "connection_id": "SYN-WAT-L00032", "synthetic": true }, "geometry": { "type": "LineString", "coordinates": [ [ 78.352276304980663, 17.455937315267708 ], [ 78.354638033016997, 17.455968746537771 ] ] } },
{ "type": "Feature", "properties": { "utility_id": "SYN-UL-00033", "department": "water", "connection_id": "SYN-WAT-L00033", "synthetic": true }, "geometry": { "type": "LineString", "coordinates": [ [ 78.354638033016997, 17.455968746537771 ], [ 78.356999765981129, 17.456000149833326 ] ] } },
{ "type": "Feature", "properties": { "utility_id": "SYN-UL-00034", "department": "water", "connection_id": "SYN-WAT-L00034", "synthetic": true }, "geometry": { "type": "LineString", "coordinates": [ [ 78.356999765981129, 17.456000149833326 ], [ 78.359361503868669, 17.456031525154152 ] ] } },
{ "type": "Feature", "properties": { "utility_id": "SYN-UL-00035", "department": "water", "connection_id": "SYN-WAT-L00035", "synthetic": true }, "geometry": { "type": "LineString", "coordinates": [ [ 78.359361503868669, 17.456031525154152 ], [ 78.36172324667524, 17.456062872499949 ] ] } },
{ "type": "Feature", "properties": { "utility_id": "SYN-UL-00036", "department": "water", "connection_id": "SYN-WAT-L00036", "synthetic": true }, "geometry": { "type": "LineString", "coordinates": [ [ 78.36172324667524, 17.456062872499949 ], [ 78.364000014369438, 17.456093065428259 ] ] } },
{ "type": "Feature", "properties": { "utility_id": "SYN-UL-00037", "department": "water", "connection_id": "SYN-WAT-L00037", "synthetic": true }, "geometry": { "type": "LineString", "coordinates": [ [ 78.359448426902262, 17.450000108232395 ], [ 78.359420037314962, 17.451970271568765 ] ] } },
{ "type": "Feature", "properties": { "utility_id": "SYN-UL-00038", "department": "water", "connection_id": "SYN-WAT-L00038", "synthetic": true }, "geometry": { "type": "LineString", "coordinates": [ [ 78.359420037314962, 17.451970271568765 ], [ 78.359390772565419, 17.454000898592145 ] ] } },
{ "type": "Feature", "properties": { "utility_id": "SYN-UL-00039", "department": "water", "connection_id": "SYN-WAT-L00039", "synthetic": true }, "geometry": { "type": "LineString", "coordinates": [ [ 78.359390772565419, 17.454000898592145 ], [ 78.359361503868669, 17.456031525154152 ] ] } },
{ "type": "Feature", "properties": { "utility_id": "SYN-UL-00040", "department": "water", "connection_id": "SYN-WAT-L00040", "synthetic": true }, "geometry": { "type": "LineString", "coordinates": [ [ 78.359361503868669, 17.456031525154152 ], [ 78.359332231224471, 17.458062151254719 ] ] } },
{ "type": "Feature", "properties": { "utility_id": "SYN-UL-00041", "department": "water", "connection_id": "SYN-WAT-L00041", "synthetic": true }, "geometry": { "type": "LineString", "coordinates": [ [ 78.359332231224471, 17.458062151254719 ], [ 78.359302954632639, 17.460092776893834 ] ] } },
{ "type": "Feature", "properties": { "utility_id": "SYN-UL-00042", "department": "water", "connection_id": "SYN-WAT-L00042", "synthetic": true }, "geometry": { "type": "LineString", "coordinates": [ [ 78.359302954632639, 17.460092776893834 ], [ 78.359275452006983, 17.462000110354953 ] ] } },
{ "type": "Feature", "properties": { "utility_id": "SYN-UL-00043", "department": "water", "connection_id": "SYN-WAT-L00043", "synthetic": true }, "geometry": { "type": "LineString", "coordinates": [ [ 78.350000012941919, 17.457937996711777 ], [ 78.352246954017374, 17.457967929725783 ] ] } },
{ "type": "Feature", "properties": { "utility_id": "SYN-UL-00044", "department": "water", "connection_id": "SYN-WAT-L00044", "synthetic": true }, "geometry": { "type": "LineString", "coordinates": [ [ 78.352246954017374, 17.457967929725783 ], [ 78.35460870815983, 17.457999364880131 ] ] } },
{ "type": "Feature", "properties": { "utility_id": "SYN-UL-00045", "department": "water", "connection_id": "SYN-WAT-L00045", "synthetic": true }, "geometry": { "type": "LineString", "coordinates": [ [ 78.35460870815983, 17.457999364880131 ], [ 78.356970467230312, 17.458030772056532 ] ] } },
{ "type": "Feature", "properties": { "utility_id": "SYN-UL-00046", "department": "water", "connection_id": "SYN-WAT-L00046", "synthetic": true }, "geometry": { "type": "LineString", "coordinates": [ [ 78.356970467230312, 17.458030772056532 ], [ 78.359332231224471, 17.458062151254719 ] ] } },
{ "type": "Feature", "properties": { "utility_id": "SYN-UL-00047", "department": "water", "connection_id": "SYN-WAT-L00047", "synthetic": true }, "geometry": { "type": "LineString", "coordinates": [ [ 78.359332231224471, 17.458062151254719 ], [ 78.361694000137916, 17.458093502474462 ] ] } },
{ "type": "Feature", "properties": { "utility_id": "SYN-UL-00048", "department": "water", "connection_id": "SYN-WAT-L00048", "synthetic": true }, "geometry": { "type": "LineString", "coordinates": [ [ 78.361694000137916, 17.458093502474462 ], [ 78.364000012571694, 17.458124086498135 ] ] } },
{ "type": "Feature", "properties": { "utility_id": "SYN-UL-00049", "department": "water", "connection_id": "SYN-WAT-L00049", "synthetic": true }, "geometry": { "type": "LineString", "coordinates": [ [ 78.361810543915951, 17.450000065079188 ], [ 78.361781727918327, 17.452001611166978 ] ] } },
{ "type": "Feature", "properties": { "utility_id": "SYN-UL-00050", "department": "water", "connection_id": "SYN-WAT-L00050", "synthetic": true }, "geometry": { "type": "LineString", "coordinates": [ [ 78.361781727918327, 17.452001611166978 ], [ 78.361752489268639, 17.454032242064109 ] ] } },
{ "type": "Feature", "properties": { "utility_id": "SYN-UL-00051", "department": "water", "connection_id": "SYN-WAT-L00051", "synthetic": true }, "geometry": { "type": "LineString", "coordinates": [ [ 78.361752489268639, 17.454032242064109 ], [ 78.36172324667524, 17.456062872499949 ] ] } },
{ "type": "Feature", "properties": { "utility_id": "SYN-UL-00052", "department": "water", "connection_id": "SYN-WAT-L00052", "synthetic": true }, "geometry": { "type": "LineString", "coordinates": [ [ 78.36172324667524, 17.456062872499949 ], [ 78.361694000137916, 17.458093502474462 ] ] } },
{ "type": "Feature", "properties": { "utility_id": "SYN-UL-00053", "department": "water", "connection_id": "SYN-WAT-L00053", "synthetic": true }, "geometry": { "type": "LineString", "coordinates": [ [ 78.361694000137916, 17.458093502474462 ], [ 78.361664749656455, 17.460124131987573 ] ] } },
{ "type": "Feature", "properties": { "utility_id": "SYN-UL-00054", "department": "water", "connection_id": "SYN-WAT-L00054", "synthetic": true }, "geometry": { "type": "LineString", "coordinates": [ [ 78.361664749656455, 17.460124131987573 ], [ 78.361637723950096, 17.46200006923009 ] ] } },
{ "type": "Feature", "properties": { "utility_id": "SYN-UL-00055", "department": "water", "connection_id": "SYN-WAT-L00055", "synthetic": true }, "geometry": { "type": "LineString", "coordinates": [ [ 78.350000008126671, 17.459968998540596 ], [ 78.35221759909588, 17.45999854372214 ] ] } },
{ "type": "Feature", "properties": { "utility_id": "SYN-UL-00056", "department": "water", "connection_id": "SYN-WAT-L00056", "synthetic": true }, "geometry": { "type": "LineString", "coordinates": [ [ 78.35221759909588, 17.45999854372214 ], [ 78.354579379347967, 17.460029982760854 ] ] } },
{ "type": "Feature", "properties": { "utility_id": "SYN-UL-00057", "department": "water", "connection_id": "SYN-WAT-L00057", "synthetic": true }, "geometry": { "type": "LineString", "coordinates": [ [ 78.354579379347967, 17.460029982760854 ], [ 78.356941164528337, 17.460061393818179 ] ] } },
{ "type": "Feature", "properties": { "utility_id": "SYN-UL-00058", "department": "water", "connection_id": "SYN-WAT-L00058", "synthetic": true }, "geometry": { "type": "LineString", "coordinates": [ [ 78.356941164528337, 17.460061393818179 ], [ 78.359302954632639, 17.460092776893834 ] ] } },
{ "type": "Feature", "properties": { "utility_id": "SYN-UL-00059", "department": "water", "connection_id": "SYN-WAT-L00059", "synthetic": true }, "geometry": { "type": "LineString", "coordinates": [ [ 78.359302954632639, 17.460092776893834 ], [ 78.361664749656455, 17.460124131987573 ] ] } },
{ "type": "Feature", "properties": { "utility_id": "SYN-UL-00060", "department": "water", "connection_id": "SYN-WAT-L00060", "synthetic": true }, "geometry": { "type": "LineString", "coordinates": [ [ 78.361664749656455, 17.460124131987573 ], [ 78.364000007480044, 17.460155107198151 ] ] } },
{ "type": "Feature", "properties": { "utility_id": "SYN-UL-00061", "department": "electricity", "connection_id": "SYN-ELE-L00061", "synthetic": true }, "geometry": { "type": "LineString", "coordinates": [ [ 78.363260467240423, 17.450933711007057 ], [ 78.362903317309517, 17.450231595115749 ] ] } },
{ "type": "Feature", "properties": { "utility_id": "SYN-UL-00062", "department": "electricity", "connection_id": "SYN-ELE-L00062", "synthetic": true }, "geometry": { "type": "LineString", "coordinates": [ [ 78.356720428207424, 17.450199239567713 ], [ 78.356315614694552, 17.450499745204134 ] ] } },
{ "type": "Feature", "properties": { "utility_id": "SYN-UL-00063", "department": "electricity", "connection_id": "SYN-ELE-L00063", "synthetic": true }, "geometry": { "type": "LineString", "coordinates": [ [ 78.35458769426225, 17.46180277383743 ], [ 78.354600055195831, 17.461391945851371 ] ] } },
{ "type": "Feature", "properties": { "utility_id": "SYN-UL-00064", "department": "electricity", "connection_id": "SYN-ELE-L00064", "synthetic": true }, "geometry": { "type": "LineString", "coordinates": [ [ 78.350181066192846, 17.460606813559448 ], [ 78.350187860858654, 17.460178562043204 ] ] } },
{ "type": "Feature", "properties": { "utility_id": "SYN-UL-00065", "department": "electricity", "connection_id": "SYN-ELE-L00065", "synthetic": true }, "geometry": { "type": "LineString", "coordinates": [ [ 78.356105558001104, 17.450293172363466 ], [ 78.356316501959881, 17.450438242095018 ] ] } },
{ "type": "Feature", "properties": { "utility_id": "SYN-UL-00066", "department": "electricity", "connection_id": "SYN-ELE-L00066", "synthetic": true }, "geometry": { "type": "LineString", "coordinates": [ [ 78.352532821066518, 17.460275688025693 ], [ 78.352083994128307, 17.4601293618176 ] ] } },
{ "type": "Feature", "properties": { "utility_id": "SYN-UL-00067", "department": "electricity", "connection_id": "SYN-ELE-L00067", "synthetic": true }, "geometry": { "type": "LineString", "coordinates": [ [ 78.356241700438957, 17.45084804784895 ], [ 78.35540049480413, 17.451770184119223 ] ] } },
{ "type": "Feature", "properties": { "utility_id": "SYN-UL-00068", "department": "electricity", "connection_id": "SYN-ELE-L00068", "synthetic": true }, "geometry": { "type": "LineString", "coordinates": [ [ 78.351608495892947, 17.461942274259609 ], [ 78.351104644465039, 17.461757755277123 ] ] } },
{ "type": "Feature", "properties": { "utility_id": "SYN-UL-00069", "department": "electricity", "connection_id": "SYN-ELE-L00069", "synthetic": true }, "geometry": { "type": "LineString", "coordinates": [ [ 78.350167677884556, 17.461097015803052 ], [ 78.350344117514723, 17.460873913419992 ] ] } },
{ "type": "Feature", "properties": { "utility_id": "SYN-UL-00070", "department": "electricity", "connection_id": "SYN-ELE-L00070", "synthetic": true }, "geometry": { "type": "LineString", "coordinates": [ [ 78.35714446254012, 17.450812618431659 ], [ 78.357427573843026, 17.450741928037786 ] ] } },
{ "type": "Feature", "properties": { "utility_id": "SYN-UL-00071", "department": "electricity", "connection_id": "SYN-ELE-L00071", "synthetic": true }, "geometry": { "type": "LineString", "coordinates": [ [ 78.351967516932191, 17.459127698284288 ], [ 78.352251251976611, 17.459013138274415 ] ] } },
{ "type": "Feature", "properties": { "utility_id": "SYN-UL-00072", "department": "electricity", "connection_id": "SYN-ELE-L00072", "synthetic": true }, "geometry": { "type": "LineString", "coordinates": [ [ 78.357842011610941, 17.450475863331512 ], [ 78.357637407866747, 17.45044457703154 ] ] } },
{ "type": "Feature", "properties": { "utility_id": "SYN-UL-00073", "department": "electricity", "connection_id": "SYN-ELE-L00073", "synthetic": true }, "geometry": { "type": "LineString", "coordinates": [ [ 78.360416749823415, 17.450768897809027 ], [ 78.360265417779729, 17.450497492605667 ] ] } },
{ "type": "Feature", "properties": { "utility_id": "SYN-UL-00074", "department": "electricity", "connection_id": "SYN-ELE-L00074", "synthetic": true }, "geometry": { "type": "LineString", "coordinates": [ [ 78.362328877801218, 17.461614518876285 ], [ 78.361823302559557, 17.461229477881862 ] ] } },
{ "type": "Feature", "properties": { "utility_id": "SYN-UL-00075", "department": "electricity", "connection_id": "SYN-ELE-L00075", "synthetic": true }, "geometry": { "type": "LineString", "coordinates": [ [ 78.35437876030187, 17.458993865597165 ], [ 78.354081346185879, 17.459163660598659 ] ] } },
{ "type": "Feature", "properties": { "utility_id": "SYN-UL-00076", "department": "electricity", "connection_id": "SYN-ELE-L00076", "synthetic": true }, "geometry": { "type": "LineString", "coordinates": [ [ 78.360550428502307, 17.452387662520213 ], [ 78.360947883087363, 17.452457041762152 ] ] } },
{ "type": "Feature", "properties": { "utility_id": "SYN-UL-00077", "department": "electricity", "connection_id": "SYN-ELE-L00077", "synthetic": true }, "geometry": { "type": "LineString", "coordinates": [ [ 78.352357909547791, 17.458091078427142 ], [ 78.352785094363028, 17.458334373385291 ] ] } },
{ "type": "Feature", "properties": { "utility_id": "SYN-UL-00078", "department": "electricity", "connection_id": "SYN-ELE-L00078", "synthetic": true }, "geometry": { "type": "LineString", "coordinates": [ [ 78.354600558991791, 17.461357069834531 ], [ 78.354290827741991, 17.461092867273134 ] ] } },
{ "type": "Feature", "properties": { "utility_id": "SYN-UL-00079", "department": "electricity", "connection_id": "SYN-ELE-L00079", "synthetic": true }, "geometry": { "type": "LineString", "coordinates": [ [ 78.350506453758513, 17.460441145855089 ], [ 78.350847228065007, 17.460257790300055 ] ] } },
{ "type": "Feature", "properties": { "utility_id": "SYN-UL-00080", "department": "electricity", "connection_id": "SYN-ELE-L00080", "synthetic": true }, "geometry": { "type": "LineString", "coordinates": [ [ 78.354588388227569, 17.461754734474109 ], [ 78.354600749140559, 17.461343906485595 ] ] } },
{ "type": "Feature", "properties": { "utility_id": "SYN-UL-00081", "department": "electricity", "connection_id": "SYN-ELE-L00081", "synthetic": true }, "geometry": { "type": "LineString", "coordinates": [ [ 78.354082167334298, 17.459106818776728 ], [ 78.354155491333159, 17.458937285588085 ] ] } },
{ "type": "Feature", "properties": { "utility_id": "SYN-UL-00082", "department": "electricity", "connection_id": "SYN-ELE-L00082", "synthetic": true }, "geometry": { "type": "LineString", "coordinates": [ [ 78.350154227504078, 17.45889322195853 ], [ 78.350107407639527, 17.459505840146374 ] ] } },
{ "type": "Feature", "properties": { "utility_id": "SYN-UL-00083", "department": "electricity", "connection_id": "SYN-ELE-L00083", "synthetic": true }, "geometry": { "type": "LineString", "coordinates": [ [ 78.354062800790373, 17.459519442129501 ], [ 78.354440120483901, 17.459723163380644 ] ] } },
{ "type": "Feature", "properties": { "utility_id": "SYN-UL-00084", "department": "electricity", "connection_id": "SYN-ELE-L00084", "synthetic": true }, "geometry": { "type": "LineString", "coordinates": [ [ 78.351295840747767, 17.460964648809902 ], [ 78.351105366109479, 17.461707865484797 ] ] } },
{ "type": "Feature", "properties": { "utility_id": "SYN-UL-00085", "department": "electricity", "connection_id": "SYN-ELE-L00085", "synthetic": true }, "geometry": { "type": "LineString", "coordinates": [ [ 78.351066041162724, 17.460412990567814 ], [ 78.351190654578389, 17.460009518124043 ] ] } },
{ "type": "Feature", "properties": { "utility_id": "SYN-UL-00086", "department": "electricity", "connection_id": "SYN-ELE-L00086", "synthetic": true }, "geometry": { "type": "LineString", "coordinates": [ [ 78.351500807231972, 17.458248033180155 ], [ 78.351405341576182, 17.457945116612247 ] ] } },
{ "type": "Feature", "properties": { "utility_id": "SYN-UL-00087", "department": "electricity", "connection_id": "SYN-ELE-L00087", "synthetic": true }, "geometry": { "type": "LineString", "coordinates": [ [ 78.359423298668361, 17.450694863904303 ], [ 78.359248728460202, 17.450617078873787 ] ] } },
{ "type": "Feature", "properties": { "utility_id": "SYN-UL-00088", "department": "electricity", "connection_id": "SYN-ELE-L00088", "synthetic": true }, "geometry": { "type": "LineString", "coordinates": [ [ 78.350345052269063, 17.46080930565596 ], [ 78.350741379011723, 17.460743139217712 ] ] } },
{ "type": "Feature", "properties": { "utility_id": "SYN-UL-00089", "department": "electricity", "connection_id": "SYN-ELE-L00089", "synthetic": true }, "geometry": { "type": "LineString", "coordinates": [ [ 78.350182103012131, 17.460535154565406 ], [ 78.350188897648223, 17.460106903045688 ] ] } },
{ "type": "Feature", "properties": { "utility_id": "SYN-UL-00090", "department": "electricity", "connection_id": "SYN-ELE-L00090", "synthetic": true }, "geometry": { "type": "LineString", "coordinates": [ [ 78.353660336053139, 17.46148879514033 ], [ 78.353196783920481, 17.461227445232733 ] ] } },
{ "type": "Feature", "properties": { "utility_id": "SYN-UL-00091", "department": "electricity", "connection_id": "SYN-ELE-L00091", "synthetic": true }, "geometry": { "type": "LineString", "coordinates": [ [ 78.363673201662934, 17.457167804008929 ], [ 78.363340698014625, 17.456238904643453 ] ] } },
{ "type": "Feature", "properties": { "utility_id": "SYN-UL-00092", "department": "electricity", "connection_id": "SYN-ELE-L00092", "synthetic": true }, "geometry": { "type": "LineString", "coordinates": [ [ 78.361570891509388, 17.451185745915591 ], [ 78.361848126359362, 17.451400185890485 ] ] } },
{ "type": "Feature", "properties": { "utility_id": "SYN-UL-00093", "department": "electricity", "connection_id": "SYN-ELE-L00093", "synthetic": true }, "geometry": { "type": "LineString", "coordinates": [ [ 78.361822674275885, 17.461273091319473 ], [ 78.361455663951574, 17.461579724426411 ] ] } },
{ "type": "Feature", "properties": { "utility_id": "SYN-UL-00094", "department": "electricity", "connection_id": "SYN-ELE-L00094", "synthetic": true }, "geometry": { "type": "LineString", "coordinates": [ [ 78.361703022822212, 17.450743620278747 ], [ 78.361473414503507, 17.450636504345301 ] ] } },
{ "type": "Feature", "properties": { "utility_id": "SYN-UL-00095", "department": "electricity", "connection_id": "SYN-ELE-L00095", "synthetic": true }, "geometry": { "type": "LineString", "coordinates": [ [ 78.354440330540257, 17.459708621329458 ], [ 78.354063010874043, 17.459504900082468 ] ] } },
{ "type": "Feature", "properties": { "utility_id": "SYN-UL-00096", "department": "electricity", "connection_id": "SYN-ELE-L00096", "synthetic": true }, "geometry": { "type": "LineString", "coordinates": [ [ 78.356705674957567, 17.450596447692721 ], [ 78.356273376700955, 17.452155771737456 ] ] } },
{ "type": "Feature", "properties": { "utility_id": "SYN-UL-00097", "department": "electricity", "connection_id": "SYN-ELE-L00097", "synthetic": true }, "geometry": { "type": "LineString", "coordinates": [ [ 78.362988808522317, 17.450636633409797 ], [ 78.363260041287148, 17.45096331407472 ] ] } },
{ "type": "Feature", "properties": { "utility_id": "SYN-UL-00098", "department": "electricity", "connection_id": "SYN-ELE-L00098", "synthetic": true }, "geometry": { "type": "LineString", "coordinates": [ [ 78.352643483283842, 17.45731652744054 ], [ 78.353374504046144, 17.457737332630668 ] ] } },
{ "type": "Feature", "properties": { "utility_id": "SYN-UL-00099", "department": "electricity", "connection_id": "SYN-ELE-L00099", "synthetic": true }, "geometry": { "type": "LineString", "coordinates": [ [ 78.352529955190192, 17.457881587787824 ], [ 78.352785061205026, 17.458336667646456 ] ] } },
{ "type": "Feature", "properties": { "utility_id": "SYN-UL-00100", "department": "electricity", "connection_id": "SYN-ELE-L00100", "synthetic": true }, "geometry": { "type": "LineString", "coordinates": [ [ 78.357316088273024, 17.450328758630572 ], [ 78.35696969128432, 17.450212805796287 ] ] } },
{ "type": "Feature", "properties": { "utility_id": "SYN-UL-00101", "department": "sewer", "connection_id": "SYN-SEW-L00101", "synthetic": true }, "geometry": { "type": "LineString", "coordinates": [ [ 78.361273859118342, 17.451155020790825 ], [ 78.361454803961124, 17.45135812235338 ] ] } },
{ "type": "Feature", "properties": { "utility_id": "SYN-UL-00102", "department": "sewer", "connection_id": "SYN-SEW-L00102", "synthetic": true }, "geometry": { "type": "LineString", "coordinates": [ [ 78.356312176341305, 17.461116123388134 ], [ 78.356044412057486, 17.461393524677391 ] ] } },
{ "type": "Feature", "properties": { "utility_id": "SYN-UL-00103", "department": "sewer", "connection_id": "SYN-SEW-L00103", "synthetic": true }, "geometry": { "type": "LineString", "coordinates": [ [ 78.354081480737591, 17.459154346627344 ], [ 78.354154804762558, 17.458984813442331 ] ] } },
{ "type": "Feature", "properties": { "utility_id": "SYN-UL-00104", "department": "sewer", "connection_id": "SYN-SEW-L00104", "synthetic": true }, "geometry": { "type": "LineString", "coordinates": [ [ 78.353097173113738, 17.461716541878939 ], [ 78.353196851810779, 17.461222747880097 ] ] } },
{ "type": "Feature", "properties": { "utility_id": "SYN-UL-00105", "department": "sewer", "connection_id": "SYN-SEW-L00105", "synthetic": true }, "geometry": { "type": "LineString", "coordinates": [ [ 78.352736546480472, 17.459193587661137 ], [ 78.352467803442096, 17.458936865306665 ] ] } },
{ "type": "Feature", "properties": { "utility_id": "SYN-UL-00106", "department": "sewer", "connection_id": "SYN-SEW-L00106", "synthetic": true }, "geometry": { "type": "LineString", "coordinates": [ [ 78.354081871204599, 17.459127317594209 ], [ 78.354155195214716, 17.458957784407136 ] ] } },
{ "type": "Feature", "properties": { "utility_id": "SYN-UL-00107", "department": "sewer", "connection_id": "SYN-SEW-L00107", "synthetic": true }, "geometry": { "type": "LineString", "coordinates": [ [ 78.361128080732655, 17.461399897470081 ], [ 78.361456416325311, 17.461527505291755 ] ] } },
{ "type": "Feature", "properties": { "utility_id": "SYN-UL-00108", "department": "sewer", "connection_id": "SYN-SEW-L00108", "synthetic": true }, "geometry": { "type": "LineString", "coordinates": [ [ 78.361823428843039, 17.461220711672645 ], [ 78.361456418637715, 17.461527344796739 ] ] } },
{ "type": "Feature", "properties": { "utility_id": "SYN-UL-00109", "department": "sewer", "connection_id": "SYN-SEW-L00109", "synthetic": true }, "geometry": { "type": "LineString", "coordinates": [ [ 78.355867906374669, 17.461872261730008 ], [ 78.356044609893686, 17.461379821694351 ] ] } },
{ "type": "Feature", "properties": { "utility_id": "SYN-UL-00110", "department": "sewer", "connection_id": "SYN-SEW-L00110", "synthetic": true }, "geometry": { "type": "LineString", "coordinates": [ [ 78.354290823221888, 17.461093180152591 ], [ 78.354600554472142, 17.461357382714066 ] ] } },
{ "type": "Feature", "properties": { "utility_id": "SYN-UL-00111", "department": "sewer", "connection_id": "SYN-SEW-L00111", "synthetic": true }, "geometry": { "type": "LineString", "coordinates": [ [ 78.362338171893612, 17.458121234959403 ], [ 78.363392447400742, 17.459263402531356 ] ] } },
{ "type": "Feature", "properties": { "utility_id": "SYN-UL-00112", "department": "sewer", "connection_id": "SYN-SEW-L00112", "synthetic": true }, "geometry": { "type": "LineString", "coordinates": [ [ 78.351486679047696, 17.46055828459183 ], [ 78.351065900745226, 17.460422698755199 ] ] } },
{ "type": "Feature", "properties": { "utility_id": "SYN-UL-00113", "department": "sewer", "connection_id": "SYN-SEW-L00113", "synthetic": true }, "geometry": { "type": "LineString", "coordinates": [ [ 78.363373076704491, 17.454494776688342 ], [ 78.363340765637545, 17.45623420633256 ] ] } },
{ "type": "Feature", "properties": { "utility_id": "SYN-UL-00114", "department": "sewer", "connection_id": "SYN-SEW-L00114", "synthetic": true }, "geometry": { "type": "LineString", "coordinates": [ [ 78.354982813690441, 17.461262895107758 ], [ 78.355087181910761, 17.461584642496216 ] ] } },
{ "type": "Feature", "properties": { "utility_id": "SYN-UL-00115", "department": "sewer", "connection_id": "SYN-SEW-L00115", "synthetic": true }, "geometry": { "type": "LineString", "coordinates": [ [ 78.351008224009149, 17.457474082990839 ], [ 78.350944261999402, 17.458072262975346 ] ] } },
{ "type": "Feature", "properties": { "utility_id": "SYN-UL-00116", "department": "sewer", "connection_id": "SYN-SEW-L00116", "synthetic": true }, "geometry": { "type": "LineString", "coordinates": [ [ 78.360970869744278, 17.450862740487857 ], [ 78.361090378022311, 17.450185953497911 ] ] } },
{ "type": "Feature", "properties": { "utility_id": "SYN-UL-00117", "department": "sewer", "connection_id": "SYN-SEW-L00117", "synthetic": true }, "geometry": { "type": "LineString", "coordinates": [ [ 78.359249866091318, 17.450538133812721 ], [ 78.3589441724788, 17.451815485938784 ] ] } },
{ "type": "Feature", "properties": { "utility_id": "SYN-UL-00118", "department": "sewer", "connection_id": "SYN-SEW-L00118", "synthetic": true }, "geometry": { "type": "LineString", "coordinates": [ [ 78.350168612233304, 17.461032441258016 ], [ 78.350345051788608, 17.460809338864255 ] ] } },
{ "type": "Feature", "properties": { "utility_id": "SYN-UL-00119", "department": "sewer", "connection_id": "SYN-SEW-L00119", "synthetic": true }, "geometry": { "type": "LineString", "coordinates": [ [ 78.351007663269726, 17.457512857470693 ], [ 78.350943701226001, 17.458111037450866 ] ] } },
{ "type": "Feature", "properties": { "utility_id": "SYN-UL-00120", "department": "sewer", "connection_id": "SYN-SEW-L00120", "synthetic": true }, "geometry": { "type": "LineString", "coordinates": [ [ 78.352413679585723, 17.460686557398478 ], [ 78.352141010492304, 17.46055481622242 ] ] } },
{ "type": "Feature", "properties": { "utility_id": "SYN-UL-00121", "department": "sewer", "connection_id": "SYN-SEW-L00121", "synthetic": true }, "geometry": { "type": "LineString", "coordinates": [ [ 78.35880280321841, 17.450566502199575 ], [ 78.358944482026089, 17.451794009230134 ] ] } },
{ "type": "Feature", "properties": { "utility_id": "SYN-UL-00122", "department": "sewer", "connection_id": "SYN-SEW-L00122", "synthetic": true }, "geometry": { "type": "LineString", "coordinates": [ [ 78.361205819082286, 17.457126696311335 ], [ 78.362071310925046, 17.455769325281633 ] ] } },
{ "type": "Feature", "properties": { "utility_id": "SYN-UL-00123", "department": "sewer", "connection_id": "SYN-SEW-L00123", "synthetic": true }, "geometry": { "type": "LineString", "coordinates": [ [ 78.356272473858837, 17.452218347004678 ], [ 78.356576935453944, 17.450546218113733 ] ] } },
{ "type": "Feature", "properties": { "utility_id": "SYN-UL-00124", "department": "sewer", "connection_id": "SYN-SEW-L00124", "synthetic": true }, "geometry": { "type": "LineString", "coordinates": [ [ 78.350969187357407, 17.461408193727962 ], [ 78.351105155735112, 17.461722409414392 ] ] } },
{ "type": "Feature", "properties": { "utility_id": "SYN-UL-00125", "department": "sewer", "connection_id": "SYN-SEW-L00125", "synthetic": true }, "geometry": { "type": "LineString", "coordinates": [ [ 78.351854643583266, 17.461233504526142 ], [ 78.352159196262335, 17.460917673115848 ] ] } },
{ "type": "Feature", "properties": { "utility_id": "SYN-UL-00126", "department": "sewer", "connection_id": "SYN-SEW-L00126", "synthetic": true }, "geometry": { "type": "LineString", "coordinates": [ [ 78.352736250452395, 17.459214068905119 ], [ 78.35246750738861, 17.458957346546704 ] ] } },
{ "type": "Feature", "properties": { "utility_id": "SYN-UL-00127", "department": "sewer", "connection_id": "SYN-SEW-L00127", "synthetic": true }, "geometry": { "type": "LineString", "coordinates": [ [ 78.350900127666819, 17.461004325251153 ], [ 78.350695457586582, 17.461570275646014 ] ] } },
{ "type": "Feature", "properties": { "utility_id": "SYN-UL-00128", "department": "sewer", "connection_id": "SYN-SEW-L00128", "synthetic": true }, "geometry": { "type": "LineString", "coordinates": [ [ 78.357842838498215, 17.450418512249282 ], [ 78.357638234816406, 17.450387225958632 ] ] } },
{ "type": "Feature", "properties": { "utility_id": "SYN-UL-00129", "department": "sewer", "connection_id": "SYN-SEW-L00129", "synthetic": true }, "geometry": { "type": "LineString", "coordinates": [ [ 78.3558678381292, 17.461876988246942 ], [ 78.356044541654811, 17.461384548212202 ] ] } },
{ "type": "Feature", "properties": { "utility_id": "SYN-UL-00130", "department": "sewer", "connection_id": "SYN-SEW-L00130", "synthetic": true }, "geometry": { "type": "LineString", "coordinates": [ [ 78.350495408822283, 17.45966966788631 ], [ 78.35010613093776, 17.459594081445282 ] ] } },
{ "type": "Feature", "properties": { "utility_id": "SYN-UL-00131", "department": "sewer", "connection_id": "SYN-SEW-L00131", "synthetic": true }, "geometry": { "type": "LineString", "coordinates": [ [ 78.352122264776, 17.450391904236035 ], [ 78.353091234950355, 17.450469331606389 ] ] } },
{ "type": "Feature", "properties": { "utility_id": "SYN-UL-00132", "department": "sewer", "connection_id": "SYN-SEW-L00132", "synthetic": true }, "geometry": { "type": "LineString", "coordinates": [ [ 78.354908522915309, 17.459755875583362 ], [ 78.354859690423424, 17.459930680815841 ] ] } },
{ "type": "Feature", "properties": { "utility_id": "SYN-UL-00133", "department": "sewer", "connection_id": "SYN-SEW-L00133", "synthetic": true }, "geometry": { "type": "LineString", "coordinates": [ [ 78.35402457001004, 17.459379565755039 ], [ 78.354080814303842, 17.459200478606764 ] ] } },
{ "type": "Feature", "properties": { "utility_id": "SYN-UL-00134", "department": "sewer", "connection_id": "SYN-SEW-L00134", "synthetic": true }, "geometry": { "type": "LineString", "coordinates": [ [ 78.352471411897895, 17.4584569021285 ], [ 78.352784808838734, 17.458354129305597 ] ] } },
{ "type": "Feature", "properties": { "utility_id": "SYN-UL-00135", "department": "sewer", "connection_id": "SYN-SEW-L00135", "synthetic": true }, "geometry": { "type": "LineString", "coordinates": [ [ 78.351743954256349, 17.460290317544384 ], [ 78.352084306407079, 17.460107762776634 ] ] } },
{ "type": "Feature", "properties": { "utility_id": "SYN-UL-00136", "department": "sewer", "connection_id": "SYN-SEW-L00136", "synthetic": true }, "geometry": { "type": "LineString", "coordinates": [ [ 78.359651046911736, 17.450281040895092 ], [ 78.35974318803089, 17.450400147434724 ] ] } },
{ "type": "Feature", "properties": { "utility_id": "SYN-UL-00137", "department": "sewer", "connection_id": "SYN-SEW-L00137", "synthetic": true }, "geometry": { "type": "LineString", "coordinates": [ [ 78.354892723244092, 17.46154256953325 ], [ 78.354950930780888, 17.461867772559931 ] ] } },
{ "type": "Feature", "properties": { "utility_id": "SYN-UL-00138", "department": "sewer", "connection_id": "SYN-SEW-L00138", "synthetic": true }, "geometry": { "type": "LineString", "coordinates": [ [ 78.363448046809268, 17.459954375440542 ], [ 78.363393589444271, 17.459184068436137 ] ] } },
{ "type": "Feature", "properties": { "utility_id": "SYN-UL-00139", "department": "sewer", "connection_id": "SYN-SEW-L00139", "synthetic": true }, "geometry": { "type": "LineString", "coordinates": [ [ 78.353474481450618, 17.459504192640139 ], [ 78.35309629727368, 17.45957701578963 ] ] } },
{ "type": "Feature", "properties": { "utility_id": "SYN-UL-00140", "department": "sewer", "connection_id": "SYN-SEW-L00140", "synthetic": true }, "geometry": { "type": "LineString", "coordinates": [ [ 78.350648126934701, 17.459084510444825 ], [ 78.351212835687093, 17.45934167549548 ] ] } }
]
}
