{
"type": "FeatureCollection",
"name": "extracted_buildings_t1",
"crs": { "type": "name", "properties": { "name": "urn:ogc:def:crs:OGC:1.3:CRS84" } },
"features": [
{ "type": "Feature", "properties": { "extracted_id": "EXT-T1-0001" }, "geometry": { "type": "Polygon", "coordinates": [ [ [ 75.000451382144519, 27.122950269322626 ], [ 75.000451382426263, 27.123020461310769 ], [ 75.000528858905511, 27.123020461040412 ], [ 75.000528858575393, 27.122950269052264 ], [ 75.000451382144519, 27.122950269322626 ] ] ] } },
{ "type": "Feature", "properties": { "extracted_id": "EXT-T1-0002" }, "geometry": { "type": "Polygon", "coordinates": [ [ [ 75.000844552710319, 27.122763956834849 ], [ 75.000742680077536, 27.122763957410456 ], [ 75.000742680439132, 27.122818707760562 ], [ 75.000844553140567, 27.122821243994125 ], [ 75.000844552710319, 27.122763956834849 ] ] ] } },
{ "type": "Feature", "properties": { "extracted_id": "EXT-T1-0003" }, "geometry": { "type": "Polygon", "coordinates": [ [ [ 75.000660668385891, 27.122680985643211 ], [ 75.000660668778934, 27.122747888014135 ], [ 75.000752789462851, 27.122747887550609 ], [ 75.000752789014996, 27.122680985179681 ], [ 75.000660668385891, 27.122680985643211 ] ] ] } },
{ "type": "Feature", "properties": { "extracted_id": "EXT-T1-0004" }, "geometry": { "type": "Polygon", "coordinates": [ [ [ 75.000738039855889, 27.122950955049074 ], [ 75.000738040377172, 27.123030382656449 ], [ 75.000855153756319, 27.12303038199223 ], [ 75.000855153152315, 27.122950954384859 ], [ 75.000738039855889, 27.122950955049074 ] ] ] } },
{ "type": "Feature", "properties": { "extracted_id": "EXT-T1-0005" }, "geometry": { "type": "Polygon", "coordinates": [ [ [ 75.000915972820209, 27.123002075826477 ], [ 75.000972463340759, 27.12300207544671 ], [ 75.000972462898972, 27.122950990367315 ], [ 75.000915972404101, 27.122950990747078 ], [ 75.000915972820209, 27.123002075826477 ] ] ] } },
{ "type": "Feature", "properties": { "extracted_id": "EXT-T1-0006" }, "geometry": { "type": "Polygon", "coordinates": [ [ [ 75.000839997323268, 27.123040650161023 ], [ 75.000757375965208, 27.123040650630845 ], [ 75.000757376277491, 27.12308701601734 ], [ 75.000839997669601, 27.123087015547519 ], [ 75.000839997323268, 27.123040650161023 ] ] ] } },
{ "type": "Feature", "properties": { "extracted_id": "EXT-T1-0007" }, "geometry": { "type": "Polygon", "coordinates": [ [ [ 75.000271488024808, 27.123368929723284 ], [ 75.000271488226687, 27.123452544175592 ], [ 75.000349055128183, 27.123452544004238 ], [ 75.000349054868636, 27.123368929551933 ], [ 75.000271488024808, 27.123368929723284 ] ] ] } },
{ "type": "Feature", "properties": { "extracted_id": "EXT-T1-0008" }, "geometry": { "type": "Polygon", "coordinates": [ [ [ 75.000801730407304, 27.123206516696225 ], [ 75.000801730889478, 27.123274148166306 ], [ 75.0009017539696, 27.123274147559741 ], [ 75.000901753427272, 27.123206516089663 ], [ 75.000801730407304, 27.123206516696225 ] ] ] } },
{ "type": "Feature", "properties": { "extracted_id": "EXT-T1-0009" }, "geometry": { "type": "Polygon", "coordinates": [ [ [ 75.000650661345844, 27.123201548162708 ], [ 75.000650661965807, 27.123308695152467 ], [ 75.000775914745333, 27.123308694516368 ], [ 75.000775914006027, 27.123201547526612 ], [ 75.000650661345844, 27.123201548162708 ] ] ] } },
{ "type": "Feature", "properties": { "extracted_id": "EXT-T1-0010" }, "geometry": { "type": "Polygon", "coordinates": [ [ [ 75.001358714911802, 27.123103918132863 ], [ 75.001358713931907, 27.12302281800612 ], [ 75.001265048960974, 27.12302281888098 ], [ 75.001265049873311, 27.123103919007725 ], [ 75.001358714911802, 27.123103918132863 ] ] ] } },
{ "type": "Feature", "properties": { "extracted_id": "EXT-T1-0011" }, "geometry": { "type": "Polygon", "coordinates": [ [ [ 75.001370712049749, 27.122962858701644 ], [ 75.001370713242636, 27.123060722587969 ], [ 75.001475696224645, 27.123060721524187 ], [ 75.001475694940396, 27.122962857637866 ], [ 75.001370712049749, 27.122962858701644 ] ] ] } },
{ "type": "Feature", "properties": { "extracted_id": "EXT-T1-0012" }, "geometry": { "type": "Polygon", "coordinates": [ [ [ 75.001137244654757, 27.123765211637259 ], [ 75.001137245796087, 27.123878062918539 ], [ 75.001219741184897, 27.123878062226343 ], [ 75.001219739960789, 27.123765210945066 ], [ 75.001137244654757, 27.123765211637259 ] ] ] } },
{ "type": "Feature", "properties": { "extracted_id": "EXT-T1-0013" }, "geometry": { "type": "Polygon", "coordinates": [ [ [ 75.001136896550136, 27.123796318250704 ], [ 75.001043265488207, 27.123796318977394 ], [ 75.00104326633047, 27.123887102333772 ], [ 75.001136897468001, 27.123887101607071 ], [ 75.001136896550136, 27.123796318250704 ] ] ] } },
{ "type": "Feature", "properties": { "extracted_id": "EXT-T1-0014" }, "geometry": { "type": "Polygon", "coordinates": [ [ [ 75.001057404866572, 27.123632458598212 ], [ 75.001159649122158, 27.123632457791242 ], [ 75.001159648364705, 27.123559008567931 ], [ 75.00105740417591, 27.123559009374897 ], [ 75.001057404866572, 27.123632458598212 ] ] ] } },
{ "type": "Feature", "properties": { "extracted_id": "EXT-T1-0015" }, "geometry": { "type": "Polygon", "coordinates": [ [ [ 75.002427815594757, 27.123108435499272 ], [ 75.00242781749894, 27.123196633051862 ], [ 75.002543482382634, 27.123196631004902 ], [ 75.002543480387729, 27.123108433452316 ], [ 75.002427815594757, 27.123108435499272 ] ] ] } },
{ "type": "Feature", "properties": { "extracted_id": "EXT-T1-0016" }, "geometry": { "type": "Polygon", "coordinates": [ [ [ 75.002269064675659, 27.123083145046294 ], [ 75.002269066224315, 27.123159894126417 ], [ 75.002368742624114, 27.123159892480746 ], [ 75.00236874100743, 27.123083143400628 ], [ 75.002269064675659, 27.123083145046294 ] ] ] } },
{ "type": "Feature", "properties": { "extracted_id": "EXT-T1-0017" }, "geometry": { "type": "Polygon", "coordinates": [ [ [ 75.002479470266138, 27.122729951705566 ], [ 75.002479472747837, 27.122842505709492 ], [ 75.002604542780887, 27.122842503445916 ], [ 75.002604540174019, 27.122729949442004 ], [ 75.002479470266138, 27.122729951705566 ] ] ] } },
{ "type": "Feature", "properties": { "extracted_id": "EXT-T1-0018" }, "geometry": { "type": "Polygon", "coordinates": [ [ [ 75.002363552412206, 27.123521145608642 ], [ 75.002363554299663, 27.123610943747689 ], [ 75.002481312076796, 27.12361094171667 ], [ 75.002481310095305, 27.12352114357763 ], [ 75.002363552412206, 27.123521145608642 ] ] ] } },
{ "type": "Feature", "properties": { "extracted_id": "EXT-T1-0019" }, "geometry": { "type": "Polygon", "coordinates": [ [ [ 75.00253044749293, 27.123346358713274 ], [ 75.002530449044642, 27.123415314679459 ], [ 75.002620732778539, 27.123415313023855 ], [ 75.002620731171461, 27.123346357057674 ], [ 75.00253044749293, 27.123346358713274 ] ] ] } },
{ "type": "Feature", "properties": { "extracted_id": "EXT-T1-0020" }, "geometry": { "type": "Polygon", "coordinates": [ [ [ 75.002564690340421, 27.123450288878239 ], [ 75.002564691973774, 27.123521903878579 ], [ 75.002565021295709, 27.123521860162306 ], [ 75.00256798831569, 27.123521729684917 ], [ 75.002674903998752, 27.123521727689404 ], [ 75.002674902299347, 27.123450286822504 ], [ 75.002564690340421, 27.123450288878239 ] ] ] } },
{ "type": "Feature", "properties": { "extracted_id": "EXT-T1-0021" }, "geometry": { "type": "Polygon", "coordinates": [ [ [ 75.002338320077001, 27.123756248355271 ], [ 75.002457105406336, 27.123756246327428 ], [ 75.00245710447841, 27.12371378037507 ], [ 75.002338319108389, 27.12370966824966 ], [ 75.002338320077001, 27.123756248355271 ] ] ] } },
{ "type": "Feature", "properties": { "extracted_id": "EXT-T1-0022" }, "geometry": { "type": "Polygon", "coordinates": [ [ [ 75.002509596189398, 27.123759472585895 ], [ 75.002509598794518, 27.123876200992648 ], [ 75.002585223188035, 27.123876199621019 ], [ 75.0025852205044, 27.123759471214274 ], [ 75.002509596189398, 27.123759472585895 ] ] ] } },
{ "type": "Feature", "properties": { "extracted_id": "EXT-T1-0023" }, "geometry": { "type": "Polygon", "coordinates": [ [ [ 75.002745116475296, 27.1227358118105 ], [ 75.0027451188421, 27.122832767414714 ], [ 75.002820031186388, 27.122832765930614 ], [ 75.002820028754996, 27.122735810326407 ], [ 75.002745116475296, 27.1227358118105 ] ] ] } },
{ "type": "Feature", "properties": { "extracted_id": "EXT-T1-0024" }, "geometry": { "type": "Polygon", "coordinates": [ [ [ 75.002811794351715, 27.123157362918196 ], [ 75.002811796369741, 27.123238068960813 ], [ 75.002898012256964, 27.123238067208355 ], [ 75.002898010177077, 27.123157361165742 ], [ 75.002811794351715, 27.123157362918196 ] ] ] } },
{ "type": "Feature", "properties": { "extracted_id": "EXT-T1-0025" }, "geometry": { "type": "Polygon", "coordinates": [ [ [ 75.003004596076323, 27.123374762383612 ], [ 75.003004598045138, 27.123448447441952 ], [ 75.003132199698101, 27.123448444654297 ], [ 75.003132198791619, 27.123415901286386 ], [ 75.003130909015567, 27.123415355490248 ], [ 75.00312836101034, 27.123413989048338 ], [ 75.00312597495936, 27.123412405716959 ], [ 75.003123773841622, 27.123410620744473 ], [ 75.003121778855103, 27.123408651321146 ], [ 75.00312000921258, 27.123406516413613 ], [ 75.00311848195669, 27.123404236582207 ], [ 75.00311721179574, 27.123401833782964 ], [ 75.003116210962062, 27.123399331156143 ], [ 75.003115489094199, 27.123396752803437 ], [ 75.003115053144128, 27.123394123555784 ], [ 75.003114907310277, 27.123391468734287 ], [ 75.003114906847443, 27.1233747599805 ], [ 75.003004596076323, 27.123374762383612 ] ] ] } },
{ "type": "Feature", "properties": { "extracted_id": "EXT-T1-0026" }, "geometry": { "type": "Polygon", "coordinates": [ [ [ 75.003191780261076, 27.123470323834184 ], [ 75.003085160529167, 27.123470326216648 ], [ 75.003085162260177, 27.123533419540436 ], [ 75.003191782051928, 27.123533417157965 ], [ 75.003191780261076, 27.123470323834184 ] ] ] } },
{ "type": "Feature", "properties": { "extracted_id": "EXT-T1-0027" }, "geometry": { "type": "Polygon", "coordinates": [ [ [ 75.00304214261665, 27.123474173340192 ], [ 75.002963638842061, 27.123474175018618 ], [ 75.002963640403536, 27.123533422157209 ], [ 75.003042144219492, 27.123533420478779 ], [ 75.00304214261665, 27.123474173340192 ] ] ] } },
{ "type": "Feature", "properties": { "extracted_id": "EXT-T1-0028" }, "geometry": { "type": "Polygon", "coordinates": [ [ [ 75.002736568592482, 27.12373415473639 ], [ 75.002736570298282, 27.123804247637047 ], [ 75.002851146843184, 27.123804245357888 ], [ 75.002851145065975, 27.123734152457235 ], [ 75.002736568592482, 27.12373415473639 ] ] ] } },
{ "type": "Feature", "properties": { "extracted_id": "EXT-T1-0029" }, "geometry": { "type": "Polygon", "coordinates": [ [ [ 75.003194905831748, 27.123790756264324 ], [ 75.00311500808273, 27.123790758059066 ], [ 75.00311501075079, 27.12388707166507 ], [ 75.003194908568233, 27.123887069870324 ], [ 75.003194905831748, 27.123790756264324 ] ] ] } },
{ "type": "Feature", "properties": { "extracted_id": "EXT-T1-0030" }, "geometry": { "type": "Polygon", "coordinates": [ [ [ 75.003866629243589, 27.122929460119565 ], [ 75.003739597291812, 27.122929463559242 ], [ 75.003739598371013, 27.122961915978586 ], [ 75.003866630510956, 27.122966318859234 ], [ 75.003866629243589, 27.122929460119565 ] ] ] } },
{ "type": "Feature", "properties": { "extracted_id": "EXT-T1-0031" }, "geometry": { "type": "Polygon", "coordinates": [ [ [ 75.003576598758315, 27.123465988097042 ], [ 75.003576602118784, 27.123571642479686 ], [ 75.003630171877631, 27.123571641105322 ], [ 75.003630168466827, 27.123465986722685 ], [ 75.003576598758315, 27.123465988097042 ] ] ] } },
{ "type": "Feature", "properties": { "extracted_id": "EXT-T1-0032" }, "geometry": { "type": "Polygon", "coordinates": [ [ [ 75.003519669245449, 27.123820629222184 ], [ 75.003460930678074, 27.12382063068187 ], [ 75.003460932722746, 27.123887063566993 ], [ 75.003519671324824, 27.1238870621073 ], [ 75.003519669245449, 27.123820629222184 ] ] ] } },
{ "type": "Feature", "properties": { "extracted_id": "EXT-T1-0033" }, "geometry": { "type": "Polygon", "coordinates": [ [ [ 75.00353518257532, 27.123597172923166 ], [ 75.003535185358942, 27.123685715955041 ], [ 75.003630175560218, 27.123685713531998 ], [ 75.00363017270179, 27.123597170500137 ], [ 75.00353518257532, 27.123597172923166 ] ] ] } },
{ "type": "Feature", "properties": { "extracted_id": "EXT-T1-0034" }, "geometry": { "type": "Polygon", "coordinates": [ [ [ 75.004607014423769, 27.122848818022501 ], [ 75.004607017630548, 27.122927092576216 ], [ 75.004706201728013, 27.122927089287877 ], [ 75.004706198452183, 27.122848814734176 ], [ 75.004607014423769, 27.122848818022501 ] ] ] } },
{ "type": "Feature", "properties": { "extracted_id": "EXT-T1-0035" }, "geometry": { "type": "Polygon", "coordinates": [ [ [ 75.004186162327244, 27.123203942810996 ], [ 75.00418616590045, 27.123299928265183 ], [ 75.004263338838044, 27.123299925943861 ], [ 75.004263335198956, 27.123203940489681 ], [ 75.004186162327244, 27.123203942810996 ] ] ] } },
{ "type": "Feature", "properties": { "extracted_id": "EXT-T1-0036" }, "geometry": { "type": "Polygon", "coordinates": [ [ [ 75.004092801999136, 27.123132893470181 ], [ 75.0040927981007, 27.123025781841896 ], [ 75.00405172953316, 27.12302578303262 ], [ 75.004051733392473, 27.123132894660912 ], [ 75.004092801999136, 27.123132893470181 ] ] ] } },
{ "type": "Feature", "properties": { "extracted_id": "EXT-T1-0037" }, "geometry": { "type": "Polygon", "coordinates": [ [ [ 75.004663626874162, 27.12338548612891 ], [ 75.004663622997512, 27.123292011321155 ], [ 75.004550941861496, 27.123292015017441 ], [ 75.004550945644482, 27.123385489825207 ], [ 75.004663626874162, 27.12338548612891 ] ] ] } },
{ "type": "Feature", "properties": { "extracted_id": "EXT-T1-0038" }, "geometry": { "type": "Polygon", "coordinates": [ [ [ 75.004325581643144, 27.123834872839421 ], [ 75.004217104454867, 27.123834876138389 ], [ 75.004217106411261, 27.123887042898083 ], [ 75.004325583649859, 27.123887039599108 ], [ 75.004325581643144, 27.123834872839421 ] ] ] } },
{ "type": "Feature", "properties": { "extracted_id": "EXT-T1-0039" }, "geometry": { "type": "Polygon", "coordinates": [ [ [ 75.004644662412986, 27.123565501896199 ], [ 75.004644665264024, 27.123634526793115 ], [ 75.004736983281603, 27.123634523709864 ], [ 75.004736980373892, 27.123565498812962 ], [ 75.004644662412986, 27.123565501896199 ] ] ] } },
{ "type": "Feature", "properties": { "extracted_id": "EXT-T1-0040" }, "geometry": { "type": "Polygon", "coordinates": [ [ [ 75.000387142932411, 27.124443219185416 ], [ 75.000387143179907, 27.124515101792177 ], [ 75.000468730334035, 27.124515101543587 ], [ 75.000468730034399, 27.124443218936833 ], [ 75.000387142932411, 27.124443219185416 ] ] ] } },
{ "type": "Feature", "properties": { "extracted_id": "EXT-T1-0041" }, "geometry": { "type": "Polygon", "coordinates": [ [ [ 75.000931877844749, 27.124309436789861 ], [ 75.000931878544591, 27.124393883734811 ], [ 75.001006979033008, 27.124393883216445 ], [ 75.001006978276763, 27.124309436271488 ], [ 75.000931877844749, 27.124309436789861 ] ] ] } },
{ "type": "Feature", "properties": { "extracted_id": "EXT-T1-0042" }, "geometry": { "type": "Polygon", "coordinates": [ [ [ 75.000738858238591, 27.124233917539343 ], [ 75.000738857777989, 27.12416381796648 ], [ 75.000694289501638, 27.124163818193868 ], [ 75.000694289934458, 27.12423391776673 ], [ 75.000738858238591, 27.124233917539343 ] ] ] } },
{ "type": "Feature", "properties": { "extracted_id": "EXT-T1-0043" }, "geometry": { "type": "Polygon", "coordinates": [ [ [ 75.000249998649039, 27.124801559960197 ], [ 75.00024999887215, 27.12490191083517 ], [ 75.000332625536572, 27.124901910663795 ], [ 75.000332625239736, 27.124801559788821 ], [ 75.000249998649039, 27.124801559960197 ] ] ] } },
{ "type": "Feature", "properties": { "extracted_id": "EXT-T1-0044" }, "geometry": { "type": "Polygon", "coordinates": [ [ [ 75.000949406292378, 27.124801941884385 ], [ 75.000828331564591, 27.124801942650645 ], [ 75.000828332377978, 27.124912356649268 ], [ 75.000949407224667, 27.124912355883009 ], [ 75.000949406292378, 27.124801941884385 ] ] ] } },
{ "type": "Feature", "properties": { "extracted_id": "EXT-T1-0045" }, "geometry": { "type": "Polygon", "coordinates": [ [ [ 75.000454898443451, 27.125192512490667 ], [ 75.000454898796889, 27.125279875736112 ], [ 75.000531071445479, 27.125279875468731 ], [ 75.000531071032853, 27.12519251222329 ], [ 75.000454898443451, 27.125192512490667 ] ] ] } },
{ "type": "Feature", "properties": { "extracted_id": "EXT-T1-0046" }, "geometry": { "type": "Polygon", "coordinates": [ [ [ 75.001004322401982, 27.12523691972903 ], [ 75.000887637453346, 27.125236920514975 ], [ 75.000887638201192, 27.125331653078703 ], [ 75.001004323248125, 27.125331652292765 ], [ 75.001004322401982, 27.12523691972903 ] ] ] } },
{ "type": "Feature", "properties": { "extracted_id": "EXT-T1-0047" }, "geometry": { "type": "Polygon", "coordinates": [ [ [ 75.001141405273827, 27.124433059808691 ], [ 75.001141404137726, 27.124321135228286 ], [ 75.00106751971245, 27.124321135809293 ], [ 75.001067520775024, 27.124433060389698 ], [ 75.001141405273827, 27.124433059808691 ] ] ] } },
{ "type": "Feature", "properties": { "extracted_id": "EXT-T1-0048" }, "geometry": { "type": "Polygon", "coordinates": [ [ [ 75.001300912507418, 27.124223460814118 ], [ 75.001362220486769, 27.124223460232873 ], [ 75.001362219255697, 27.124121838944848 ], [ 75.001300911331739, 27.124121839526097 ], [ 75.001300912507418, 27.124223460814118 ] ] ] } },
{ "type": "Feature", "properties": { "extracted_id": "EXT-T1-0049" }, "geometry": { "type": "Polygon", "coordinates": [ [ [ 75.001127280251652, 27.124875711748462 ], [ 75.001127281013297, 27.124951683179379 ], [ 75.001218270011364, 27.124951682419592 ], [ 75.001218269188257, 27.124875710988682 ], [ 75.001127280251652, 27.124875711748462 ] ] ] } },
{ "type": "Feature", "properties": { "extracted_id": "EXT-T1-0050" }, "geometry": { "type": "Polygon", "coordinates": [ [ [ 75.00131918099548, 27.124792932555589 ], [ 75.001444222638753, 27.124792931325448 ], [ 75.001444221473747, 27.124702226213483 ], [ 75.001319179931329, 27.124702227443617 ], [ 75.00131918099548, 27.124792932555589 ] ] ] } },
{ "type": "Feature", "properties": { "extracted_id": "EXT-T1-0051" }, "geometry": { "type": "Polygon", "coordinates": [ [ [ 75.001947671417312, 27.12415952378003 ], [ 75.001947670764466, 27.124121832046384 ], [ 75.001846507319968, 27.124121833412815 ], [ 75.001846507938922, 27.124159525146467 ], [ 75.001947671417312, 27.12415952378003 ] ] ] } },
{ "type": "Feature", "properties": { "extracted_id": "EXT-T1-0052" }, "geometry": { "type": "Polygon", "coordinates": [ [ [ 75.002351827779691, 27.124706296611311 ], [ 75.002351826109162, 27.124626426694004 ], [ 75.002244372782016, 27.124626428452224 ], [ 75.002244373908951, 27.124682888619429 ], [ 75.002307201594149, 27.124682887601381 ], [ 75.002310168650425, 27.124683017975755 ], [ 75.002313107137709, 27.1246834079408 ], [ 75.002315988756777, 27.124684053740943 ], [ 75.002318785756074, 27.124684949156769 ], [ 75.002321471198982, 27.124686085564942 ], [ 75.002324019223238, 27.124687452021245 ], [ 75.002326405289978, 27.12468903536595 ], [ 75.002328606420093, 27.124690820350612 ], [ 75.00233060141548, 27.124692789784842 ], [ 75.002332371063261, 27.124694924701934 ], [ 75.002333898320728, 27.124697204541469 ], [ 75.002335168479576, 27.124699607347356 ], [ 75.002336169307455, 27.124702109979271 ], [ 75.002336891165825, 27.124704688335505 ], [ 75.002337157863067, 27.124706296856189 ], [ 75.002351827779691, 27.124706296611311 ] ] ] } },
{ "type": "Feature", "properties": { "extracted_id": "EXT-T1-0053" }, "geometry": { "type": "Polygon", "coordinates": [ [ [ 75.002632116840317, 27.124332800070384 ], [ 75.002632118659349, 27.124410510250488 ], [ 75.002727423734143, 27.124410508432064 ], [ 75.002727421849229, 27.124332798251974 ], [ 75.002632116840317, 27.124332800070384 ] ] ] } },
{ "type": "Feature", "properties": { "extracted_id": "EXT-T1-0054" }, "geometry": { "type": "Polygon", "coordinates": [ [ [ 75.002582634840238, 27.124662185801821 ], [ 75.002526871371487, 27.124662186816163 ], [ 75.002521858548761, 27.124756324176548 ], [ 75.002582637002405, 27.124756323072067 ], [ 75.002582634840238, 27.124662185801821 ] ] ] } },
{ "type": "Feature", "properties": { "extracted_id": "EXT-T1-0055" }, "geometry": { "type": "Polygon", "coordinates": [ [ [ 75.003082516133006, 27.12422493808295 ], [ 75.003082513967698, 27.124145949938391 ], [ 75.00297557070671, 27.124145952244803 ], [ 75.002975572796899, 27.124224940389368 ], [ 75.003082516133006, 27.12422493808295 ] ] ] } },
{ "type": "Feature", "properties": { "extracted_id": "EXT-T1-0056" }, "geometry": { "type": "Polygon", "coordinates": [ [ [ 75.003115992751873, 27.124158750510315 ], [ 75.003115995309756, 27.124251056518169 ], [ 75.003196572733273, 27.124251054707372 ], [ 75.003196570109239, 27.124158748699532 ], [ 75.003115992751873, 27.124158750510315 ] ] ] } },
{ "type": "Feature", "properties": { "extracted_id": "EXT-T1-0057" }, "geometry": { "type": "Polygon", "coordinates": [ [ [ 75.00305320373819, 27.124481098113371 ], [ 75.003053205628504, 27.124550715602236 ], [ 75.003153377550646, 27.124550713388874 ], [ 75.003153375598302, 27.12448109590002 ], [ 75.00305320373819, 27.124481098113371 ] ] ] } },
{ "type": "Feature", "properties": { "extracted_id": "EXT-T1-0058" }, "geometry": { "type": "Polygon", "coordinates": [ [ [ 75.001932612562513, 27.125020940176153 ], [ 75.001932610711322, 27.124913234073723 ], [ 75.001846520315979, 27.124913235231979 ], [ 75.001846522084733, 27.125020941334409 ], [ 75.001932612562513, 27.125020940176153 ] ] ] } },
{ "type": "Feature", "properties": { "extracted_id": "EXT-T1-0059" }, "geometry": { "type": "Polygon", "coordinates": [ [ [ 75.002383843830813, 27.125189635825357 ], [ 75.002383846022369, 27.125293007383402 ], [ 75.002495302922114, 27.125293005447372 ], [ 75.002495300628084, 27.125189633889335 ], [ 75.002383843830813, 27.125189635825357 ] ] ] } },
{ "type": "Feature", "properties": { "extracted_id": "EXT-T1-0060" }, "geometry": { "type": "Polygon", "coordinates": [ [ [ 75.002775387348677, 27.12496948563772 ], [ 75.002775385614314, 27.124899218922295 ], [ 75.002710107883402, 27.124899220197079 ], [ 75.002710109576981, 27.124969486912509 ], [ 75.002775387348677, 27.12496948563772 ] ] ] } },
{ "type": "Feature", "properties": { "extracted_id": "EXT-T1-0061" }, "geometry": { "type": "Polygon", "coordinates": [ [ [ 75.002832839890573, 27.124879576966546 ], [ 75.002832838149999, 27.124810488859794 ], [ 75.002710105744868, 27.124810491281693 ], [ 75.002710107410024, 27.124879579388448 ], [ 75.002832839890573, 27.124879576966546 ] ] ] } },
{ "type": "Feature", "properties": { "extracted_id": "EXT-T1-0062" }, "geometry": { "type": "Polygon", "coordinates": [ [ [ 75.002882638914002, 27.124872592892284 ], [ 75.002882640586307, 27.124937824415351 ], [ 75.002982846409722, 27.124937822322906 ], [ 75.002982844679281, 27.124872590799839 ], [ 75.002882638914002, 27.124872592892284 ] ] ] } },
{ "type": "Feature", "properties": { "extracted_id": "EXT-T1-0063" }, "geometry": { "type": "Polygon", "coordinates": [ [ [ 75.002759987010933, 27.125071914118124 ], [ 75.002759989593628, 27.125177132637479 ], [ 75.002858840825311, 27.125177130660116 ], [ 75.002858838150132, 27.125071912140761 ], [ 75.002759987010933, 27.125071914118124 ] ] ] } },
{ "type": "Feature", "properties": { "extracted_id": "EXT-T1-0064" }, "geometry": { "type": "Polygon", "coordinates": [ [ [ 75.003121776299224, 27.125233873790648 ], [ 75.003121773955343, 27.125149450871856 ], [ 75.003061668505026, 27.125149452194989 ], [ 75.003056047154061, 27.125233875236265 ], [ 75.003121776299224, 27.125233873790648 ] ] ] } },
{ "type": "Feature", "properties": { "extracted_id": "EXT-T1-0065" }, "geometry": { "type": "Polygon", "coordinates": [ [ [ 75.003126347292977, 27.125120244936806 ], [ 75.003126349659155, 27.12520534658135 ], [ 75.003198625468315, 27.12520534495388 ], [ 75.003198623047439, 27.12512024330934 ], [ 75.003126347292977, 27.125120244936806 ] ] ] } },
{ "type": "Feature", "properties": { "extracted_id": "EXT-T1-0066" }, "geometry": { "type": "Polygon", "coordinates": [ [ [ 75.003122100705838, 27.125284849501071 ], [ 75.003122102004525, 27.125331621181623 ], [ 75.003198629060464, 27.12533161945958 ], [ 75.00319862772993, 27.125284847779035 ], [ 75.003122100705838, 27.125284849501071 ] ] ] } },
{ "type": "Feature", "properties": { "extracted_id": "EXT-T1-0067" }, "geometry": { "type": "Polygon", "coordinates": [ [ [ 75.003862823525111, 27.124344556020162 ], [ 75.003862826696363, 27.124436869581871 ], [ 75.00395895655322, 27.124436866905079 ], [ 75.003958953303055, 27.124344553343377 ], [ 75.003862823525111, 27.124344556020162 ] ] ] } },
{ "type": "Feature", "properties": { "extracted_id": "EXT-T1-0068" }, "geometry": { "type": "Polygon", "coordinates": [ [ [ 75.003684992315428, 27.124533340018544 ], [ 75.003783092107, 27.124533337410416 ], [ 75.003783090684024, 27.124491042366131 ], [ 75.003684990929358, 27.124491044974256 ], [ 75.003684992315428, 27.124533340018544 ] ] ] } },
{ "type": "Feature", "properties": { "extracted_id": "EXT-T1-0069" }, "geometry": { "type": "Polygon", "coordinates": [ [ [ 75.004647247549315, 27.124580362366459 ], [ 75.004748130385281, 27.124580358992148 ], [ 75.004748126795022, 27.124495335159878 ], [ 75.004647243728741, 27.124487919732747 ], [ 75.004647247549315, 27.124580362366459 ] ] ] } },
{ "type": "Feature", "properties": { "extracted_id": "EXT-T1-0070" }, "geometry": { "type": "Polygon", "coordinates": [ [ [ 75.003770633914513, 27.124832991475948 ], [ 75.003885413242799, 27.124832988347528 ], [ 75.00388541152239, 27.124783199723048 ], [ 75.003770632244908, 27.12478320285145 ], [ 75.003770633914513, 27.124832991475948 ] ] ] } },
{ "type": "Feature", "properties": { "extracted_id": "EXT-T1-0071" }, "geometry": { "type": "Polygon", "coordinates": [ [ [ 75.003536320800038, 27.125208170671751 ], [ 75.003536318603963, 27.125138343876053 ], [ 75.003460971236095, 27.125138345753019 ], [ 75.003460973385373, 27.125208172548724 ], [ 75.003536320800038, 27.125208170671751 ] ] ] } },
{ "type": "Feature", "properties": { "extracted_id": "EXT-T1-0072" }, "geometry": { "type": "Polygon", "coordinates": [ [ [ 75.004377008322649, 27.124885316795798 ], [ 75.00437701170226, 27.124972136957705 ], [ 75.004437564229889, 27.124972135057547 ], [ 75.00443756080351, 27.124885314895643 ], [ 75.004377008322649, 27.124885316795798 ] ] ] } },
{ "type": "Feature", "properties": { "extracted_id": "EXT-T1-0073" }, "geometry": { "type": "Polygon", "coordinates": [ [ [ 75.004172007302742, 27.124965112506679 ], [ 75.004172003479653, 27.124862073541845 ], [ 75.004072571455254, 27.124862076460282 ], [ 75.004072575187237, 27.12496511542513 ], [ 75.004172007302742, 27.124965112506679 ] ] ] } },
{ "type": "Feature", "properties": { "extracted_id": "EXT-T1-0074" }, "geometry": { "type": "Polygon", "coordinates": [ [ [ 75.004538083400291, 27.125253748462537 ], [ 75.004657227954354, 27.125253744562212 ], [ 75.004657224588726, 27.125172486809287 ], [ 75.004538080120781, 27.125172490709598 ], [ 75.004538083400291, 27.125253748462537 ] ] ] } },
{ "type": "Feature", "properties": { "extracted_id": "EXT-T1-0075" }, "geometry": { "type": "Polygon", "coordinates": [ [ [ 75.000434752181377, 27.126055798944495 ], [ 75.000434752446154, 27.126124275920745 ], [ 75.000506558626114, 27.126124275680102 ], [ 75.00050655831761, 27.12605579870386 ], [ 75.000434752181377, 27.126055798944495 ] ] ] } },
{ "type": "Feature", "properties": { "extracted_id": "EXT-T1-0076" }, "geometry": { "type": "Polygon", "coordinates": [ [ [ 75.000277606007387, 27.1266351383643 ], [ 75.000277606237489, 27.12672833724713 ], [ 75.00038988690595, 27.126728336980303 ], [ 75.000389886582767, 27.12663513809747 ], [ 75.000277606007387, 27.1266351383643 ] ] ] } },
{ "type": "Feature", "properties": { "extracted_id": "EXT-T1-0077" }, "geometry": { "type": "Polygon", "coordinates": [ [ [ 75.000313363824802, 27.126636188139088 ], [ 75.000313363564288, 27.126542713740491 ], [ 75.00024535444399, 27.126542713875772 ], [ 75.000247768354768, 27.12663618827013 ], [ 75.000313363824802, 27.126636188139088 ] ] ] } },
{ "type": "Feature", "properties": { "extracted_id": "EXT-T1-0078" }, "geometry": { "type": "Polygon", "coordinates": [ [ [ 75.000604465673135, 27.126430417370269 ], [ 75.000683048038951, 27.126430417010067 ], [ 75.000683047671345, 27.126369904692201 ], [ 75.000604465347806, 27.126369905052403 ], [ 75.000604465673135, 27.126430417370269 ] ] ] } },
{ "type": "Feature", "properties": { "extracted_id": "EXT-T1-0079" }, "geometry": { "type": "Polygon", "coordinates": [ [ [ 75.000509091695037, 27.126467641949361 ], [ 75.000458789742979, 27.126467642122691 ], [ 75.000458790132456, 27.12656309050632 ], [ 75.000509092127217, 27.12656309033299 ], [ 75.000509091695037, 27.126467641949361 ] ] ] } },
{ "type": "Feature", "properties": { "extracted_id": "EXT-T1-0080" }, "geometry": { "type": "Polygon", "coordinates": [ [ [ 75.000553222577153, 27.126409129364397 ], [ 75.000553222384156, 27.126369905263608 ], [ 75.000458789344165, 27.126369905603841 ], [ 75.000458789504222, 27.126409129704637 ], [ 75.000553222577153, 27.126409129364397 ] ] ] } },
{ "type": "Feature", "properties": { "extracted_id": "EXT-T1-0081" }, "geometry": { "type": "Polygon", "coordinates": [ [ [ 75.001306688424293, 27.125787176919943 ], [ 75.001306687205457, 27.125682296422454 ], [ 75.001304935882857, 27.125682528883519 ], [ 75.00130196880437, 27.125682659334192 ], [ 75.001220395691675, 27.125682660066712 ], [ 75.001220396826099, 27.125787177696289 ], [ 75.001306688424293, 27.125787176919943 ] ] ] } },
{ "type": "Feature", "properties": { "extracted_id": "EXT-T1-0082" }, "geometry": { "type": "Polygon", "coordinates": [ [ [ 75.00132396146914, 27.125870205244592 ], [ 75.001323960546301, 27.125791831972748 ], [ 75.001220396876633, 27.125791832910853 ], [ 75.001220397727295, 27.1258702061827 ], [ 75.00132396146914, 27.125870205244592 ] ] ] } },
{ "type": "Feature", "properties": { "extracted_id": "EXT-T1-0083" }, "geometry": { "type": "Polygon", "coordinates": [ [ [ 75.001336496799738, 27.125795181334009 ], [ 75.001336497681308, 27.125869347119011 ], [ 75.001452470914984, 27.125869345967502 ], [ 75.001452469956917, 27.1257951801825 ], [ 75.001336496799738, 27.125795181334009 ] ] ] } },
{ "type": "Feature", "properties": { "extracted_id": "EXT-T1-0084" }, "geometry": { "type": "Polygon", "coordinates": [ [ [ 75.001320471009009, 27.126019839556204 ], [ 75.001320472351267, 27.126134132336187 ], [ 75.001447685439643, 27.126134131082487 ], [ 75.001447683968067, 27.126019838302515 ], [ 75.001320471009009, 27.126019839556204 ] ] ] } },
{ "type": "Feature", "properties": { "extracted_id": "EXT-T1-0085" }, "geometry": { "type": "Polygon", "coordinates": [ [ [ 75.001280464363688, 27.126023546539194 ], [ 75.001354514276699, 27.126023545844532 ], [ 75.001354513576558, 27.125965426969316 ], [ 75.001280463701804, 27.125965427663974 ], [ 75.001280464363688, 27.126023546539194 ] ] ] } },
{ "type": "Feature", "properties": { "extracted_id": "EXT-T1-0086" }, "geometry": { "type": "Polygon", "coordinates": [ [ [ 75.001045349824537, 27.126399016497398 ], [ 75.001045350437408, 27.126464934856948 ], [ 75.001175760273014, 27.126464933825726 ], [ 75.001175759583688, 27.12639901546618 ], [ 75.001045349824537, 27.126399016497398 ] ] ] } },
{ "type": "Feature", "properties": { "extracted_id": "EXT-T1-0087" }, "geometry": { "type": "Polygon", "coordinates": [ [ [ 75.001017702882677, 27.126656124656762 ], [ 75.001017703914229, 27.126770088708977 ], [ 75.001106837420167, 27.126770088034789 ], [ 75.001106836298263, 27.126656123982574 ], [ 75.001017702882677, 27.126656124656762 ] ] ] } },
{ "type": "Feature", "properties": { "extracted_id": "EXT-T1-0088" }, "geometry": { "type": "Polygon", "coordinates": [ [ [ 75.001357549773616, 27.126389438555126 ], [ 75.001357548987301, 27.126324314356239 ], [ 75.001286217904095, 27.126324315027631 ], [ 75.001286218649085, 27.126389439226521 ], [ 75.001357549773616, 27.126389438555126 ] ] ] } },
{ "type": "Feature", "properties": { "extracted_id": "EXT-T1-0089" }, "geometry": { "type": "Polygon", "coordinates": [ [ [ 75.001415540069416, 27.126332023891127 ], [ 75.001495323229747, 27.126332023064311 ], [ 75.001495321997865, 27.126239395835025 ], [ 75.00141553890326, 27.126239396661834 ], [ 75.001415540069416, 27.126332023891127 ] ] ] } },
{ "type": "Feature", "properties": { "extracted_id": "EXT-T1-0090" }, "geometry": { "type": "Polygon", "coordinates": [ [ [ 75.001318803633538, 27.126638322198321 ], [ 75.001434034565392, 27.126638321068977 ], [ 75.00143403360812, 27.126563266675042 ], [ 75.00131880275319, 27.126563267804382 ], [ 75.001318803633538, 27.126638322198321 ] ] ] } },
{ "type": "Feature", "properties": { "extracted_id": "EXT-T1-0091" }, "geometry": { "type": "Polygon", "coordinates": [ [ [ 75.001424271822899, 27.126699057504055 ], [ 75.001317200983351, 27.126699058549086 ], [ 75.001317201790215, 27.126767930373902 ], [ 75.001396141541093, 27.126767929611336 ], [ 75.00142427267447, 27.126766281722471 ], [ 75.001424271822899, 27.126699057504055 ] ] ] } },
{ "type": "Feature", "properties": { "extracted_id": "EXT-T1-0092" }, "geometry": { "type": "Polygon", "coordinates": [ [ [ 75.001893243973484, 27.126194287778496 ], [ 75.002004419336998, 27.126194286235787 ], [ 75.002004417904061, 27.126113906162562 ], [ 75.001893242620028, 27.126113907705268 ], [ 75.001893243973484, 27.126194287778496 ] ] ] } },
{ "type": "Feature", "properties": { "extracted_id": "EXT-T1-0093" }, "geometry": { "type": "Polygon", "coordinates": [ [ [ 75.002276946326532, 27.126311122272426 ], [ 75.002276948325374, 27.126409825222517 ], [ 75.00237444137052, 27.12640982360805 ], [ 75.0023744392861, 27.126311120657963 ], [ 75.002276946326532, 27.126311122272426 ] ] ] } },
{ "type": "Feature", "properties": { "extracted_id": "EXT-T1-0094" }, "geometry": { "type": "Polygon", "coordinates": [ [ [ 75.002261443115927, 27.126723536490644 ], [ 75.002158584487077, 27.126723538109253 ], [ 75.002158586048211, 27.126804853167087 ], [ 75.002261444751468, 27.126804851548474 ], [ 75.002261443115927, 27.126723536490644 ] ] ] } },
{ "type": "Feature", "properties": { "extracted_id": "EXT-T1-0095" }, "geometry": { "type": "Polygon", "coordinates": [ [ [ 75.003117444071989, 27.125582687648759 ], [ 75.003117446568865, 27.125672744872727 ], [ 75.003176624756733, 27.12567274354668 ], [ 75.003191261020802, 27.12558268599085 ], [ 75.003117444071989, 27.125582687648759 ] ] ] } },
{ "type": "Feature", "properties": { "extracted_id": "EXT-T1-0096" }, "geometry": { "type": "Polygon", "coordinates": [ [ [ 75.002581329781151, 27.125715893838166 ], [ 75.002581328168901, 27.125645666342038 ], [ 75.002513118997214, 27.125645667579139 ], [ 75.002513120566874, 27.125715895075267 ], [ 75.002581329781151, 27.125715893838166 ] ] ] } },
{ "type": "Feature", "properties": { "extracted_id": "EXT-T1-0097" }, "geometry": { "type": "Polygon", "coordinates": [ [ [ 75.002596255662951, 27.125924771149453 ], [ 75.00259625472502, 27.125884151201607 ], [ 75.002525514628886, 27.125879819158662 ], [ 75.002525515638609, 27.125924772439344 ], [ 75.002596255662951, 27.125924771149453 ] ] ] } },
{ "type": "Feature", "properties": { "extracted_id": "EXT-T1-0098" }, "geometry": { "type": "Polygon", "coordinates": [ [ [ 75.002608253784288, 27.125889458945306 ], [ 75.002608255998652, 27.125984916959187 ], [ 75.002722721205998, 27.125984914786745 ], [ 75.002722719032548, 27.125895159096572 ], [ 75.002629630639717, 27.12588945854667 ], [ 75.002608253784288, 27.125889458945306 ] ] ] } },
{ "type": "Feature", "properties": { "extracted_id": "EXT-T1-0099" }, "geometry": { "type": "Polygon", "coordinates": [ [ [ 75.002996170307711, 27.126059700484767 ], [ 75.002996168010625, 27.125973497046861 ], [ 75.002938253651735, 27.125973498270444 ], [ 75.002933439003769, 27.126059701809044 ], [ 75.002996170307711, 27.126059700484767 ] ] ] } },
{ "type": "Feature", "properties": { "extracted_id": "EXT-T1-0100" }, "geometry": { "type": "Polygon", "coordinates": [ [ [ 75.00294242558067, 27.125984358926569 ], [ 75.003029426352441, 27.12598435707687 ], [ 75.003029424582422, 27.125918662468582 ], [ 75.002945218626635, 27.12592531627612 ], [ 75.002942425344358, 27.125975328503387 ], [ 75.00294242558067, 27.125984358926569 ] ] ] } },
{ "type": "Feature", "properties": { "extracted_id": "EXT-T1-0101" }, "geometry": { "type": "Polygon", "coordinates": [ [ [ 75.003014031398109, 27.126232792219856 ], [ 75.003014033204565, 27.126300180984252 ], [ 75.003087862900344, 27.126300179380387 ], [ 75.00308786104965, 27.126232790615994 ], [ 75.003014031398109, 27.126232792219856 ] ] ] } },
{ "type": "Feature", "properties": { "extracted_id": "EXT-T1-0102" }, "geometry": { "type": "Polygon", "coordinates": [ [ [ 75.003013602275729, 27.12657954189568 ], [ 75.003013604791391, 27.126673398391031 ], [ 75.0031287798965, 27.126673395872363 ], [ 75.003128777284715, 27.126579539377015 ], [ 75.003013602275729, 27.12657954189568 ] ] ] } },
{ "type": "Feature", "properties": { "extracted_id": "EXT-T1-0103" }, "geometry": { "type": "Polygon", "coordinates": [ [ [ 75.003811616408399, 27.125611267181789 ], [ 75.003926983062541, 27.125611264003403 ], [ 75.003926981493578, 27.125566340276684 ], [ 75.003811614885521, 27.125566343455066 ], [ 75.003811616408399, 27.125611267181789 ] ] ] } },
{ "type": "Feature", "properties": { "extracted_id": "EXT-T1-0104" }, "geometry": { "type": "Polygon", "coordinates": [ [ [ 75.003600902769591, 27.126138555010012 ], [ 75.003672191124892, 27.126138553164115 ], [ 75.003672188171123, 27.126048112942073 ], [ 75.003600899873163, 27.126048114787963 ], [ 75.003600902769591, 27.126138555010012 ] ] ] } },
{ "type": "Feature", "properties": { "extracted_id": "EXT-T1-0105" }, "geometry": { "type": "Polygon", "coordinates": [ [ [ 75.003824048544075, 27.126088722817688 ], [ 75.003929062932755, 27.126088719919043 ], [ 75.003929061513517, 27.126048105990659 ], [ 75.003824047162794, 27.126048108889293 ], [ 75.003824048544075, 27.126088722817688 ] ] ] } },
{ "type": "Feature", "properties": { "extracted_id": "EXT-T1-0106" }, "geometry": { "type": "Polygon", "coordinates": [ [ [ 75.003908240672743, 27.126208718877127 ], [ 75.003815246430491, 27.126208721434185 ], [ 75.003815249985792, 27.126313497042503 ], [ 75.003908244314715, 27.126313494485427 ], [ 75.003908240672743, 27.126208718877127 ] ] ] } },
{ "type": "Feature", "properties": { "extracted_id": "EXT-T1-0107" }, "geometry": { "type": "Polygon", "coordinates": [ [ [ 75.003759088486689, 27.126424301252356 ], [ 75.003875388450723, 27.126424298091294 ], [ 75.003875386498748, 27.12636766599535 ], [ 75.003759086593291, 27.126367669156394 ], [ 75.003759088486689, 27.126424301252356 ] ] ] } },
{ "type": "Feature", "properties": { "extracted_id": "EXT-T1-0108" }, "geometry": { "type": "Polygon", "coordinates": [ [ [ 75.0035407674319, 27.126627122958791 ], [ 75.003540770736933, 27.126732071912283 ], [ 75.003654528027653, 27.126732068998184 ], [ 75.003654524616422, 27.126627120044695 ], [ 75.0035407674319, 27.126627122958791 ] ] ] } },
{ "type": "Feature", "properties": { "extracted_id": "EXT-T1-0109" }, "geometry": { "type": "Polygon", "coordinates": [ [ [ 75.003929071861265, 27.12669121862606 ], [ 75.003801089386613, 27.126691222148271 ], [ 75.003801092257916, 27.126776153822576 ], [ 75.003929074829259, 27.126776150300351 ], [ 75.003929071861265, 27.12669121862606 ] ] ] } },
{ "type": "Feature", "properties": { "extracted_id": "EXT-T1-0110" }, "geometry": { "type": "Polygon", "coordinates": [ [ [ 75.004218307665354, 27.126652866093568 ], [ 75.004218310582942, 27.126730631388721 ], [ 75.004319479238717, 27.126730628313563 ], [ 75.00431947625114, 27.126652863018418 ], [ 75.004218307665354, 27.126652866093568 ] ] ] } },
{ "type": "Feature", "properties": { "extracted_id": "EXT-T1-0111" }, "geometry": { "type": "Polygon", "coordinates": [ [ [ 75.004626169816305, 27.126390646539672 ], [ 75.004748228354714, 27.126390642466017 ], [ 75.004748225756202, 27.12632911066736 ], [ 75.004626167284584, 27.126329114741008 ], [ 75.004626169816305, 27.126390646539672 ] ] ] } },
{ "type": "Feature", "properties": { "extracted_id": "EXT-T1-0112" }, "geometry": { "type": "Polygon", "coordinates": [ [ [ 75.00453346354908, 27.126511944622607 ], [ 75.004459231940842, 27.126511946999191 ], [ 75.004459233845779, 27.126559977775536 ], [ 75.004533465485707, 27.126559975398951 ], [ 75.00453346354908, 27.126511944622607 ] ] ] } },
{ "type": "Feature", "properties": { "extracted_id": "EXT-T1-0113" }, "geometry": { "type": "Polygon", "coordinates": [ [ [ 75.00498057897336, 27.124803578695897 ], [ 75.004980581854596, 27.124868626588903 ], [ 75.004907883668011, 27.124868629148128 ], [ 75.004907880828824, 27.124803581255115 ], [ 75.00498057897336, 27.124803578695897 ] ] ] } },
{ "type": "Feature", "properties": { "extracted_id": "EXT-T1-0114" }, "geometry": { "type": "Polygon", "coordinates": [ [ [ 75.001756364018263, 27.123996250528563 ], [ 75.001756365165164, 27.124069677899481 ], [ 75.001674302581335, 27.124069678901726 ], [ 75.001674301488023, 27.123996251530802 ], [ 75.001756364018263, 27.123996250528563 ] ] ] } },
{ "type": "Feature", "properties": { "extracted_id": "EXT-T1-0115" }, "geometry": { "type": "Polygon", "coordinates": [ [ [ 75.00310253928555, 27.125985519473943 ], [ 75.003102541029918, 27.126048736682822 ], [ 75.003031888081139, 27.126048738225844 ], [ 75.003031886376476, 27.125985521016972 ], [ 75.00310253928555, 27.125985519473943 ] ] ] } },
{ "type": "Feature", "properties": { "extracted_id": "EXT-T1-0116" }, "geometry": { "type": "Polygon", "coordinates": [ [ [ 75.003747848044512, 27.124635827753114 ], [ 75.003747850304421, 27.124703630393832 ], [ 75.003672073496787, 27.124703632395494 ], [ 75.003672071282566, 27.124635829754766 ], [ 75.003747848044512, 27.124635827753114 ] ] ] } },
{ "type": "Feature", "properties": { "extracted_id": "EXT-T1-0117" }, "geometry": { "type": "Polygon", "coordinates": [ [ [ 75.002023201767614, 27.125028504943039 ], [ 75.002023203299458, 27.125113639233938 ], [ 75.00192805613986, 27.125113640572348 ], [ 75.00192805468005, 27.125028506281449 ], [ 75.002023201767614, 27.125028504943039 ] ] ] } }
]
}
