{
"type": "FeatureCollection",
"name": "ground_truth_observations",
"crs": { "type": "name", "properties": { "name": "urn:ogc:def:crs:OGC:1.3:CRS84" } },
"features": [
{ "type": "Feature", "properties": { "observation_id": "OBS-001", "observed_use": "open_space", "verification_status": "verified" }, "geometry": { "type": "Polygon", "coordinates": [ [ [ 75.003741348263731, 27.122814944515579 ], [ 75.003741176319181, 27.122813776154334 ], [ 75.003740672280998, 27.122812687424144 ], [ 75.003739870498592, 27.122811752520157 ], [ 75.003738825612089, 27.122811035154527 ], [ 75.003737608828771, 27.12281058421453 ], [ 75.003736303070411, 27.122810430430995 ], [ 75.003734997322283, 27.122810584284 ], [ 75.003733780568936, 27.122811035288727 ], [ 75.003732735730097, 27.12281175270995 ], [ 75.003731934009821, 27.122812687656591 ], [ 75.003731430043999, 27.122813776413601 ], [ 75.003731258177083, 27.122814944783993 ], [ 75.003731430121533, 27.122816113145248 ], [ 75.003731934159632, 27.122817201875471 ], [ 75.003732735942009, 27.122818136779511 ], [ 75.00373378082854, 27.122818854145184 ], [ 75.003734997611929, 27.122819305085212 ], [ 75.003736303370388, 27.122819458868754 ], [ 75.003737609118616, 27.122819305015739 ], [ 75.003738825872034, 27.12281885401098 ], [ 75.003739870710902, 27.122818136589718 ], [ 75.003740672431164, 27.12281720164302 ], [ 75.003741176396915, 27.122816112885975 ], [ 75.003741348263731, 27.122814944515579 ] ] ] } },
{ "type": "Feature", "properties": { "observation_id": "OBS-002", "observed_use": "residential", "verification_status": "verified" }, "geometry": { "type": "Polygon", "coordinates": [ [ [ 75.000575964025657, 27.126431408973467 ], [ 75.000575792108449, 27.126430240608947 ], [ 75.000575288084718, 27.126429151867956 ], [ 75.000574486302838, 27.126428216946373 ], [ 75.000573441402921, 27.126427499557565 ], [ 75.000572224593157, 27.126427048590383 ], [ 75.000570918797123, 27.126426894777502 ], [ 75.000569613002668, 27.126427048600998 ], [ 75.000568396197494, 27.126427499578075 ], [ 75.000567351304852, 27.126428216975377 ], [ 75.000566549532465, 27.126429151903476 ], [ 75.00056604551979, 27.126430240648574 ], [ 75.000565873614448, 27.126431409014486 ], [ 75.000566045531556, 27.126432577379017 ], [ 75.000566549555217, 27.126433666120047 ], [ 75.000567351337068, 27.126434601041662 ], [ 75.000568396237028, 27.126435318430524 ], [ 75.000569613046849, 27.126435769397737 ], [ 75.000570918842982, 27.126435923210629 ], [ 75.000572224637537, 27.126435769387122 ], [ 75.000573441442796, 27.12643531841001 ], [ 75.000574486335452, 27.126434601012658 ], [ 75.000575288107825, 27.12643366608452 ], [ 75.000575792120429, 27.126432577339394 ], [ 75.000575964025657, 27.126431408973467 ] ] ] } },
{ "type": "Feature", "properties": { "observation_id": "OBS-003", "observed_use": "open_space", "verification_status": "pending" }, "geometry": { "type": "Polygon", "coordinates": [ [ [ 75.001980674116297, 27.125071072694823 ], [ 75.001980502186598, 27.125069904331799 ], [ 75.001979998155349, 27.125068815595636 ], [ 75.001979196371479, 27.12506788068189 ], [ 75.001978151475242, 27.125067163303392 ], [ 75.001976934674573, 27.125066712348293 ], [ 75.001975628892424, 27.125066558548443 ], [ 75.001974323115675, 27.125066712385028 ], [ 75.001973106330865, 27.125067163374361 ], [ 75.001972061459838, 27.125067880782254 ], [ 75.00197125970881, 27.125068815718556 ], [ 75.001970755715845, 27.125069904468898 ], [ 75.001970583827188, 27.125071072836761 ], [ 75.001970755756801, 27.125072241199796 ], [ 75.001971259787965, 27.12507332993599 ], [ 75.001972061571806, 27.125074264849776 ], [ 75.001973106468071, 27.125074982228323 ], [ 75.001974323268797, 27.125075433183451 ], [ 75.00197562905106, 27.125075586983311 ], [ 75.001976934827894, 27.125075433146712 ], [ 75.001978151612789, 27.125074982157351 ], [ 75.001979196483859, 27.125074264749411 ], [ 75.001979998234845, 27.125073329813066 ], [ 75.001980502227752, 27.125072241062689 ], [ 75.001980674116297, 27.125071072694823 ] ] ] } },
{ "type": "Feature", "properties": { "observation_id": "OBS-004", "observed_use": "residential", "verification_status": "verified" }, "geometry": { "type": "Polygon", "coordinates": [ [ [ 75.002860947981617, 27.126601284972509 ], [ 75.002860776040407, 27.12660011661082 ], [ 75.002860271993782, 27.126599027878054 ], [ 75.002859470191694, 27.126598092969537 ], [ 75.002858425275619, 27.126597375597758 ], [ 75.002857208454856, 27.126596924650379 ], [ 75.002855902653735, 27.126596770858747 ], [ 75.002854596860431, 27.126596924703488 ], [ 75.002853380062589, 27.126597375700342 ], [ 75.002852335182936, 27.12659809311463 ], [ 75.002851533428355, 27.126599028055757 ], [ 75.002851029437025, 27.126600116809023 ], [ 75.002850857555188, 27.126601285177703 ], [ 75.002851029496284, 27.126602453539409 ], [ 75.002851533542838, 27.126603542272203 ], [ 75.002852335344897, 27.126604477180756 ], [ 75.002853380261016, 27.126605194552592 ], [ 75.002854597081836, 27.126605645499996 ], [ 75.002855902883056, 27.126605799291646 ], [ 75.002857208676474, 27.12660564544689 ], [ 75.0028584254744, 27.126605194449997 ], [ 75.002859470354053, 27.126604477035666 ], [ 75.002860272108634, 27.126603542094504 ], [ 75.002860776099865, 27.126602453341203 ], [ 75.002860947981617, 27.126601284972509 ] ] ] } },
{ "type": "Feature", "properties": { "observation_id": "OBS-005", "observed_use": "industrial", "verification_status": "verified" }, "geometry": { "type": "Polygon", "coordinates": [ [ [ 75.000802863812524, 27.123019003602266 ], [ 75.000802691898201, 27.123017835237459 ], [ 75.000802187887558, 27.123016746496752 ], [ 75.000801386128117, 27.123015811576007 ], [ 75.000800341258469, 27.123015094188538 ], [ 75.000799124484729, 27.123014643223108 ], [ 75.000797818728017, 27.123014489412256 ], [ 75.000796512973494, 27.123014643237934 ], [ 75.000795296206149, 27.123015094217202 ], [ 75.000794251346662, 27.12301581161654 ], [ 75.000793449600494, 27.123016746546391 ], [ 75.000792945605312, 27.123017835292824 ], [ 75.000792773707545, 27.123019003659582 ], [ 75.000792945621782, 27.123020172024404 ], [ 75.000793449632354, 27.123021260765146 ], [ 75.000794251391767, 27.12302219568593 ], [ 75.000795296261444, 27.123022913073441 ], [ 75.000796513035255, 27.123023364038911 ], [ 75.00079781879208, 27.123023517849774 ], [ 75.000799124546703, 27.123023364024075 ], [ 75.000800341314118, 27.123022913044789 ], [ 75.00080138617362, 27.123022195645397 ], [ 75.00080218791976, 27.123021260715507 ], [ 75.000802691914885, 27.123020171969042 ], [ 75.000802863812524, 27.123019003602266 ] ] ] } },
{ "type": "Feature", "properties": { "observation_id": "OBS-006", "observed_use": "residential", "verification_status": "pending" }, "geometry": { "type": "Polygon", "coordinates": [ [ [ 75.003099583737793, 27.12373733092668 ], [ 75.003099411798487, 27.123736162564807 ], [ 75.003098907762407, 27.123735073832446 ], [ 75.003098105978736, 27.123734138924917 ], [ 75.003097061087772, 27.123733421554604 ], [ 75.00309584429705, 27.123732970609119 ], [ 75.003094538528856, 27.123732816819633 ], [ 75.003093232769132, 27.123732970666659 ], [ 75.003092016003237, 27.123733421665762 ], [ 75.003090971151735, 27.123734139082114 ], [ 75.003090169419536, 27.123735074024982 ], [ 75.003089665443369, 27.123736162779544 ], [ 75.003089493568382, 27.123737331148995 ], [ 75.003089665507574, 27.123738499510882 ], [ 75.003090169543583, 27.123739588243271 ], [ 75.003090971327211, 27.12374052315085 ], [ 75.003092016218218, 27.123741240521198 ], [ 75.003093233009025, 27.123741691466723 ], [ 75.003094538777304, 27.123741845256212 ], [ 75.003095844537143, 27.123741691409183 ], [ 75.003097061303109, 27.123741240410041 ], [ 75.003098106154638, 27.123740522993646 ], [ 75.003098907886809, 27.123739588050739 ], [ 75.003099411862905, 27.123738499296142 ], [ 75.003099583737793, 27.12373733092668 ] ] ] } },
{ "type": "Feature", "properties": { "observation_id": "OBS-007", "observed_use": "residential", "verification_status": "pending" }, "geometry": { "type": "Polygon", "coordinates": [ [ [ 75.003092130090536, 27.124217513872971 ], [ 75.003091958150577, 27.124216345511169 ], [ 75.003091454112408, 27.124215256778861 ], [ 75.003090652325398, 27.124214321871353 ], [ 75.003089607429999, 27.124213604501037 ], [ 75.003088390634105, 27.124213153555516 ], [ 75.003087084860354, 27.124212999765977 ], [ 75.003085779095045, 27.124213153612921 ], [ 75.00308456232392, 27.124213604611928 ], [ 75.003083517467914, 27.124214322028184 ], [ 75.003082715732234, 27.124215256970935 ], [ 75.003082211753835, 27.124216345725397 ], [ 75.003082039878038, 27.124217514094756 ], [ 75.003082211817883, 27.124218682456579 ], [ 75.003082715855982, 27.124219771188915 ], [ 75.003083517642978, 27.124220706096473 ], [ 75.003084562538405, 27.124221423466832 ], [ 75.00308577933437, 27.124221874412385 ], [ 75.00308708510822, 27.124222028201935 ], [ 75.003088390873629, 27.124221874354983 ], [ 75.003089607644839, 27.124221423355944 ], [ 75.003090652500859, 27.124220705939642 ], [ 75.003091454236525, 27.124219770996845 ], [ 75.003091958214839, 27.124218682242343 ], [ 75.003092130090536, 27.124217513872971 ] ] ] } },
{ "type": "Feature", "properties": { "observation_id": "OBS-008", "observed_use": "open_space", "verification_status": "verified" }, "geometry": { "type": "Polygon", "coordinates": [ [ [ 75.000575965384812, 27.126696732376885 ], [ 75.000575793467206, 27.126695564012419 ], [ 75.000575289442281, 27.126694475271464 ], [ 75.000574487658511, 27.126693540349915 ], [ 75.000573442756121, 27.126692822961139 ], [ 75.000572225943486, 27.126692371993972 ], [ 75.000570920144384, 27.126692218181095 ], [ 75.00056961434683, 27.126692372004587 ], [ 75.0005683975388, 27.126692822981639 ], [ 75.000567352643685, 27.126693540378923 ], [ 75.000566550869408, 27.126694475306984 ], [ 75.000566046855539, 27.126695564052039 ], [ 75.0005658749498, 27.126696732417908 ], [ 75.000566046867306, 27.126697900782393 ], [ 75.00056655089216, 27.126698989523383 ], [ 75.000567352675901, 27.126699924444971 ], [ 75.00056839757832, 27.126700641833796 ], [ 75.000569614391026, 27.126701092800992 ], [ 75.000570920190242, 27.126701246613877 ], [ 75.000572225987881, 27.126701092790377 ], [ 75.000573442795996, 27.126700641813287 ], [ 75.000574487691125, 27.126699924415959 ], [ 75.000575289465388, 27.126698989487856 ], [ 75.000575793479172, 27.126697900742773 ], [ 75.000575965384812, 27.126696732376885 ] ] ] } },
{ "type": "Feature", "properties": { "observation_id": "OBS-009", "observed_use": "industrial", "verification_status": "verified" }, "geometry": { "type": "Polygon", "coordinates": [ [ [ 75.000437957484252, 27.12438567751019 ], [ 75.00043778557162, 27.124384509145163 ], [ 75.000437281558391, 27.124383420403351 ], [ 75.000436479792242, 27.124382485480709 ], [ 75.000435434912205, 27.124381768090668 ], [ 75.000434218125136, 27.124381317122157 ], [ 75.000432912353062, 27.124381163307948 ], [ 75.000431606582168, 27.124381317130208 ], [ 75.000430389798581, 27.124381768106218 ], [ 75.000429344924072, 27.124382485502704 ], [ 75.000428543165114, 27.124383420430284 ], [ 75.000428039160283, 27.124384509175201 ], [ 75.000427867256647, 27.124385677541287 ], [ 75.000428039169165, 27.124386845906329 ], [ 75.000428543182323, 27.124387934648169 ], [ 75.000429344948458, 27.124388869570854 ], [ 75.000430389828495, 27.124389586960937 ], [ 75.000431606615649, 27.12439003792948 ], [ 75.000432912387822, 27.124390191743707 ], [ 75.000434218158816, 27.124390037921426 ], [ 75.000435434942489, 27.124389586945387 ], [ 75.000436479817012, 27.124388869548856 ], [ 75.000437281575941, 27.124387934621236 ], [ 75.000437785580715, 27.124386845876284 ], [ 75.000437957484252, 27.12438567751019 ] ] ] } },
{ "type": "Feature", "properties": { "observation_id": "OBS-010", "observed_use": "residential", "verification_status": "verified" }, "geometry": { "type": "Polygon", "coordinates": [ [ [ 75.001508508557137, 27.124286323310425 ], [ 75.001508336633535, 27.124285154946687 ], [ 75.001507832610386, 27.124284066208713 ], [ 75.001507030836038, 27.124283131292174 ], [ 75.001505985950104, 27.124282413910073 ], [ 75.001504769159823, 27.124281962950839 ], [ 75.001503463387436, 27.124281809146577 ], [ 75.001502157619157, 27.124281962978795 ], [ 75.001500940840927, 27.124282413964078 ], [ 75.001499895974177, 27.124283131368543 ], [ 75.00149909422484, 27.124284066302252 ], [ 75.00149859023081, 27.12428515505102 ], [ 75.001498418338443, 27.124286323418435 ], [ 75.001498590261946, 27.124287491782177 ], [ 75.001499094285023, 27.12428858052019 ], [ 75.001499896059343, 27.124289515436779 ], [ 75.001500940945306, 27.124290232818915 ], [ 75.001502157735658, 27.124290683778192 ], [ 75.001503463508143, 27.124290837582457 ], [ 75.001504769276522, 27.124290683750235 ], [ 75.001505986054823, 27.12429023276491 ], [ 75.001507030921601, 27.124289515360402 ], [ 75.00150783267091, 27.124288580426651 ], [ 75.001508336664884, 27.124287491677844 ], [ 75.001508508557137, 27.124286323310425 ] ] ] } },
{ "type": "Feature", "properties": { "observation_id": "OBS-011", "observed_use": "commercial", "verification_status": "verified" }, "geometry": { "type": "Polygon", "coordinates": [ [ [ 75.004689956877741, 27.124273273156287 ], [ 75.004689784921098, 27.124272104796447 ], [ 75.004689280867211, 27.124271016069891 ], [ 75.004688479066516, 27.124270081171506 ], [ 75.004687434160402, 27.124269363813081 ], [ 75.004686217357502, 27.124268912881409 ], [ 75.00468491158091, 27.124268759106727 ], [ 75.004683605817149, 27.124268912968517 ], [ 75.004682389051823, 27.124269363981373 ], [ 75.004681344205494, 27.124270081409499 ], [ 75.004680542482703, 27.124271016361373 ], [ 75.004680038519524, 27.124272105121559 ], [ 75.004679866660254, 27.124273273492864 ], [ 75.004680038616797, 27.124274441852709 ], [ 75.004680542670613, 27.124275530579304 ], [ 75.00468134447128, 27.124276465477724 ], [ 75.004682389377422, 27.124277182836199 ], [ 75.004683606180393, 27.124277633767903 ], [ 75.004684911957071, 27.124277787542599 ], [ 75.004686217720945, 27.124277633680791 ], [ 75.004687434486343, 27.12427718266791 ], [ 75.0046884793327, 27.124276465239738 ], [ 75.004689281055462, 27.124275530287825 ], [ 75.004689785018556, 27.124274441527604 ], [ 75.004689956877741, 27.124273273156287 ] ] ] } },
{ "type": "Feature", "properties": { "observation_id": "OBS-012", "observed_use": "residential", "verification_status": "pending" }, "geometry": { "type": "Polygon", "coordinates": [ [ [ 75.00039106166723, 27.125087927217798 ], [ 75.000390889754001, 27.125086758852831 ], [ 75.000390385738072, 27.125085670110966 ], [ 75.000389583967305, 27.125084735188153 ], [ 75.000388539081058, 27.125084017797832 ], [ 75.000387322286585, 27.125083566828959 ], [ 75.000386016506411, 27.125083413014327 ], [ 75.000384710727289, 27.125083566836135 ], [ 75.000383493935914, 27.125084017811695 ], [ 75.000382449054584, 27.125084735207757 ], [ 75.00038164729024, 27.125085670134983 ], [ 75.000381143281786, 27.125086758879618 ], [ 75.0003809713766, 27.125087927245534 ], [ 75.000381143289715, 27.125089095610516 ], [ 75.000381647305559, 27.125090184352409 ], [ 75.000382449076298, 27.125091119275268 ], [ 75.000383493962588, 27.125091836665639 ], [ 75.000384710757132, 27.125092287634537 ], [ 75.000386016537405, 27.125092441449187 ], [ 75.000387322316612, 27.125092287627361 ], [ 75.000388539108073, 27.125091836651769 ], [ 75.000389583989431, 27.125091119255661 ], [ 75.000390385753747, 27.125090184328393 ], [ 75.00039088976213, 27.125089095583725 ], [ 75.00039106166723, 27.125087927217798 ] ] ] } },
{ "type": "Feature", "properties": { "observation_id": "OBS-013", "observed_use": "open_space", "verification_status": "verified" }, "geometry": { "type": "Polygon", "coordinates": [ [ [ 75.003732204465223, 27.124874063481766 ], [ 75.003732032517618, 27.124872895120856 ], [ 75.003731528470297, 27.124871806390953 ], [ 75.003730726673282, 27.124870871487179 ], [ 75.003729681767695, 27.124870154121698 ], [ 75.003728464962151, 27.124869703181758 ], [ 75.003727159179888, 27.124869549398184 ], [ 75.003725853407829, 27.124869703251061 ], [ 75.003724636632171, 27.124870154255582 ], [ 75.003723591774147, 27.124870871676524 ], [ 75.003722790039106, 27.124871806622853 ], [ 75.003722286063976, 27.124872895379504 ], [ 75.00372211419382, 27.124874063749541 ], [ 75.003722286141326, 27.124875232110465 ], [ 75.003722790188561, 27.124876320840404 ], [ 75.003723591985548, 27.124877255744217 ], [ 75.003724636891178, 27.124877973109747 ], [ 75.003725853696807, 27.124878424049712 ], [ 75.003727159479155, 27.1248785778333 ], [ 75.003728465251314, 27.124878423980405 ], [ 75.003729682027057, 27.12487797297586 ], [ 75.003730726885109, 27.124877255554868 ], [ 75.003731528620122, 27.124876320608504 ], [ 75.003732032595181, 27.124875231851814 ], [ 75.003732204465223, 27.124874063481766 ] ] ] } },
{ "type": "Feature", "properties": { "observation_id": "OBS-014", "observed_use": "residential", "verification_status": "verified" }, "geometry": { "type": "Polygon", "coordinates": [ [ [ 75.002158215232456, 27.124307108443329 ], [ 75.002158043302089, 27.124305940080394 ], [ 75.002157539272545, 27.12430485134475 ], [ 75.002156737492655, 27.124303916431916 ], [ 75.002155692602386, 27.124303199054665 ], [ 75.002154475809277, 27.124302748101059 ], [ 75.002153170035754, 27.124302594302836 ], [ 75.002151864268129, 27.124302748141091 ], [ 75.002150647492272, 27.124303199132008 ], [ 75.002149602629487, 27.124303916541297 ], [ 75.002148800885394, 27.124304851478719 ], [ 75.002148296897559, 27.124305940229817 ], [ 75.002148125011914, 27.124307108598025 ], [ 75.002148296942195, 27.124308276960964 ], [ 75.002148800971653, 27.124309365696647 ], [ 75.00214960275153, 27.124310300609519 ], [ 75.002150647641827, 27.124311017986816 ], [ 75.002151864435021, 27.124311468940455 ], [ 75.002153170208629, 27.124311622738691 ], [ 75.002154475976369, 27.124311468900419 ], [ 75.002155692752282, 27.124311017909466 ], [ 75.002156737615095, 27.124310300500131 ], [ 75.00215753935916, 27.124309365562681 ], [ 75.002158043346924, 27.124308276811551 ], [ 75.002158215232456, 27.124307108443329 ] ] ] } },
{ "type": "Feature", "properties": { "observation_id": "OBS-015", "observed_use": "industrial", "verification_status": "verified" }, "geometry": { "type": "Polygon", "coordinates": [ [ [ 75.004271899147511, 27.124458815280072 ], [ 75.004271727194933, 27.124457646919762 ], [ 75.004271223144258, 27.124456558191721 ], [ 75.004270421345709, 27.124455623290977 ], [ 75.004269376440547, 27.124454905929465 ], [ 75.00426815963732, 27.124454454994176 ], [ 75.004266853859136, 27.124454301215621 ], [ 75.004265548092647, 27.124454455073515 ], [ 75.00426433132364, 27.12445490608274 ], [ 75.00426328647292, 27.124455623507735 ], [ 75.004262484745325, 27.12445655845719 ], [ 75.004261980777272, 27.124457647215856 ], [ 75.00426180891337, 27.124458815586618 ], [ 75.004261980865849, 27.124459983946952 ], [ 75.004262484916453, 27.124461072675018 ], [ 75.004263286714973, 27.124462007575801 ], [ 75.004264331620163, 27.124462724937363 ], [ 75.004265548423461, 27.124463175872688 ], [ 75.004266854201745, 27.12446332965126 ], [ 75.004268159968333, 27.124463175793345 ], [ 75.004269376737412, 27.124462724784092 ], [ 75.00427042158816, 27.12446200735905 ], [ 75.004271223315726, 27.124461072409538 ], [ 75.004271727283708, 27.124459983650851 ], [ 75.004271899147511, 27.124458815280072 ] ] ] } },
{ "type": "Feature", "properties": { "observation_id": "OBS-016", "observed_use": "residential", "verification_status": "verified" }, "geometry": { "type": "Polygon", "coordinates": [ [ [ 75.004626149832376, 27.126444543559995 ], [ 75.004625977873062, 27.126443375200438 ], [ 75.004625473810052, 27.126442286473981 ], [ 75.004624671994392, 27.126441351575533 ], [ 75.004623627068526, 27.126440634216863 ], [ 75.004622410242376, 27.126440183284771 ], [ 75.004621104440659, 27.126440029509549 ], [ 75.004619798651589, 27.126440183370704 ], [ 75.00461858186253, 27.126440634382867 ], [ 75.00461753699561, 27.126441351810296 ], [ 75.004616735256803, 27.126442286761517 ], [ 75.004616231283293, 27.126443375521138 ], [ 75.00461605942003, 27.126444543892003 ], [ 75.004616231379231, 27.126445712251574 ], [ 75.00461673544217, 27.126446800978062 ], [ 75.004617537257801, 27.12644773587656 ], [ 75.004618582183696, 27.12644845323527 ], [ 75.004619799009916, 27.126448904167397 ], [ 75.004621104811719, 27.126449057942626 ], [ 75.004622410600902, 27.12644890408146 ], [ 75.004623627390046, 27.126448453069266 ], [ 75.004624672256995, 27.126447735641786 ], [ 75.004625473995759, 27.126446800690527 ], [ 75.004625977969198, 27.12644571193087 ], [ 75.004626149832376, 27.126444543559995 ] ] ] } },
{ "type": "Feature", "properties": { "observation_id": "OBS-017", "observed_use": "mixed", "verification_status": "verified" }, "geometry": { "type": "Polygon", "coordinates": [ [ [ 75.002972040124405, 27.122909214667459 ], [ 75.0029718681877, 27.12290804630528 ], [ 75.002971364156551, 27.122906957572344 ], [ 75.002970562379872, 27.122906022663972 ], [ 75.002969517497391, 27.122905305292626 ], [ 75.002968300716134, 27.122904854345975 ], [ 75.002966994957745, 27.122904700555289 ], [ 75.002965689207457, 27.122904854401142 ], [ 75.002964472450003, 27.1229053053992 ], [ 75.002963427605394, 27.122906022814686 ], [ 75.002962625878041, 27.122906957756935 ], [ 75.002962121904332, 27.122908046511164 ], [ 75.002961950029288, 27.122909214880597 ], [ 75.002962121965894, 27.122910383242782 ], [ 75.002962625996958, 27.122911471975755 ], [ 75.002963427773622, 27.122912406884168 ], [ 75.002964472656132, 27.122913124255565 ], [ 75.002965689437445, 27.122913575202237 ], [ 75.002966995195962, 27.122913728992934 ], [ 75.002968300946335, 27.122913575147074 ], [ 75.00296951770386, 27.12291312414899 ], [ 75.002970562548498, 27.122912406733452 ], [ 75.002971364275837, 27.122911471791166 ], [ 75.00297186824946, 27.122910383036899 ], [ 75.002972040124405, 27.122909214667459 ] ] ] } },
{ "type": "Feature", "properties": { "observation_id": "OBS-018", "observed_use": "mixed", "verification_status": "verified" }, "geometry": { "type": "Polygon", "coordinates": [ [ [ 75.004437393530111, 27.122861822912913 ], [ 75.004437221578257, 27.122860654552536 ], [ 75.004436717533139, 27.122859565824839 ], [ 75.004435915744594, 27.122858630924831 ], [ 75.004434870853217, 27.122857913564388 ], [ 75.004433654066602, 27.122857462630428 ], [ 75.004432348306764, 27.122857308853369 ], [ 75.004431042559034, 27.12285746271284 ], [ 75.004429825807975, 27.122857913723596 ], [ 75.004428780973143, 27.122858631149985 ], [ 75.00442797925831, 27.122859566100601 ], [ 75.004427475299011, 27.122860654860098 ], [ 75.004427303439272, 27.122861823231336 ], [ 75.004427475391026, 27.122862991591727 ], [ 75.004427979436073, 27.122864080319449 ], [ 75.004428781224576, 27.122865015219503 ], [ 75.004429826115981, 27.122865732579992 ], [ 75.004431042902667, 27.122866183513985 ], [ 75.004432348662618, 27.122866337291057 ], [ 75.004433654410448, 27.122866183431569 ], [ 75.004434871161578, 27.122865732420788 ], [ 75.004435915996439, 27.122865014994346 ], [ 75.004436717711229, 27.122864080043698 ], [ 75.004437221670457, 27.122862991284162 ], [ 75.004437393530111, 27.122861822912913 ] ] ] } },
{ "type": "Feature", "properties": { "observation_id": "OBS-019", "observed_use": "institutional", "verification_status": "verified" }, "geometry": { "type": "Polygon", "coordinates": [ [ [ 75.002420333160146, 27.125091263855435 ], [ 75.002420161225828, 27.125090095492958 ], [ 75.002419657190245, 27.125089006758373 ], [ 75.002418855402581, 27.125088071847149 ], [ 75.002417810503346, 27.125087354471923 ], [ 75.002416593700701, 27.125086903520639 ], [ 75.002415287917714, 27.125086749724872 ], [ 75.002413982141348, 27.125086903565546 ], [ 75.002412765358073, 27.125087354558683 ], [ 75.002411720489647, 27.125088071969845 ], [ 75.002410918742157, 27.125089006908652 ], [ 75.002410414753342, 27.125090095660571 ], [ 75.002410242869217, 27.125091264028963 ], [ 75.002410414803435, 27.125092432391455 ], [ 75.002410918838947, 27.125093521126075 ], [ 75.002411720626583, 27.125094456037349 ], [ 75.002412765525847, 27.125095173412614 ], [ 75.002413982328562, 27.125095624363937 ], [ 75.002415288111649, 27.125095778159714 ], [ 75.002416593888128, 27.12509562431903 ], [ 75.002417810671474, 27.12509517332585 ], [ 75.002418855539915, 27.125094455914645 ], [ 75.00241965728739, 27.125093520975799 ], [ 75.00242016127612, 27.125092432223845 ], [ 75.002420333160146, 27.125091263855435 ] ] ] } },
{ "type": "Feature", "properties": { "observation_id": "OBS-020", "observed_use": "residential", "verification_status": "verified" }, "geometry": { "type": "Polygon", "coordinates": [ [ [ 75.002501204020362, 27.123421383038146 ], [ 75.002501032087764, 27.123420214675487 ], [ 75.002500528058889, 27.123419125940934 ], [ 75.002499726282451, 27.123418191029941 ], [ 75.002498681398222, 27.123417473655149 ], [ 75.002497464613327, 27.123417022704452 ], [ 75.00249615884961, 27.123416868909398 ], [ 75.002494853092742, 27.123417022750864 ], [ 75.00249363632787, 27.123417473744812 ], [ 75.002492591475473, 27.123418191156745 ], [ 75.00249178974056, 27.123419126096234 ], [ 75.002491285760001, 27.1234202148487 ], [ 75.002491113879287, 27.123421383217469 ], [ 75.002491285811772, 27.123422551580145 ], [ 75.00249178984059, 27.12342364031473 ], [ 75.002492591616985, 27.123424575225762 ], [ 75.002493636501242, 27.123425292600604 ], [ 75.002494853286223, 27.123425743551326 ], [ 75.002496159050025, 27.123425897346394 ], [ 75.002497464807007, 27.123425743504914 ], [ 75.002498681571964, 27.123425292510937 ], [ 75.002499726424361, 27.123424575098962 ], [ 75.00250052815926, 27.12342364015943 ], [ 75.002501032139733, 27.123422551406929 ], [ 75.002501204020362, 27.123421383038146 ] ] ] } },
{ "type": "Feature", "properties": { "observation_id": "OBS-021", "observed_use": "utility", "verification_status": "verified" }, "geometry": { "type": "Polygon", "coordinates": [ [ [ 75.003072258880266, 27.126017128744135 ], [ 75.003072086937763, 27.126015960382603 ], [ 75.003071582891721, 27.126014871650504 ], [ 75.003070781092021, 27.126013936743121 ], [ 75.003069736180024, 27.126013219372847 ], [ 75.003068519364746, 27.126012768427266 ], [ 75.00306721357012, 27.126012614637578 ], [ 75.003065907783892, 27.126012768484301 ], [ 75.003064690993213, 27.126013219483028 ], [ 75.003063646120353, 27.126013936898946 ], [ 75.003062844371669, 27.126014871841349 ], [ 75.003062340385029, 27.12601596059546 ], [ 75.003062168506275, 27.126017128964506 ], [ 75.003062340448665, 27.126018297326041 ], [ 75.00306284449465, 27.126019386058172 ], [ 75.003063646294294, 27.126020320965601 ], [ 75.003064691206333, 27.126021038335924 ], [ 75.003065908021682, 27.126021489281534 ], [ 75.003067213816408, 27.126021643071226 ], [ 75.003068519602749, 27.126021489224499 ], [ 75.003069736393499, 27.126021038225741 ], [ 75.003070781266388, 27.126020320809776 ], [ 75.003071583015029, 27.12601938586733 ], [ 75.003072087001613, 27.126018297113184 ], [ 75.003072258880266, 27.126017128744135 ] ] ] } },
{ "type": "Feature", "properties": { "observation_id": "OBS-022", "observed_use": "utility", "verification_status": "pending" }, "geometry": { "type": "Polygon", "coordinates": [ [ [ 75.001219915611784, 27.124303587828258 ], [ 75.001219743691152, 27.124302419464179 ], [ 75.001219239670732, 27.12430133072516 ], [ 75.001218437898657, 27.124300395806976 ], [ 75.0012173930144, 27.124299678422734 ], [ 75.001216176225086, 27.124299227461002 ], [ 75.001214870452884, 27.124299073654058 ], [ 75.001213564684022, 27.12429922748359 ], [ 75.001212347904456, 27.124299678466375 ], [ 75.001211303035703, 27.124300395868691 ], [ 75.001210501283836, 27.124301330800744 ], [ 75.001209997286935, 27.124302419548481 ], [ 75.001209825391541, 27.124303587915538 ], [ 75.001209997312074, 27.124304756279635 ], [ 75.001210501332423, 27.124305845018679 ], [ 75.001211303104483, 27.124306779936912 ], [ 75.001212347988755, 27.124307497321194 ], [ 75.001213564778141, 27.124307948282961 ], [ 75.001214870550427, 27.124308102089916 ], [ 75.001216176319403, 27.124307948260377 ], [ 75.00121739309904, 27.124307497277549 ], [ 75.001218437967836, 27.124306779875194 ], [ 75.001219239719674, 27.124305844943095 ], [ 75.001219743716504, 27.124304756195325 ], [ 75.001219915611784, 27.124303587828258 ] ] ] } },
{ "type": "Feature", "properties": { "observation_id": "OBS-023", "observed_use": "utility", "verification_status": "verified" }, "geometry": { "type": "Polygon", "coordinates": [ [ [ 75.004648310481272, 27.126014150196884 ], [ 75.004648138522398, 27.126012981837288 ], [ 75.004647634461094, 27.126011893110846 ], [ 75.004646832648334, 27.126010958212461 ], [ 75.004645787726304, 27.126010240853905 ], [ 75.004644570904745, 27.126009789921987 ], [ 75.004643265107987, 27.126009636146957 ], [ 75.004641959323948, 27.126009790008329 ], [ 75.004640742539635, 27.126010241020712 ], [ 75.004639697676865, 27.126010958448354 ], [ 75.004638895941312, 27.126011893399756 ], [ 75.004638391969934, 27.126012982159523 ], [ 75.004638220107566, 27.126014150530484 ], [ 75.00463839206634, 27.126015318890094 ], [ 75.004638896127545, 27.126016407616568 ], [ 75.004639697940291, 27.126017342515002 ], [ 75.004640742862335, 27.126018059873591 ], [ 75.004641959683994, 27.126018510805551 ], [ 75.004643265480837, 27.126018664580595 ], [ 75.004644571264976, 27.126018510719209 ], [ 75.004645788049373, 27.126018059706794 ], [ 75.004646832912172, 27.126017342279102 ], [ 75.004647634647696, 27.126016407327661 ], [ 75.004648138619004, 27.126015318567859 ], [ 75.004648310481272, 27.126014150196884 ] ] ] } },
{ "type": "Feature", "properties": { "observation_id": "OBS-024", "observed_use": "institutional", "verification_status": "verified" }, "geometry": { "type": "Polygon", "coordinates": [ [ [ 75.001131420623466, 27.12377228189164 ], [ 75.001131248704581, 27.123771113527361 ], [ 75.001130744687387, 27.123770024787948 ], [ 75.001129942919832, 27.123769089869182 ], [ 75.001128898041088, 27.123768372484232 ], [ 75.00112768125787, 27.12376792152169 ], [ 75.001126375491978, 27.123767767713918 ], [ 75.001125069729142, 27.12376792154264 ], [ 75.001123852954976, 27.123768372524694 ], [ 75.001122808090585, 27.123769089926395 ], [ 75.001122006341788, 27.123770024858022 ], [ 75.001121502346393, 27.123771113605521 ], [ 75.0011213304509, 27.123772281972556 ], [ 75.001121502369699, 27.123773450336849 ], [ 75.001122006386822, 27.123774539076297 ], [ 75.001122808154335, 27.123775473995103 ], [ 75.001123853033121, 27.123776191380099 ], [ 75.00112506981641, 27.123776642342673 ], [ 75.001126375582402, 27.123776796150459 ], [ 75.001127681345324, 27.123776642321726 ], [ 75.001128898119589, 27.123776191339637 ], [ 75.00112994298398, 27.123775473937879 ], [ 75.001130744732777, 27.12377453900622 ], [ 75.001131248728072, 27.123773450258689 ], [ 75.001131420623466, 27.12377228189164 ] ] ] } },
{ "type": "Feature", "properties": { "observation_id": "OBS-025", "observed_use": "utility", "verification_status": "verified" }, "geometry": { "type": "Polygon", "coordinates": [ [ [ 75.001508511946469, 27.12453896659839 ], [ 75.001508340022482, 27.124537798234702 ], [ 75.001507835998197, 27.124536709496759 ], [ 75.001507034222058, 27.124535774580249 ], [ 75.001505989333779, 27.12453505719818 ], [ 75.001504772540756, 27.124534606238964 ], [ 75.001503466765428, 27.124534452434709 ], [ 75.001502160994221, 27.124534606266913 ], [ 75.001500944213262, 27.124535057252189 ], [ 75.001499899344168, 27.124535774656621 ], [ 75.001499097593026, 27.124536709590306 ], [ 75.001498593597859, 27.124537798339031 ], [ 75.001498421705108, 27.124538966706403 ], [ 75.001498593628995, 27.124540135070102 ], [ 75.001499097653209, 27.12454122380808 ], [ 75.001499899429334, 27.124542158724633 ], [ 75.001500944317627, 27.124542876106744 ], [ 75.001502161110722, 27.124543327065993 ], [ 75.001503466886149, 27.124543480870265 ], [ 75.001504772657469, 27.124543327038037 ], [ 75.001505989438485, 27.124542876052736 ], [ 75.001507034307622, 27.124542158648257 ], [ 75.001507836058735, 27.124541223714534 ], [ 75.001508340053832, 27.124540134965773 ], [ 75.001508511946469, 27.12453896659839 ] ] ] } },
{ "type": "Feature", "properties": { "observation_id": "OBS-026", "observed_use": "industrial", "verification_status": "verified" }, "geometry": { "type": "Polygon", "coordinates": [ [ [ 75.001407339088118, 27.126007544214133 ], [ 75.001407167162938, 27.126006375850555 ], [ 75.001406663133054, 27.126005287112481 ], [ 75.001405861347266, 27.126004352195594 ], [ 75.001404816445984, 27.126003634812928 ], [ 75.001403599637484, 27.126003183852923 ], [ 75.001402293845246, 27.126003030047759 ], [ 75.00140098805683, 27.126003183878996 ], [ 75.001399771259585, 27.126003634863302 ], [ 75.001398726376195, 27.126004352266833 ], [ 75.001397924613741, 27.126005287199735 ], [ 75.001397420611013, 27.126006375947874 ], [ 75.001397248714966, 27.126007544314877 ], [ 75.00139742064006, 27.126008712678463 ], [ 75.001397924669874, 27.126009801416568 ], [ 75.001398726455605, 27.126010736333509 ], [ 75.00139977135693, 27.126011453716217 ], [ 75.0014009881655, 27.126011904676258 ], [ 75.001402293957838, 27.126012058481425 ], [ 75.001403599746354, 27.126011904650177 ], [ 75.001404816543669, 27.126011453665843 ], [ 75.001405861427088, 27.12601073626227 ], [ 75.001406663189528, 27.126009801329317 ], [ 75.00140716719217, 27.126008712581143 ], [ 75.001407339088118, 27.126007544214133 ] ] ] } },
{ "type": "Feature", "properties": { "observation_id": "OBS-027", "observed_use": "mixed", "verification_status": "verified" }, "geometry": { "type": "Polygon", "coordinates": [ [ [ 75.001975438322887, 27.126687492233941 ], [ 75.001975266390758, 27.12668632387118 ], [ 75.001974762352319, 27.126685235135252 ], [ 75.001973960556967, 27.126684300221697 ], [ 75.001972915645737, 27.126683582843324 ], [ 75.001971698827603, 27.126683131888285 ], [ 75.001970393026696, 27.126682978088422 ], [ 75.001969087231174, 27.126683131924928 ], [ 75.001967870428828, 27.126683582914108 ], [ 75.001966825542752, 27.126684300321799 ], [ 75.00196602378017, 27.126685235257852 ], [ 75.001965519779901, 27.126686324007927 ], [ 75.001965347888714, 27.126687492375513 ], [ 75.001965519820743, 27.126688660738282 ], [ 75.001966023859097, 27.126689749474249 ], [ 75.001966825654435, 27.126690684387846 ], [ 75.001967870565679, 27.126691401766266 ], [ 75.001969087383898, 27.126691852721333 ], [ 75.001970393184905, 27.126692006521214 ], [ 75.00197169898054, 27.126691852684697 ], [ 75.001972915782943, 27.126691401695481 ], [ 75.001973960669048, 27.126690684287748 ], [ 75.001974762431615, 27.126689749351645 ], [ 75.001975266431813, 27.126688660601538 ], [ 75.001975438322887, 27.126687492233941 ] ] ] } },
{ "type": "Feature", "properties": { "observation_id": "OBS-028", "observed_use": "mixed", "verification_status": "pending" }, "geometry": { "type": "Polygon", "coordinates": [ [ [ 75.004190326708496, 27.126570248682157 ], [ 75.004190154753516, 27.126569080322096 ], [ 75.004189650694158, 27.126567991594097 ], [ 75.004188848881242, 27.126567056693169 ], [ 75.004187803956967, 27.126566339331262 ], [ 75.004186587131215, 27.126565888395412 ], [ 75.004185281328631, 27.126565734616136 ], [ 75.004183975537515, 27.126565888473237 ], [ 75.00418275874533, 27.12656633948162 ], [ 75.004181713874459, 27.126567056905795 ], [ 75.004180912131147, 27.126567991854515 ], [ 75.004180408152834, 27.126569080612555 ], [ 75.004180236284867, 27.126570248982869 ], [ 75.004180408239719, 27.126571417342948 ], [ 75.004180912299006, 27.126572506070978 ], [ 75.004181714111908, 27.126573440971939 ], [ 75.004182759036212, 27.126574158333892 ], [ 75.004183975862034, 27.126574609269777 ], [ 75.004185281664704, 27.126574763049071 ], [ 75.004186587455948, 27.126574609191948 ], [ 75.00418780424819, 27.126574158183544 ], [ 75.004188849119075, 27.126573440759316 ], [ 75.004189650862372, 27.126572505810557 ], [ 75.0041901548406, 27.126571417052492 ], [ 75.004190326708496, 27.126570248682157 ] ] ] } },
{ "type": "Feature", "properties": { "observation_id": "OBS-029", "observed_use": "institutional", "verification_status": "verified" }, "geometry": { "type": "Polygon", "coordinates": [ [ [ 75.002012479958168, 27.122991842477077 ], [ 75.002012308031311, 27.122990674113741 ], [ 75.002011804009072, 27.122989585377372 ], [ 75.002011002239783, 27.122988650463537 ], [ 75.00200995736266, 27.122987933085057 ], [ 75.002008740584358, 27.122987482130103 ], [ 75.002007434826311, 27.122987328330499 ], [ 75.002006129073763, 27.122987482167424 ], [ 75.002004912311563, 27.122987933157166 ], [ 75.002003867460061, 27.12298865056551 ], [ 75.002003065724139, 27.122989585502264 ], [ 75.002002561740781, 27.122990674253042 ], [ 75.002002389855633, 27.122991842621289 ], [ 75.002002561782405, 27.122993010984629 ], [ 75.002003065804544, 27.122994099721033 ], [ 75.002003867573819, 27.122995034634922 ], [ 75.002004912450957, 27.122995752013438 ], [ 75.002006129229343, 27.122996202968427 ], [ 75.002007434987476, 27.122996356768045 ], [ 75.002008740740152, 27.122996202931102 ], [ 75.002009957502409, 27.122995751941335 ], [ 75.002011002353939, 27.122995034532945 ], [ 75.002011804089832, 27.122994099596138 ], [ 75.002012308073134, 27.122993010845335 ], [ 75.002012479958168, 27.122991842477077 ] ] ] } },
{ "type": "Feature", "properties": { "observation_id": "OBS-030", "observed_use": "residential", "verification_status": "pending" }, "geometry": { "type": "Polygon", "coordinates": [ [ [ 75.00420628735877, 27.126036899216736 ], [ 75.004206115404443, 27.1260357308566 ], [ 75.004205611347331, 27.12603464212858 ], [ 75.004204809538066, 27.12603370722767 ], [ 75.004203764618666, 27.126032989865831 ], [ 75.004202547798613, 27.126032538930083 ], [ 75.00420124200221, 27.126032385150943 ], [ 75.004199936217304, 27.126032539008207 ], [ 75.00419871943096, 27.12603299001675 ], [ 75.004197674565148, 27.12603370744111 ], [ 75.004196872825759, 27.126034642389982 ], [ 75.004196368850003, 27.126035731148161 ], [ 75.004196196983003, 27.126036899518581 ], [ 75.004196368937215, 27.126038067878731 ], [ 75.004196872994271, 27.126039156606787 ], [ 75.004197674803493, 27.126040091507733 ], [ 75.004198719722936, 27.126040808869618 ], [ 75.00419993654306, 27.126041259805401 ], [ 75.004201242339562, 27.126041413584559 ], [ 75.004202548124567, 27.126041259727277 ], [ 75.004203764910997, 27.126040808718699 ], [ 75.004204809776809, 27.1260400912943 ], [ 75.004205611516184, 27.126039156345382 ], [ 75.004206115491868, 27.126038067587171 ], [ 75.00420628735877, 27.126036899216736 ] ] ] } }
]
}
