{
 "type": "FeatureCollection",
 "features": [
  {
   "id": "0",
   "type": "Feature",
   "properties": {
    "parcel_id": "P-001",
    "ward_id": "WARD-01",
    "block_id": "BLK-01",
    "land_use": "industrial",
    "area_m2": 1133.95
   },
   "geometry": {
    "type": "Polygon",
    "coordinates": [
     [
      [
       500058.7609067801,
       3000020.0
      ],
      [
       500058.7609067801,
       3000049.2549833953
      ],
      [
       500020.0,
       3000049.2549833953
      ],
      [
       500020.0,
       3000020.0
      ],
      [
       500058.7609067801,
       3000020.0
      ]
     ]
    ]
   }
  },
  {
   "id": "1",
   "type": "Feature",
   "properties": {
    "parcel_id": "P-002",
    "ward_id": "WARD-01",
    "block_id": "BLK-01",
    "land_use": "residential",
    "area_m2": 798.44
   },
   "geometry": {
    "type": "Polygon",
    "coordinates": [
     [
      [
       500058.7609067801,
       3000049.2549833953
      ],
      [
       500058.7609067801,
       3000071.3813214023
      ],
      [
       500022.3686847023,
       3000069.6789832036
      ],
      [
       500020.0,
       3000049.2549833953
      ],
      [
       500058.7609067801,
       3000049.2549833953
      ]
     ]
    ]
   }
  },
  {
   "id": "2",
   "type": "Feature",
   "properties": {
    "parcel_id": "P-003",
    "ward_id": "WARD-01",
    "block_id": "BLK-01",
    "land_use": "mixed",
    "area_m2": 855.7
   },
   "geometry": {
    "type": "Polygon",
    "coordinates": [
     [
      [
       500099.37793554296,
       3000020.0
      ],
      [
       500099.37793554296,
       3000042.3816076126
      ],
      [
       500061.6236921932,
       3000041.3309090678
      ],
      [
       500058.7609067801,
       3000020.0
      ],
      [
       500099.37793554296,
       3000020.0
      ]
     ]
    ]
   }
  },
  {
   "id": "3",
   "type": "Feature",
   "properties": {
    "parcel_id": "P-004",
    "ward_id": "WARD-01",
    "block_id": "BLK-01",
    "land_use": "industrial",
    "area_m2": 1073.61
   },
   "geometry": {
    "type": "Polygon",
    "coordinates": [
     [
      [
       500058.7609067801,
       3000042.3816076126
      ],
      [
       500058.7609067801,
       3000071.3813214023
      ],
      [
       500099.37793554296,
       3000071.3813214023
      ],
      [
       500099.37793554296,
       3000050.315112516
      ],
      [
       500086.23478668474,
       3000050.315112516
      ],
      [
       500086.23478668474,
       3000042.3816076126
      ],
      [
       500058.7609067801,
       3000042.3816076126
      ]
     ]
    ]
   }
  },
  {
   "id": "4",
   "type": "Feature",
   "properties": {
    "parcel_id": "P-005",
    "ward_id": "WARD-01",
    "block_id": "BLK-01",
    "land_use": "mixed",
    "area_m2": 3226.34
   },
   "geometry": {
    "type": "Polygon",
    "coordinates": [
     [
      [
       500020.0,
       3000160.0
      ],
      [
       500059.4654568557,
       3000160.0
      ],
      [
       500059.4654568557,
       3000071.3813214023
      ],
      [
       500032.3126455184,
       3000071.3813214023
      ],
      [
       500032.3126455184,
       3000093.3944689147
      ],
      [
       500020.0,
       3000093.3944689147
      ],
      [
       500020.0,
       3000160.0
      ]
     ]
    ]
   }
  },
  {
   "id": "5",
   "type": "Feature",
   "properties": {
    "parcel_id": "P-006",
    "ward_id": "WARD-01",
    "block_id": "BLK-01",
    "land_use": "residential",
    "area_m2": 3280.19
   },
   "geometry": {
    "type": "Polygon",
    "coordinates": [
     [
      [
       500099.37793554296,
       3000071.3813214023
      ],
      [
       500096.0222675375,
       3000154.582689229
      ],
      [
       500059.4654568557,
       3000160.0
      ],
      [
       500059.4654568557,
       3000071.3813214023
      ],
      [
       500099.37793554296,
       3000071.3813214023
      ]
     ]
    ]
   }
  },
  {
   "id": "6",
   "type": "Feature",
   "properties": {
    "parcel_id": "P-007",
    "ward_id": "WARD-01",
    "block_id": "BLK-01",
    "land_use": "mixed",
    "area_m2": 1665.68
   },
   "geometry": {
    "type": "Polygon",
    "coordinates": [
     [
      [
       500160.0,
       3000049.179661056
      ],
      [
       500160.0,
       3000020.0
      ],
      [
       500099.37793554296,
       3000020.0
      ],
      [
       500099.37793554296,
       3000042.1862159953
      ],
      [
       500114.1417200648,
       3000042.1862159953
      ],
      [
       500114.1417200648,
       3000049.179661056
      ],
      [
       500160.0,
       3000049.179661056
      ]
     ]
    ]
   }
  },
  {
   "id": "7",
   "type": "Feature",
   "properties": {
    "parcel_id": "P-008",
    "ward_id": "WARD-01",
    "block_id": "BLK-01",
    "land_use": "residential",
    "area_m2": 734.23
   },
   "geometry": {
    "type": "Polygon",
    "coordinates": [
     [
      [
       500120.4626323077,
       3000051.131277771
      ],
      [
       500122.3751988595,
       3000083.5097813634
      ],
      [
       500099.37793554296,
       3000083.5097813634
      ],
      [
       500099.37793554296,
       3000049.179661056
      ],
      [
       500120.4626323077,
       3000051.131277771
      ]
     ]
    ]
   }
  },
  {
   "id": "8",
   "type": "Feature",
   "properties": {
    "parcel_id": "P-009",
    "ward_id": "WARD-01",
    "block_id": "BLK-01",
    "land_use": "institutional",
    "area_m2": 1291.66
   },
   "geometry": {
    "type": "Polygon",
    "coordinates": [
     [
      [
       500122.3751988595,
       3000049.179661056
      ],
      [
       500160.0,
       3000083.5097813634
      ],
      [
       500160.0,
       3000049.179661056
      ],
      [
       500122.3751988595,
       3000083.5097813634
      ],
      [
       500122.3751988595,
       3000049.179661056
      ]
     ]
    ]
   }
  },
  {
   "id": "9",
   "type": "Feature",
   "properties": {
    "parcel_id": "P-010",
    "ward_id": "WARD-01",
    "block_id": "BLK-01",
    "land_use": "residential",
    "area_m2": 2070.26
   },
   "geometry": {
    "type": "Polygon",
    "coordinates": [
     [
      [
       500160.0,
       3000083.5097813634
      ],
      [
       500160.0,
       3000117.660059062
      ],
      [
       500099.37793554296,
       3000117.660059062
      ],
      [
       500099.37793554296,
       3000083.5097813634
      ],
      [
       500160.0,
       3000083.5097813634
      ]
     ]
    ]
   }
  },
  {
   "id": "10",
   "type": "Feature",
   "properties": {
    "parcel_id": "P-011",
    "ward_id": "WARD-01",
    "block_id": "BLK-01",
    "land_use": "residential",
    "area_m2": 975.5
   },
   "geometry": {
    "type": "Polygon",
    "coordinates": [
     [
      [
       500099.37793554296,
       3000117.660059062
      ],
      [
       500099.37793554296,
       3000160.0
      ],
      [
       500123.8839620104,
       3000160.0
      ],
      [
       500123.8839620104,
       3000128.564862916
      ],
      [
       500118.19063545985,
       3000128.564862916
      ],
      [
       500118.19063545985,
       3000117.660059062
      ],
      [
       500099.37793554296,
       3000117.660059062
      ]
     ]
    ]
   }
  },
  {
   "id": "11",
   "type": "Feature",
   "properties": {
    "parcel_id": "P-012",
    "ward_id": "WARD-01",
    "block_id": "BLK-01",
    "land_use": "utility",
    "area_m2": 1529.15
   },
   "geometry": {
    "type": "Polygon",
    "coordinates": [
     [
      [
       500160.0,
       3000117.660059062
      ],
      [
       500160.0,
       3000160.0
      ],
      [
       500123.8839620104,
       3000160.0
      ],
      [
       500123.8839620104,
       3000117.660059062
      ],
      [
       500160.0,
       3000117.660059062
      ]
     ]
    ]
   }
  },
  {
   "id": "12",
   "type": "Feature",
   "properties": {
    "parcel_id": "P-013",
    "ward_id": "WARD-01",
    "block_id": "BLK-02",
    "land_use": "institutional",
    "area_m2": 2616.25
   },
   "geometry": {
    "type": "Polygon",
    "coordinates": [
     [
      [
       500216.3890596351,
       3000024.378533682
      ],
      [
       500219.4145108675,
       3000091.303791603
      ],
      [
       500180.0,
       3000091.303791603
      ],
      [
       500180.0,
       3000020.0
      ],
      [
       500216.3890596351,
       3000024.378533682
      ]
     ]
    ]
   }
  },
  {
   "id": "13",
   "type": "Feature",
   "properties": {
    "parcel_id": "P-014",
    "ward_id": "WARD-01",
    "block_id": "BLK-02",
    "land_use": "open_space",
    "area_m2": 3233.79
   },
   "geometry": {
    "type": "Polygon",
    "coordinates": [
     [
      [
       500268.10051647684,
       3000020.0
      ],
      [
       500268.10051647684,
       3000091.303791603
      ],
      [
       500219.4145108675,
       3000091.303791603
      ],
      [
       500223.21303650393,
       3000024.201897436
      ],
      [
       500268.10051647684,
       3000020.0
      ]
     ]
    ]
   }
  },
  {
   "id": "14",
   "type": "Feature",
   "properties": {
    "parcel_id": "P-015",
    "ward_id": "WARD-01",
    "block_id": "BLK-02",
    "land_use": "mixed",
    "area_m2": 2894.51
   },
   "geometry": {
    "type": "Polygon",
    "coordinates": [
     [
      [
       500226.6713464335,
       3000091.303791603
      ],
      [
       500180.0,
       3000091.303791603
      ],
      [
       500180.0,
       3000160.0
      ],
      [
       500211.8165475702,
       3000160.0
      ],
      [
       500211.8165475702,
       3000139.021043447
      ],
      [
       500226.6713464335,
       3000139.021043447
      ],
      [
       500226.6713464335,
       3000091.303791603
      ]
     ]
    ]
   }
  },
  {
   "id": "15",
   "type": "Feature",
   "properties": {
    "parcel_id": "P-016",
    "ward_id": "WARD-01",
    "block_id": "BLK-02",
    "land_use": "residential",
    "area_m2": 1576.36
   },
   "geometry": {
    "type": "Polygon",
    "coordinates": [
     [
      [
       500268.10051647684,
       3000091.303791603
      ],
      [
       500226.6713464335,
       3000091.303791603
      ],
      [
       500226.6713464335,
       3000134.150387011
      ],
      [
       500254.50447159586,
       3000134.150387011
      ],
      [
       500254.50447159586,
       3000119.5330773043
      ],
      [
       500268.10051647684,
       3000119.5330773043
      ],
      [
       500268.10051647684,
       3000091.303791603
      ]
     ]
    ]
   }
  },
  {
   "id": "16",
   "type": "Feature",
   "properties": {
    "parcel_id": "P-017",
    "ward_id": "WARD-01",
    "block_id": "BLK-02",
    "land_use": "mixed",
    "area_m2": 1003.66
   },
   "geometry": {
    "type": "Polygon",
    "coordinates": [
     [
      [
       500265.2920116656,
       3000135.645325719
      ],
      [
       500268.10051647684,
       3000160.0
      ],
      [
       500226.6713464335,
       3000160.0
      ],
      [
       500226.6713464335,
       3000134.150387011
      ],
      [
       500265.2920116656,
       3000135.645325719
      ]
     ]
    ]
   }
  },
  {
   "id": "17",
   "type": "Feature",
   "properties": {
    "parcel_id": "P-018",
    "ward_id": "WARD-01",
    "block_id": "BLK-02",
    "land_use": "mixed",
    "area_m2": 1986.62
   },
   "geometry": {
    "type": "Polygon",
    "coordinates": [
     [
      [
       500268.10051647684,
       3000020.0
      ],
      [
       500268.10051647684,
       3000063.128481268
      ],
      [
       500320.0,
       3000063.128481268
      ],
      [
       500320.0,
       3000034.2537157834
      ],
      [
       500302.3393313774,
       3000034.2537157834
      ],
      [
       500302.3393313774,
       3000020.0
      ],
      [
       500268.10051647684,
       3000020.0
      ]
     ]
    ]
   }
  },
  {
   "id": "18",
   "type": "Feature",
   "properties": {
    "parcel_id": "P-019",
    "ward_id": "WARD-01",
    "block_id": "BLK-02",
    "land_use": "mixed",
    "area_m2": 1590.6
   },
   "geometry": {
    "type": "Polygon",
    "coordinates": [
     [
      [
       500316.6165316544,
       3000065.242901288
      ],
      [
       500320.0,
       3000095.9016966587
      ],
      [
       500268.10051647684,
       3000095.9016966587
      ],
      [
       500268.10051647684,
       3000063.128481268
      ],
      [
       500316.6165316544,
       3000065.242901288
      ]
     ]
    ]
   }
  },
  {
   "id": "19",
   "type": "Feature",
   "properties": {
    "parcel_id": "P-020",
    "ward_id": "WARD-01",
    "block_id": "BLK-02",
    "land_use": "institutional",
    "area_m2": 477.1
   },
   "geometry": {
    "type": "Polygon",
    "coordinates": [
     [
      [
       500268.10051647684,
       3000120.8290118887
      ],
      [
       500288.57737567887,
       3000120.8290118887
      ],
      [
       500288.57737567887,
       3000095.9016966587
      ],
      [
       500272.65605835844,
       3000095.9016966587
      ],
      [
       500272.65605835844,
       3000103.2193699544
      ],
      [
       500268.10051647684,
       3000103.2193699544
      ],
      [
       500268.10051647684,
       3000120.8290118887
      ]
     ]
    ]
   }
  },
  {
   "id": "20",
   "type": "Feature",
   "properties": {
    "parcel_id": "P-021",
    "ward_id": "WARD-01",
    "block_id": "BLK-02",
    "land_use": "industrial",
    "area_m2": 731.83
   },
   "geometry": {
    "type": "Polygon",
    "coordinates": [
     [
      [
       500288.57737567887,
       3000095.9016966587
      ],
      [
       500288.57737567887,
       3000120.8290118887
      ],
      [
       500320.0,
       3000120.8290118887
      ],
      [
       500320.0,
       3000102.1064509833
      ],
      [
       500311.708085868,
       3000102.1064509833
      ],
      [
       500311.708085868,
       3000095.9016966587
      ],
      [
       500288.57737567887,
       3000095.9016966587
      ]
     ]
    ]
   }
  },
  {
   "id": "21",
   "type": "Feature",
   "properties": {
    "parcel_id": "P-022",
    "ward_id": "WARD-01",
    "block_id": "BLK-02",
    "land_use": "residential",
    "area_m2": 930.16
   },
   "geometry": {
    "type": "Polygon",
    "coordinates": [
     [
      [
       500292.11973116023,
       3000123.6240467858
      ],
      [
       500293.3769456524,
       3000160.0
      ],
      [
       500268.10051647684,
       3000160.0
      ],
      [
       500268.10051647684,
       3000120.8290118887
      ],
      [
       500292.11973116023,
       3000123.6240467858
      ]
     ]
    ]
   }
  },
  {
   "id": "22",
   "type": "Feature",
   "properties": {
    "parcel_id": "P-023",
    "ward_id": "WARD-01",
    "block_id": "BLK-02",
    "land_use": "residential",
    "area_m2": 1042.85
   },
   "geometry": {
    "type": "Polygon",
    "coordinates": [
     [
      [
       500320.0,
       3000120.8290118887
      ],
      [
       500320.0,
       3000160.0
      ],
      [
       500293.3769456524,
       3000160.0
      ],
      [
       500293.3769456524,
       3000120.8290118887
      ],
      [
       500320.0,
       3000120.8290118887
      ]
     ]
    ]
   }
  },
  {
   "id": "23",
   "type": "Feature",
   "properties": {
    "parcel_id": "P-024",
    "ward_id": "WARD-01",
    "block_id": "BLK-03",
    "land_use": "open_space",
    "area_m2": 2120.73
   },
   "geometry": {
    "type": "Polygon",
    "coordinates": [
     [
      [
       500340.0,
       3000020.0
      ],
      [
       500344.068408719,
       3000056.503331988
      ],
      [
       500398.554721168,
       3000058.615523293
      ],
      [
       500398.554721168,
       3000054.6188421454
      ],
      [
       500400.154721168,
       3000054.6188421454
      ],
      [
       500400.154721168,
       3000020.0
      ],
      [
       500398.554721168,
       3000020.0
      ],
      [
       500340.0,
       3000020.0
      ]
     ]
    ]
   }
  },
  {
   "id": "24",
   "type": "Feature",
   "properties": {
    "parcel_id": "P-025",
    "ward_id": "WARD-01",
    "block_id": "BLK-03",
    "land_use": "residential",
    "area_m2": 2122.56
   },
   "geometry": {
    "type": "Polygon",
    "coordinates": [
     [
      [
       500398.554721168,
       3000098.722517494
      ],
      [
       500398.554721168,
       3000058.615523293
      ],
      [
       500340.0,
       3000058.615523293
      ],
      [
       500340.0,
       3000085.2503049728
      ],
      [
       500356.7671031064,
       3000085.2503049728
      ],
      [
       500356.7671031064,
       3000098.722517494
      ],
      [
       500398.554721168,
       3000098.722517494
      ]
     ]
    ]
   }
  },
  {
   "id": "25",
   "type": "Feature",
   "properties": {
    "parcel_id": "P-026",
    "ward_id": "WARD-01",
    "block_id": "BLK-03",
    "land_use": "residential",
    "area_m2": 1287.02
   },
   "geometry": {
    "type": "Polygon",
    "coordinates": [
     [
      [
       500362.77366407035,
       3000098.722517494
      ],
      [
       500340.0,
       3000098.722517494
      ],
      [
       500340.0,
       3000160.0
      ],
      [
       500355.4999582114,
       3000160.0
      ],
      [
       500355.4999582114,
       3000145.084201905
      ],
      [
       500362.77366407035,
       3000145.084201905
      ],
      [
       500362.77366407035,
       3000098.722517494
      ]
     ]
    ]
   }
  },
  {
   "id": "26",
   "type": "Feature",
   "properties": {
    "parcel_id": "P-027",
    "ward_id": "WARD-01",
    "block_id": "BLK-03",
    "land_use": "open_space",
    "area_m2": 2062.98
   },
   "geometry": {
    "type": "Polygon",
    "coordinates": [
     [
      [
       500362.77366407035,
       3000160.0
      ],
      [
       500398.554721168,
       3000160.0
      ],
      [
       500398.554721168,
       3000098.722517494
      ],
      [
       500370.6975577071,
       3000098.722517494
      ],
      [
       500370.6975577071,
       3000115.077550428
      ],
      [
       500362.77366407035,
       3000115.077550428
      ],
      [
       500362.77366407035,
       3000160.0
      ]
     ]
    ]
   }
  },
  {
   "id": "27",
   "type": "Feature",
   "properties": {
    "parcel_id": "P-028",
    "ward_id": "WARD-01",
    "block_id": "BLK-03",
    "land_use": "mixed",
    "area_m2": 2485.62
   },
   "geometry": {
    "type": "Polygon",
    "coordinates": [
     [
      [
       500398.554721168,
       3000020.0
      ],
      [
       500398.554721168,
       3000054.6188421454
      ],
      [
       500480.0,
       3000054.6188421454
      ],
      [
       500480.0,
       3000032.273587993
      ],
      [
       500452.7936909028,
       3000032.273587993
      ],
      [
       500452.7936909028,
       3000020.0
      ],
      [
       500398.554721168,
       3000020.0
      ]
     ]
    ]
   }
  },
  {
   "id": "28",
   "type": "Feature",
   "properties": {
    "parcel_id": "P-029",
    "ward_id": "WARD-01",
    "block_id": "BLK-03",
    "land_use": "commercial",
    "area_m2": 1628.92
   },
   "geometry": {
    "type": "Polygon",
    "coordinates": [
     [
      [
       500398.554721168,
       3000054.6188421454
      ],
      [
       500398.554721168,
       3000108.3862858745
      ],
      [
       500431.6886764948,
       3000108.3862858745
      ],
      [
       500431.6886764948,
       3000067.761837333
      ],
      [
       500420.07747140457,
       3000067.761837333
      ],
      [
       500420.07747140457,
       3000054.6188421454
      ],
      [
       500398.554721168,
       3000054.6188421454
      ]
     ]
    ]
   }
  },
  {
   "id": "29",
   "type": "Feature",
   "properties": {
    "parcel_id": "P-030",
    "ward_id": "WARD-01",
    "block_id": "BLK-03",
    "land_use": "commercial",
    "area_m2": 2289.02
   },
   "geometry": {
    "type": "Polygon",
    "coordinates": [
     [
      [
       500480.0,
       3000108.3862858745
      ],
      [
       500480.0,
       3000054.6188421454
      ],
      [
       500431.6886764948,
       3000054.6188421454
      ],
      [
       500431.6886764948,
       3000089.5031394735
      ],
      [
       500448.0290849838,
       3000089.5031394735
      ],
      [
       500448.0290849838,
       3000108.3862858745
      ],
      [
       500480.0,
       3000108.3862858745
      ]
     ]
    ]
   }
  },
  {
   "id": "30",
   "type": "Feature",
   "properties": {
    "parcel_id": "P-031",
    "ward_id": "WARD-01",
    "block_id": "BLK-03",
    "land_use": "residential",
    "area_m2": 1253.96
   },
   "geometry": {
    "type": "Polygon",
    "coordinates": [
     [
      [
       500398.554721168,
       3000139.2999118543
      ],
      [
       500443.49919150403,
       3000139.2999118543
      ],
      [
       500443.49919150403,
       3000108.3862858745
      ],
      [
       500410.8099262792,
       3000108.3862858745
      ],
      [
       500410.8099262792,
       3000119.4380119946
      ],
      [
       500398.554721168,
       3000119.4380119946
      ],
      [
       500398.554721168,
       3000139.2999118543
      ]
     ]
    ]
   }
  },
  {
   "id": "31",
   "type": "Feature",
   "properties": {
    "parcel_id": "P-032",
    "ward_id": "WARD-01",
    "block_id": "BLK-03",
    "land_use": "residential",
    "area_m2": 871.95
   },
   "geometry": {
    "type": "Polygon",
    "coordinates": [
     [
      [
       500398.554721168,
       3000139.2999118543
      ],
      [
       500398.554721168,
       3000160.0
      ],
      [
       500443.49919150403,
       3000160.0
      ],
      [
       500443.49919150403,
       3000145.0058338414
      ],
      [
       500433.26319829514,
       3000145.0058338414
      ],
      [
       500433.26319829514,
       3000139.2999118543
      ],
      [
       500398.554721168,
       3000139.2999118543
      ]
     ]
    ]
   }
  },
  {
   "id": "32",
   "type": "Feature",
   "properties": {
    "parcel_id": "P-033",
    "ward_id": "WARD-01",
    "block_id": "BLK-03",
    "land_use": "mixed",
    "area_m2": 968.88
   },
   "geometry": {
    "type": "Polygon",
    "coordinates": [
     [
      [
       500480.0,
       3000108.3862858745
      ],
      [
       500480.0,
       3000136.9037208087
      ],
      [
       500443.49919150403,
       3000136.9037208087
      ],
      [
       500445.3918808974,
       3000110.85411861
      ],
      [
       500480.0,
       3000108.3862858745
      ]
     ]
    ]
   }
  },
  {
   "id": "33",
   "type": "Feature",
   "properties": {
    "parcel_id": "P-034",
    "ward_id": "WARD-01",
    "block_id": "BLK-03",
    "land_use": "mixed",
    "area_m2": 742.35
   },
   "geometry": {
    "type": "Polygon",
    "coordinates": [
     [
      [
       500443.49919150403,
       3000136.9037208087
      ],
      [
       500443.49919150403,
       3000160.0
      ],
      [
       500480.0,
       3000160.0
      ],
      [
       500480.0,
       3000144.9119636645
      ],
      [
       500467.42788507434,
       3000144.9119636645
      ],
      [
       500467.42788507434,
       3000136.9037208087
      ],
      [
       500443.49919150403,
       3000136.9037208087
      ]
     ]
    ]
   }
  },
  {
   "id": "34",
   "type": "Feature",
   "properties": {
    "parcel_id": "P-035",
    "ward_id": "WARD-01",
    "block_id": "BLK-04",
    "land_use": "industrial",
    "area_m2": 2952.1
   },
   "geometry": {
    "type": "Polygon",
    "coordinates": [
     [
      [
       500065.8082467753,
       3000180.0
      ],
      [
       500065.8082467753,
       3000244.444816849
      ],
      [
       500020.0,
       3000244.444816849
      ],
      [
       500020.0,
       3000180.0
      ],
      [
       500065.8082467753,
       3000180.0
      ]
     ]
    ]
   }
  },
  {
   "id": "35",
   "type": "Feature",
   "properties": {
    "parcel_id": "P-036",
    "ward_id": "WARD-01",
    "block_id": "BLK-04",
    "land_use": "open_space",
    "area_m2": 2142.82
   },
   "geometry": {
    "type": "Polygon",
    "coordinates": [
     [
      [
       500102.79744742764,
       3000244.444816849
      ],
      [
       500102.79744742764,
       3000180.0
      ],
      [
       500065.8082467753,
       3000180.0
      ],
      [
       500065.8082467753,
       3000224.6934629777
      ],
      [
       500078.00699433236,
       3000224.6934629777
      ],
      [
       500078.00699433236,
       3000244.444816849
      ],
      [
       500102.79744742764,
       3000244.444816849
      ]
     ]
    ]
   }
  },
  {
   "id": "36",
   "type": "Feature",
   "properties": {
    "parcel_id": "P-037",
    "ward_id": "WARD-01",
    "block_id": "BLK-04",
    "land_use": "industrial",
    "area_m2": 2410.51
   },
   "geometry": {
    "type": "Polygon",
    "coordinates": [
     [
      [
       500102.79744742764,
       3000244.444816849
      ],
      [
       500102.79744742764,
       3000273.5581969046
      ],
      [
       500020.0,
       3000273.5581969046
      ],
      [
       500020.0,
       3000244.444816849
      ],
      [
       500102.79744742764,
       3000244.444816849
      ]
     ]
    ]
   }
  },
  {
   "id": "37",
   "type": "Feature",
   "properties": {
    "parcel_id": "P-038",
    "ward_id": "WARD-01",
    "block_id": "BLK-04",
    "land_use": "residential",
    "area_m2": 1523.36
   },
   "geometry": {
    "type": "Polygon",
    "coordinates": [
     [
      [
       500056.5124684947,
       3000320.0
      ],
      [
       500056.5124684947,
       3000273.5581969046
      ],
      [
       500020.0,
       3000273.5581969046
      ],
      [
       500020.0,
       3000306.4505787874
      ],
      [
       500032.71993436344,
       3000306.4505787874
      ],
      [
       500032.71993436344,
       3000320.0
      ],
      [
       500056.5124684947,
       3000320.0
      ]
     ]
    ]
   }
  },
  {
   "id": "38",
   "type": "Feature",
   "properties": {
    "parcel_id": "P-039",
    "ward_id": "WARD-01",
    "block_id": "BLK-04",
    "land_use": "open_space",
    "area_m2": 1972.63
   },
   "geometry": {
    "type": "Polygon",
    "coordinates": [
     [
      [
       500056.5124684947,
       3000273.5581969046
      ],
      [
       500056.5124684947,
       3000320.0
      ],
      [
       500102.79744742764,
       3000320.0
      ],
      [
       500102.79744742764,
       3000285.3385358406
      ],
      [
       500087.7781541913,
       3000285.3385358406
      ],
      [
       500087.7781541913,
       3000273.5581969046
      ],
      [
       500056.5124684947,
       3000273.5581969046
      ]
     ]
    ]
   }
  },
  {
   "id": "39",
   "type": "Feature",
   "properties": {
    "parcel_id": "P-040",
    "ward_id": "WARD-01",
    "block_id": "BLK-04",
    "land_use": "utility",
    "area_m2": 2071.35
   },
   "geometry": {
    "type": "Polygon",
    "coordinates": [
     [
      [
       500138.004135142,
       3000180.0
      ],
      [
       500102.79744742764,
       3000180.0
      ],
      [
       500102.79744742764,
       3000244.2844569925
      ],
      [
       500127.35733320203,
       3000244.2844569925
      ],
      [
       500127.35733320203,
       3000226.2611428425
      ],
      [
       500138.004135142,
       3000226.2611428425
      ],
      [
       500138.004135142,
       3000180.0
      ]
     ]
    ]
   }
  },
  {
   "id": "40",
   "type": "Feature",
   "properties": {
    "parcel_id": "P-041",
    "ward_id": "WARD-01",
    "block_id": "BLK-04",
    "land_use": "residential",
    "area_m2": 693.12
   },
   "geometry": {
    "type": "Polygon",
    "coordinates": [
     [
      [
       500138.004135142,
       3000214.1189574194
      ],
      [
       500160.0,
       3000214.1189574194
      ],
      [
       500160.0,
       3000180.0
      ],
      [
       500144.89899715746,
       3000180.0
      ],
      [
       500144.89899715746,
       3000188.3183304574
      ],
      [
       500138.004135142,
       3000188.3183304574
      ],
      [
       500138.004135142,
       3000214.1189574194
      ]
     ]
    ]
   }
  },
  {
   "id": "41",
   "type": "Feature",
   "properties": {
    "parcel_id": "P-042",
    "ward_id": "WARD-01",
    "block_id": "BLK-04",
    "land_use": "industrial",
    "area_m2": 663.52
   },
   "geometry": {
    "type": "Polygon",
    "coordinates": [
     [
      [
       500160.0,
       3000214.1189574194
      ],
      [
       500160.0,
       3000244.2844569925
      ],
      [
       500138.004135142,
       3000244.2844569925
      ],
      [
       500138.004135142,
       3000214.1189574194
      ],
      [
       500160.0,
       3000214.1189574194
      ]
     ]
    ]
   }
  },
  {
   "id": "42",
   "type": "Feature",
   "properties": {
    "parcel_id": "P-043",
    "ward_id": "WARD-01",
    "block_id": "BLK-04",
    "land_use": "commercial",
    "area_m2": 2041.51
   },
   "geometry": {
    "type": "Polygon",
    "coordinates": [
     [
      [
       500102.79744742764,
       3000244.2844569925
      ],
      [
       500102.79744742764,
       3000282.925058738
      ],
      [
       500160.0,
       3000282.925058738
      ],
      [
       500160.0,
       3000257.0583750573
      ],
      [
       500146.7828171795,
       3000257.0583750573
      ],
      [
       500146.7828171795,
       3000244.2844569925
      ],
      [
       500102.79744742764,
       3000244.2844569925
      ]
     ]
    ]
   }
  },
  {
   "id": "43",
   "type": "Feature",
   "properties": {
    "parcel_id": "P-044",
    "ward_id": "WARD-01",
    "block_id": "BLK-04",
    "land_use": "residential",
    "area_m2": 1250.44
   },
   "geometry": {
    "type": "Polygon",
    "coordinates": [
     [
      [
       500138.86540192214,
       3000282.925058738
      ],
      [
       500138.86540192214,
       3000320.0
      ],
      [
       500104.9947337218,
       3000317.4469942655
      ],
      [
       500102.79744742764,
       3000282.925058738
      ],
      [
       500138.86540192214,
       3000282.925058738
      ]
     ]
    ]
   }
  },
  {
   "id": "44",
   "type": "Feature",
   "properties": {
    "parcel_id": "P-045",
    "ward_id": "WARD-01",
    "block_id": "BLK-04",
    "land_use": "residential",
    "area_m2": 740.45
   },
   "geometry": {
    "type": "Polygon",
    "coordinates": [
     [
      [
       500160.0,
       3000320.0
      ],
      [
       500160.0,
       3000282.925058738
      ],
      [
       500138.86540192214,
       3000282.925058738
      ],
      [
       500138.86540192214,
       3000311.226741521
      ],
      [
       500143.7792509529,
       3000311.226741521
      ],
      [
       500143.7792509529,
       3000320.0
      ],
      [
       500160.0,
       3000320.0
      ]
     ]
    ]
   }
  },
  {
   "id": "45",
   "type": "Feature",
   "properties": {
    "parcel_id": "P-046",
    "ward_id": "WARD-01",
    "block_id": "BLK-05",
    "land_use": "residential",
    "area_m2": 3141.73
   },
   "geometry": {
    "type": "Polygon",
    "coordinates": [
     [
      [
       500246.78355929523,
       3000180.0
      ],
      [
       500246.78355929523,
       3000227.0435373257
      ],
      [
       500180.0,
       3000227.0435373257
      ],
      [
       500180.0,
       3000180.0
      ],
      [
       500246.78355929523,
       3000180.0
      ]
     ]
    ]
   }
  },
  {
   "id": "46",
   "type": "Feature",
   "properties": {
    "parcel_id": "P-047",
    "ward_id": "WARD-01",
    "block_id": "BLK-05",
    "land_use": "mixed",
    "area_m2": 1152.71
   },
   "geometry": {
    "type": "Polygon",
    "coordinates": [
     [
      [
       500180.0,
       3000227.0435373257
      ],
      [
       500180.0,
       3000256.2780956216
      ],
      [
       500219.4298661587,
       3000256.2780956216
      ],
      [
       500219.4298661587,
       3000248.1437663794
      ],
      [
       500221.0298661587,
       3000248.1437663794
      ],
      [
       500221.0298661587,
       3000227.0435373257
      ],
      [
       500219.4298661587,
       3000227.0435373257
      ],
      [
       500180.0,
       3000227.0435373257
      ]
     ]
    ]
   }
  },
  {
   "id": "47",
   "type": "Feature",
   "properties": {
    "parcel_id": "P-048",
    "ward_id": "WARD-01",
    "block_id": "BLK-05",
    "land_use": "open_space",
    "area_m2": 724.62
   },
   "geometry": {
    "type": "Polygon",
    "coordinates": [
     [
      [
       500246.78355929523,
       3000256.2780956216
      ],
      [
       500246.78355929523,
       3000227.0435373257
      ],
      [
       500219.4298661587,
       3000227.0435373257
      ],
      [
       500219.4298661587,
       3000248.1437663794
      ],
      [
       500228.656437212,
       3000248.1437663794
      ],
      [
       500228.656437212,
       3000256.2780956216
      ],
      [
       500246.78355929523,
       3000256.2780956216
      ]
     ]
    ]
   }
  },
  {
   "id": "48",
   "type": "Feature",
   "properties": {
    "parcel_id": "P-049",
    "ward_id": "WARD-01",
    "block_id": "BLK-05",
    "land_use": "residential",
    "area_m2": 3205.56
   },
   "geometry": {
    "type": "Polygon",
    "coordinates": [
     [
      [
       500291.896920651,
       3000180.0
      ],
      [
       500291.896920651,
       3000256.2780956216
      ],
      [
       500246.78355929523,
       3000256.2780956216
      ],
      [
       500250.19669498515,
       3000184.6737347627
      ],
      [
       500291.896920651,
       3000180.0
      ]
     ]
    ]
   }
  },
  {
   "id": "49",
   "type": "Feature",
   "properties": {
    "parcel_id": "P-050",
    "ward_id": "WARD-01",
    "block_id": "BLK-05",
    "land_use": "residential",
    "area_m2": 945.13
   },
   "geometry": {
    "type": "Polygon",
    "coordinates": [
     [
      [
       500320.0,
       3000216.8902439005
      ],
      [
       500320.0,
       3000180.0
      ],
      [
       500291.896920651,
       3000180.0
      ],
      [
       500291.896920651,
       3000207.2002078225
      ],
      [
       500301.3502614119,
       3000207.2002078225
      ],
      [
       500301.3502614119,
       3000216.8902439005
      ],
      [
       500320.0,
       3000216.8902439005
      ]
     ]
    ]
   }
  },
  {
   "id": "50",
   "type": "Feature",
   "properties": {
    "parcel_id": "P-051",
    "ward_id": "WARD-01",
    "block_id": "BLK-05",
    "land_use": "commercial",
    "area_m2": 1030.96
   },
   "geometry": {
    "type": "Polygon",
    "coordinates": [
     [
      [
       500320.0,
       3000216.8902439005
      ],
      [
       500320.0,
       3000256.2780956216
      ],
      [
       500294.13847724063,
       3000254.013883714
      ],
      [
       500291.896920651,
       3000216.8902439005
      ],
      [
       500320.0,
       3000216.8902439005
      ]
     ]
    ]
   }
  },
  {
   "id": "51",
   "type": "Feature",
   "properties": {
    "parcel_id": "P-052",
    "ward_id": "WARD-01",
    "block_id": "BLK-05",
    "land_use": "open_space",
    "area_m2": 2012.99
   },
   "geometry": {
    "type": "Polygon",
    "coordinates": [
     [
      [
       500211.59016145556,
       3000256.2780956216
      ],
      [
       500211.59016145556,
       3000320.0
      ],
      [
       500180.0,
       3000320.0
      ],
      [
       500180.0,
       3000256.2780956216
      ],
      [
       500211.59016145556,
       3000256.2780956216
      ]
     ]
    ]
   }
  },
  {
   "id": "52",
   "type": "Feature",
   "properties": {
    "parcel_id": "P-053",
    "ward_id": "WARD-01",
    "block_id": "BLK-05",
    "land_use": "institutional",
    "area_m2": 3220.6
   },
   "geometry": {
    "type": "Polygon",
    "coordinates": [
     [
      [
       500265.5861618987,
       3000256.2780956216
      ],
      [
       500265.5861618987,
       3000320.0
      ],
      [
       500211.59016145556,
       3000320.0
      ],
      [
       500214.7076342676,
       3000260.7524146955
      ],
      [
       500265.5861618987,
       3000256.2780956216
      ]
     ]
    ]
   }
  },
  {
   "id": "53",
   "type": "Feature",
   "properties": {
    "parcel_id": "P-054",
    "ward_id": "WARD-01",
    "block_id": "BLK-05",
    "land_use": "commercial",
    "area_m2": 1432.97
   },
   "geometry": {
    "type": "Polygon",
    "coordinates": [
     [
      [
       500320.0,
       3000256.2780956216
      ],
      [
       500320.0,
       3000282.6128127235
      ],
      [
       500265.5861618987,
       3000282.6128127235
      ],
      [
       500265.5861618987,
       3000256.2780956216
      ],
      [
       500320.0,
       3000256.2780956216
      ]
     ]
    ]
   }
  },
  {
   "id": "54",
   "type": "Feature",
   "properties": {
    "parcel_id": "P-055",
    "ward_id": "WARD-01",
    "block_id": "BLK-05",
    "land_use": "institutional",
    "area_m2": 1143.76
   },
   "geometry": {
    "type": "Polygon",
    "coordinates": [
     [
      [
       500299.04026134236,
       3000320.0
      ],
      [
       500299.04026134236,
       3000282.6128127235
      ],
      [
       500265.5861618987,
       3000282.6128127235
      ],
      [
       500265.5861618987,
       3000307.789667635
      ],
      [
       500274.34900478995,
       3000307.789667635
      ],
      [
       500274.34900478995,
       3000320.0
      ],
      [
       500299.04026134236,
       3000320.0
      ]
     ]
    ]
   }
  },
  {
   "id": "55",
   "type": "Feature",
   "properties": {
    "parcel_id": "P-056",
    "ward_id": "WARD-01",
    "block_id": "BLK-05",
    "land_use": "institutional",
    "area_m2": 723.13
   },
   "geometry": {
    "type": "Polygon",
    "coordinates": [
     [
      [
       500320.0,
       3000282.6128127235
      ],
      [
       500320.0,
       3000320.0
      ],
      [
       500299.04026134236,
       3000320.0
      ],
      [
       500301.1487245899,
       3000284.624717709
      ],
      [
       500320.0,
       3000282.6128127235
      ]
     ]
    ]
   }
  },
  {
   "id": "56",
   "type": "Feature",
   "properties": {
    "parcel_id": "P-057",
    "ward_id": "WARD-01",
    "block_id": "BLK-06",
    "land_use": "institutional",
    "area_m2": 2011.14
   },
   "geometry": {
    "type": "Polygon",
    "coordinates": [
     [
      [
       500340.0,
       3000220.8983096457
      ],
      [
       500395.3553467197,
       3000220.8983096457
      ],
      [
       500395.3553467197,
       3000180.0
      ],
      [
       500357.7153333135,
       3000180.0
      ],
      [
       500357.7153333135,
       3000194.2702296935
      ],
      [
       500340.0,
       3000194.2702296935
      ],
      [
       500340.0,
       3000220.8983096457
      ]
     ]
    ]
   }
  },
  {
   "id": "57",
   "type": "Feature",
   "properties": {
    "parcel_id": "P-058",
    "ward_id": "WARD-01",
    "block_id": "BLK-06",
    "land_use": "utility",
    "area_m2": 1719.42
   },
   "geometry": {
    "type": "Polygon",
    "coordinates": [
     [
      [
       500340.0,
       3000255.8019757844
      ],
      [
       500395.3553467197,
       3000255.8019757844
      ],
      [
       500395.3553467197,
       3000220.8983096457
      ],
      [
       500359.9154847665,
       3000220.8983096457
      ],
      [
       500359.9154847665,
       3000231.5775286397
      ],
      [
       500340.0,
       3000231.5775286397
      ],
      [
       500340.0,
       3000255.8019757844
      ]
     ]
    ]
   }
  },
  {
   "id": "58",
   "type": "Feature",
   "properties": {
    "parcel_id": "P-059",
    "ward_id": "WARD-01",
    "block_id": "BLK-06",
    "land_use": "industrial",
    "area_m2": 3772.17
   },
   "geometry": {
    "type": "Polygon",
    "coordinates": [
     [
      [
       500448.60471257224,
       3000180.0
      ],
      [
       500448.60471257224,
       3000255.8019757844
      ],
      [
       500395.3553467197,
       3000255.8019757844
      ],
      [
       500398.9139229529,
       3000184.8587297453
      ],
      [
       500448.60471257224,
       3000180.0
      ]
     ]
    ]
   }
  },
  {
   "id": "59",
   "type": "Feature",
   "properties": {
    "parcel_id": "P-060",
    "ward_id": "WARD-01",
    "block_id": "BLK-06",
    "land_use": "commercial",
    "area_m2": 1242.06
   },
   "geometry": {
    "type": "MultiPolygon",
    "coordinates": [
     [
      [
       [
        500480.0,
        3000219.561939199
       ],
       [
        500480.0,
        3000180.0
       ],
       [
        500448.60471257224,
        3000180.0
       ],
       [
        500448.60471257224,
        3000219.561939199
       ],
       [
        500480.0,
        3000219.561939199
       ]
      ]
     ],
     [
      [
       [
        500448.60471257224,
        3000219.561939199
       ],
       [
        500448.60471257224,
        3000221.161939199
       ],
       [
        500468.07239749713,
        3000221.161939199
       ],
       [
        500448.60471257224,
        3000219.561939199
       ]
      ]
     ]
    ]
   }
  },
  {
   "id": "60",
   "type": "Feature",
   "properties": {
    "parcel_id": "P-061",
    "ward_id": "WARD-01",
    "block_id": "BLK-06",
    "land_use": "open_space",
    "area_m2": 1064.14
   },
   "geometry": {
    "type": "Polygon",
    "coordinates": [
     [
      [
       500478.0319702131,
       3000221.9804914
      ],
      [
       500480.0,
       3000255.8019757844
      ],
      [
       500448.60471257224,
       3000255.8019757844
      ],
      [
       500448.60471257224,
       3000219.561939199
      ],
      [
       500478.0319702131,
       3000221.9804914
      ]
     ]
    ]
   }
  },
  {
   "id": "61",
   "type": "Feature",
   "properties": {
    "parcel_id": "P-062",
    "ward_id": "WARD-01",
    "block_id": "BLK-06",
    "land_use": "open_space",
    "area_m2": 1296.98
   },
   "geometry": {
    "type": "Polygon",
    "coordinates": [
     [
      [
       500400.6137101993,
       3000255.8019757844
      ],
      [
       500396.91218372254,
       3000276.8420702675
      ],
      [
       500340.0,
       3000278.971681256
      ],
      [
       500340.0,
       3000255.8019757844
      ],
      [
       500400.6137101993,
       3000255.8019757844
      ]
     ]
    ]
   }
  },
  {
   "id": "62",
   "type": "Feature",
   "properties": {
    "parcel_id": "P-063",
    "ward_id": "WARD-01",
    "block_id": "BLK-06",
    "land_use": "mixed",
    "area_m2": 2319.61
   },
   "geometry": {
    "type": "Polygon",
    "coordinates": [
     [
      [
       500396.90541466617,
       3000281.9806727334
      ],
      [
       500400.6137101993,
       3000320.0
      ],
      [
       500340.0,
       3000320.0
      ],
      [
       500340.0,
       3000278.971681256
      ],
      [
       500396.90541466617,
       3000281.9806727334
      ]
     ]
    ]
   }
  },
  {
   "id": "63",
   "type": "Feature",
   "properties": {
    "parcel_id": "P-064",
    "ward_id": "WARD-01",
    "block_id": "BLK-06",
    "land_use": "open_space",
    "area_m2": 1419.67
   },
   "geometry": {
    "type": "Polygon",
    "coordinates": [
     [
      [
       500442.78602458595,
       3000255.8019757844
      ],
      [
       500400.6137101993,
       3000255.8019757844
      ],
      [
       500400.6137101993,
       3000291.2500659046
      ],
      [
       500433.2337839091,
       3000291.2500659046
      ],
      [
       500433.2337839091,
       3000283.3714912566
      ],
      [
       500442.78602458595,
       3000283.3714912566
      ],
      [
       500442.78602458595,
       3000255.8019757844
      ]
     ]
    ]
   }
  },
  {
   "id": "64",
   "type": "Feature",
   "properties": {
    "parcel_id": "P-065",
    "ward_id": "WARD-01",
    "block_id": "BLK-06",
    "land_use": "residential",
    "area_m2": 1122.08
   },
   "geometry": {
    "type": "Polygon",
    "coordinates": [
     [
      [
       500442.78602458595,
       3000291.2500659046
      ],
      [
       500400.6137101993,
       3000291.2500659046
      ],
      [
       500400.6137101993,
       3000310.447596218
      ],
      [
       500410.0747076318,
       3000310.447596218
      ],
      [
       500410.0747076318,
       3000320.0
      ],
      [
       500442.78602458595,
       3000320.0
      ],
      [
       500444.3860245859,
       3000320.0
      ],
      [
       500444.3860245859,
       3000294.005601387
      ],
      [
       500442.78602458595,
       3000294.005601387
      ],
      [
       500442.78602458595,
       3000291.2500659046
      ]
     ]
    ]
   }
  },
  {
   "id": "65",
   "type": "Feature",
   "properties": {
    "parcel_id": "P-066",
    "ward_id": "WARD-01",
    "block_id": "BLK-06",
    "land_use": "residential",
    "area_m2": 1282.91
   },
   "geometry": {
    "type": "Polygon",
    "coordinates": [
     [
      [
       500480.0,
       3000255.8019757844
      ],
      [
       500442.78602458595,
       3000255.8019757844
      ],
      [
       500442.78602458595,
       3000294.005601387
      ],
      [
       500469.60231187555,
       3000294.005601387
      ],
      [
       500469.60231187555,
       3000280.656640361
      ],
      [
       500480.0,
       3000280.656640361
      ],
      [
       500480.0,
       3000255.8019757844
      ]
     ]
    ]
   }
  },
  {
   "id": "66",
   "type": "Feature",
   "properties": {
    "parcel_id": "P-067",
    "ward_id": "WARD-01",
    "block_id": "BLK-06",
    "land_use": "utility",
    "area_m2": 913.23
   },
   "geometry": {
    "type": "Polygon",
    "coordinates": [
     [
      [
       500480.0,
       3000294.005601387
      ],
      [
       500442.78602458595,
       3000294.005601387
      ],
      [
       500442.78602458595,
       3000320.0
      ],
      [
       500471.2104600749,
       3000320.0
      ],
      [
       500471.2104600749,
       3000313.8417068683
      ],
      [
       500480.0,
       3000313.8417068683
      ],
      [
       500480.0,
       3000294.005601387
      ]
     ]
    ]
   }
  },
  {
   "id": "67",
   "type": "Feature",
   "properties": {
    "parcel_id": "P-068",
    "ward_id": "WARD-01",
    "block_id": "BLK-07",
    "land_use": "institutional",
    "area_m2": 2447.47
   },
   "geometry": {
    "type": "MultiPolygon",
    "coordinates": [
     [
      [
       [
        500070.692785942,
        3000340.0
       ],
       [
        500020.0,
        3000340.0
       ],
       [
        500023.2435041276,
        3000388.2288821014
       ],
       [
        500070.692785942,
        3000391.635794694
       ],
       [
        500070.692785942,
        3000340.0
       ]
      ]
     ],
     [
      [
       [
        500070.692785942,
        3000393.234364639
       ],
       [
        500070.692785942,
        3000391.635794694
       ],
       [
        500055.92297173693,
        3000392.1794241974
       ],
       [
        500070.57819910673,
        3000393.23168625
       ],
       [
        500070.692785942,
        3000393.234364639
       ]
      ]
     ]
    ]
   }
  },
  {
   "id": "68",
   "type": "Feature",
   "properties": {
    "parcel_id": "P-069",
    "ward_id": "WARD-01",
    "block_id": "BLK-07",
    "land_use": "industrial",
    "area_m2": 1779.02
   },
   "geometry": {
    "type": "Polygon",
    "coordinates": [
     [
      [
       500070.692785942,
       3000391.635794694
      ],
      [
       500070.692785942,
       3000428.997848354
      ],
      [
       500020.0,
       3000428.997848354
      ],
      [
       500023.8131964648,
       3000393.361282069
      ],
      [
       500070.692785942,
       3000391.635794694
      ]
     ]
    ]
   }
  },
  {
   "id": "69",
   "type": "Feature",
   "properties": {
    "parcel_id": "P-070",
    "ward_id": "WARD-01",
    "block_id": "BLK-07",
    "land_use": "residential",
    "area_m2": 1078.87
   },
   "geometry": {
    "type": "Polygon",
    "coordinates": [
     [
      [
       500042.46787899244,
       3000428.997848354
      ],
      [
       500042.46787899244,
       3000480.0
      ],
      [
       500021.0980916961,
       3000476.5252478225
      ],
      [
       500020.0,
       3000428.997848354
      ],
      [
       500042.46787899244,
       3000428.997848354
      ]
     ]
    ]
   }
  },
  {
   "id": "70",
   "type": "Feature",
   "properties": {
    "parcel_id": "P-071",
    "ward_id": "WARD-01",
    "block_id": "BLK-07",
    "land_use": "residential",
    "area_m2": 711.15
   },
   "geometry": {
    "type": "Polygon",
    "coordinates": [
     [
      [
       500070.692785942,
       3000428.997848354
      ],
      [
       500042.46787899244,
       3000428.997848354
      ],
      [
       500042.46787899244,
       3000456.3952382137
      ],
      [
       500062.69910997275,
       3000456.3952382137
      ],
      [
       500062.69910997275,
       3000448.622316775
      ],
      [
       500070.692785942,
       3000448.622316775
      ],
      [
       500070.692785942,
       3000428.997848354
      ]
     ]
    ]
   }
  },
  {
   "id": "71",
   "type": "Feature",
   "properties": {
    "parcel_id": "P-072",
    "ward_id": "WARD-01",
    "block_id": "BLK-07",
    "land_use": "open_space",
    "area_m2": 666.24
   },
   "geometry": {
    "type": "Polygon",
    "coordinates": [
     [
      [
       500042.46787899244,
       3000456.3952382137
      ],
      [
       500070.692785942,
       3000480.0
      ],
      [
       500070.692785942,
       3000456.3952382137
      ],
      [
       500042.46787899244,
       3000480.0
      ],
      [
       500042.46787899244,
       3000456.3952382137
      ]
     ]
    ]
   }
  },
  {
   "id": "72",
   "type": "Feature",
   "properties": {
    "parcel_id": "P-073",
    "ward_id": "WARD-01",
    "block_id": "BLK-07",
    "land_use": "residential",
    "area_m2": 3093.03
   },
   "geometry": {
    "type": "Polygon",
    "coordinates": [
     [
      [
       500070.692785942,
       3000410.948755016
      ],
      [
       500117.94688663306,
       3000410.948755016
      ],
      [
       500117.94688663306,
       3000340.0
      ],
      [
       500082.9587138691,
       3000340.0
      ],
      [
       500082.9587138691,
       3000361.1631540745
      ],
      [
       500070.692785942,
       3000361.1631540745
      ],
      [
       500070.692785942,
       3000410.948755016
      ]
     ]
    ]
   }
  },
  {
   "id": "73",
   "type": "Feature",
   "properties": {
    "parcel_id": "P-074",
    "ward_id": "WARD-01",
    "block_id": "BLK-07",
    "land_use": "commercial",
    "area_m2": 1635.95
   },
   "geometry": {
    "type": "Polygon",
    "coordinates": [
     [
      [
       500117.94688663306,
       3000382.296368863
      ],
      [
       500160.0,
       3000382.296368863
      ],
      [
       500160.0,
       3000340.0
      ],
      [
       500129.03116133384,
       3000340.0
      ],
      [
       500129.03116133384,
       3000352.8782232944
      ],
      [
       500117.94688663306,
       3000352.8782232944
      ],
      [
       500117.94688663306,
       3000382.296368863
      ]
     ]
    ]
   }
  },
  {
   "id": "74",
   "type": "Feature",
   "properties": {
    "parcel_id": "P-075",
    "ward_id": "WARD-01",
    "block_id": "BLK-07",
    "land_use": "industrial",
    "area_m2": 1116.04
   },
   "geometry": {
    "type": "Polygon",
    "coordinates": [
     [
      [
       500160.0,
       3000382.296368863
      ],
      [
       500117.94688663306,
       3000382.296368863
      ],
      [
       500117.94688663306,
       3000410.948755016
      ],
      [
       500150.6630100716,
       3000410.948755016
      ],
      [
       500150.6630100716,
       3000401.4295689166
      ],
      [
       500160.0,
       3000401.4295689166
      ],
      [
       500160.0,
       3000382.296368863
      ]
     ]
    ]
   }
  },
  {
   "id": "75",
   "type": "Feature",
   "properties": {
    "parcel_id": "P-076",
    "ward_id": "WARD-01",
    "block_id": "BLK-07",
    "land_use": "residential",
    "area_m2": 3713.35
   },
   "geometry": {
    "type": "Polygon",
    "coordinates": [
     [
      [
       500124.46944645,
       3000410.948755016
      ],
      [
       500124.46944645,
       3000480.0
      ],
      [
       500070.692785942,
       3000480.0
      ],
      [
       500070.692785942,
       3000410.948755016
      ],
      [
       500124.46944645,
       3000410.948755016
      ]
     ]
    ]
   }
  },
  {
   "id": "76",
   "type": "Feature",
   "properties": {
    "parcel_id": "P-077",
    "ward_id": "WARD-01",
    "block_id": "BLK-07",
    "land_use": "institutional",
    "area_m2": 1284.81
   },
   "geometry": {
    "type": "Polygon",
    "coordinates": [
     [
      [
       500160.0,
       3000450.415478795
      ],
      [
       500160.0,
       3000410.948755016
      ],
      [
       500124.46944645,
       3000410.948755016
      ],
      [
       500124.46944645,
       3000438.261281404
      ],
      [
       500134.1339061934,
       3000438.261281404
      ],
      [
       500134.1339061934,
       3000450.415478795
      ],
      [
       500160.0,
       3000450.415478795
      ]
     ]
    ]
   }
  },
  {
   "id": "77",
   "type": "Feature",
   "properties": {
    "parcel_id": "P-078",
    "ward_id": "WARD-01",
    "block_id": "BLK-07",
    "land_use": "residential",
    "area_m2": 981.38
   },
   "geometry": {
    "type": "Polygon",
    "coordinates": [
     [
      [
       500160.0,
       3000450.415478795
      ],
      [
       500157.9120814691,
       3000477.810907033
      ],
      [
       500124.46944645,
       3000480.0
      ],
      [
       500124.46944645,
       3000450.415478795
      ],
      [
       500160.0,
       3000450.415478795
      ]
     ]
    ]
   }
  },
  {
   "id": "78",
   "type": "Feature",
   "properties": {
    "parcel_id": "P-079",
    "ward_id": "WARD-01",
    "block_id": "BLK-08",
    "land_use": "residential",
    "area_m2": 1831.21
   },
   "geometry": {
    "type": "Polygon",
    "coordinates": [
     [
      [
       500246.0618580277,
       3000340.0
      ],
      [
       500242.05050421564,
       3000367.343438313
      ],
      [
       500180.0,
       3000369.911999676
      ],
      [
       500180.0,
       3000340.0
      ],
      [
       500246.0618580277,
       3000340.0
      ]
     ]
    ]
   }
  },
  {
   "id": "79",
   "type": "Feature",
   "properties": {
    "parcel_id": "P-080",
    "ward_id": "WARD-01",
    "block_id": "BLK-08",
    "land_use": "institutional",
    "area_m2": 1032.81
   },
   "geometry": {
    "type": "Polygon",
    "coordinates": [
     [
      [
       500180.0,
       3000369.911999676
      ],
      [
       500216.24388159695,
       3000400.644547565
      ],
      [
       500216.24388159695,
       3000369.911999676
      ],
      [
       500180.0,
       3000400.644547565
      ],
      [
       500180.0,
       3000369.911999676
      ]
     ]
    ]
   }
  },
  {
   "id": "80",
   "type": "Feature",
   "properties": {
    "parcel_id": "P-081",
    "ward_id": "WARD-01",
    "block_id": "BLK-08",
    "land_use": "institutional",
    "area_m2": 916.38
   },
   "geometry": {
    "type": "Polygon",
    "coordinates": [
     [
      [
       500246.0618580277,
       3000369.911999676
      ],
      [
       500246.0618580277,
       3000400.644547565
      ],
      [
       500216.24388159695,
       3000400.644547565
      ],
      [
       500216.24388159695,
       3000369.911999676
      ],
      [
       500246.0618580277,
       3000369.911999676
      ]
     ]
    ]
   }
  },
  {
   "id": "81",
   "type": "Feature",
   "properties": {
    "parcel_id": "P-082",
    "ward_id": "WARD-01",
    "block_id": "BLK-08",
    "land_use": "commercial",
    "area_m2": 2679.25
   },
   "geometry": {
    "type": "Polygon",
    "coordinates": [
     [
      [
       500246.0618580277,
       3000400.644547565
      ],
      [
       500246.0618580277,
       3000441.2012098413
      ],
      [
       500180.0,
       3000441.2012098413
      ],
      [
       500180.0,
       3000400.644547565
      ],
      [
       500246.0618580277,
       3000400.644547565
      ]
     ]
    ]
   }
  },
  {
   "id": "82",
   "type": "Feature",
   "properties": {
    "parcel_id": "P-083",
    "ward_id": "WARD-01",
    "block_id": "BLK-08",
    "land_use": "mixed",
    "area_m2": 1070.79
   },
   "geometry": {
    "type": "Polygon",
    "coordinates": [
     [
      [
       500180.0,
       3000480.0
      ],
      [
       500210.54674393166,
       3000480.0
      ],
      [
       500210.54674393166,
       3000441.2012098413
      ],
      [
       500188.69892228727,
       3000441.2012098413
      ],
      [
       500188.69892228727,
       3000454.351155706
      ],
      [
       500180.0,
       3000454.351155706
      ],
      [
       500180.0,
       3000480.0
      ]
     ]
    ]
   }
  },
  {
   "id": "83",
   "type": "Feature",
   "properties": {
    "parcel_id": "P-084",
    "ward_id": "WARD-01",
    "block_id": "BLK-08",
    "land_use": "residential",
    "area_m2": 1267.28
   },
   "geometry": {
    "type": "Polygon",
    "coordinates": [
     [
      [
       500210.54674393166,
       3000441.2012098413
      ],
      [
       500210.54674393166,
       3000480.0
      ],
      [
       500246.0618580277,
       3000480.0
      ],
      [
       500246.0618580277,
       3000451.637180859
      ],
      [
       500235.45805900317,
       3000451.637180859
      ],
      [
       500235.45805900317,
       3000441.2012098413
      ],
      [
       500210.54674393166,
       3000441.2012098413
      ]
     ]
    ]
   }
  },
  {
   "id": "84",
   "type": "Feature",
   "properties": {
    "parcel_id": "P-085",
    "ward_id": "WARD-01",
    "block_id": "BLK-08",
    "land_use": "residential",
    "area_m2": 2397.88
   },
   "geometry": {
    "type": "Polygon",
    "coordinates": [
     [
      [
       500320.0,
       3000340.0
      ],
      [
       500315.30387841957,
       3000372.288309939
      ],
      [
       500246.0618580277,
       3000374.782712317
      ],
      [
       500246.0618580277,
       3000340.0
      ],
      [
       500320.0,
       3000340.0
      ]
     ]
    ]
   }
  },
  {
   "id": "85",
   "type": "Feature",
   "properties": {
    "parcel_id": "P-086",
    "ward_id": "WARD-01",
    "block_id": "BLK-08",
    "land_use": "mixed",
    "area_m2": 1285.66
   },
   "geometry": {
    "type": "Polygon",
    "coordinates": [
     [
      [
       500284.8977016379,
       3000377.441502552
      ],
      [
       500287.1793576487,
       3000408.3104168787
      ],
      [
       500246.0618580277,
       3000408.3104168787
      ],
      [
       500246.0618580277,
       3000374.782712317
      ],
      [
       500284.8977016379,
       3000377.441502552
      ]
     ]
    ]
   }
  },
  {
   "id": "86",
   "type": "Feature",
   "properties": {
    "parcel_id": "P-087",
    "ward_id": "WARD-01",
    "block_id": "BLK-08",
    "land_use": "utility",
    "area_m2": 1029.29
   },
   "geometry": {
    "type": "Polygon",
    "coordinates": [
     [
      [
       500320.0,
       3000374.782712317
      ],
      [
       500320.0,
       3000408.3104168787
      ],
      [
       500287.1793576487,
       3000408.3104168787
      ],
      [
       500288.71757132787,
       3000377.5445905947
      ],
      [
       500320.0,
       3000374.782712317
      ]
     ]
    ]
   }
  },
  {
   "id": "87",
   "type": "Feature",
   "properties": {
    "parcel_id": "P-088",
    "ward_id": "WARD-01",
    "block_id": "BLK-08",
    "land_use": "commercial",
    "area_m2": 1864.46
   },
   "geometry": {
    "type": "Polygon",
    "coordinates": [
     [
      [
       500320.0,
       3000408.3104168787
      ],
      [
       500320.0,
       3000435.2576949275
      ],
      [
       500246.0618580277,
       3000435.2576949275
      ],
      [
       500250.8852851679,
       3000410.014116241
      ],
      [
       500320.0,
       3000408.3104168787
      ]
     ]
    ]
   }
  },
  {
   "id": "88",
   "type": "Feature",
   "properties": {
    "parcel_id": "P-089",
    "ward_id": "WARD-01",
    "block_id": "BLK-08",
    "land_use": "residential",
    "area_m2": 3308.16
   },
   "geometry": {
    "type": "Polygon",
    "coordinates": [
     [
      [
       500320.0,
       3000435.2576949275
      ],
      [
       500320.0,
       3000480.0
      ],
      [
       500246.0618580277,
       3000480.0
      ],
      [
       500246.0618580277,
       3000435.2576949275
      ],
      [
       500320.0,
       3000435.2576949275
      ]
     ]
    ]
   }
  },
  {
   "id": "89",
   "type": "Feature",
   "properties": {
    "parcel_id": "P-090",
    "ward_id": "WARD-01",
    "block_id": "BLK-09",
    "land_use": "commercial",
    "area_m2": 2614.01
   },
   "geometry": {
    "type": "Polygon",
    "coordinates": [
     [
      [
       500392.3869966761,
       3000340.0
      ],
      [
       500392.3869966761,
       3000393.3609457132
      ],
      [
       500343.099719767,
       3000389.592624054
      ],
      [
       500340.0,
       3000340.0
      ],
      [
       500392.3869966761,
       3000340.0
      ]
     ]
    ]
   }
  },
  {
   "id": "90",
   "type": "Feature",
   "properties": {
    "parcel_id": "P-091",
    "ward_id": "WARD-01",
    "block_id": "BLK-09",
    "land_use": "residential",
    "area_m2": 874.33
   },
   "geometry": {
    "type": "Polygon",
    "coordinates": [
     [
      [
       500366.92973693274,
       3000428.7556259506
      ],
      [
       500366.92973693274,
       3000393.3609457132
      ],
      [
       500340.0,
       3000393.3609457132
      ],
      [
       500340.0,
       3000420.3614340047
      ],
      [
       500349.3916579045,
       3000420.3614340047
      ],
      [
       500349.3916579045,
       3000428.7556259506
      ],
      [
       500366.92973693274,
       3000428.7556259506
      ]
     ]
    ]
   }
  },
  {
   "id": "91",
   "type": "Feature",
   "properties": {
    "parcel_id": "P-092",
    "ward_id": "WARD-01",
    "block_id": "BLK-09",
    "land_use": "residential",
    "area_m2": 844.12
   },
   "geometry": {
    "type": "Polygon",
    "coordinates": [
     [
      [
       500392.3869966761,
       3000428.7556259506
      ],
      [
       500392.3869966761,
       3000393.3609457132
      ],
      [
       500366.92973693274,
       3000393.3609457132
      ],
      [
       500366.92973693274,
       3000420.6190668624
      ],
      [
       500373.9262819906,
       3000420.6190668624
      ],
      [
       500373.9262819906,
       3000428.7556259506
      ],
      [
       500392.3869966761,
       3000428.7556259506
      ]
     ]
    ]
   }
  },
  {
   "id": "92",
   "type": "Feature",
   "properties": {
    "parcel_id": "P-093",
    "ward_id": "WARD-01",
    "block_id": "BLK-09",
    "land_use": "residential",
    "area_m2": 956.14
   },
   "geometry": {
    "type": "Polygon",
    "coordinates": [
     [
      [
       500392.3869966761,
       3000428.7556259506
      ],
      [
       500340.0,
       3000428.7556259506
      ],
      [
       500340.0,
       3000449.3057543584
      ],
      [
       500375.073485102,
       3000449.3057543584
      ],
      [
       500375.073485102,
       3000442.3506514737
      ],
      [
       500392.3869966761,
       3000442.3506514737
      ],
      [
       500392.3869966761,
       3000428.7556259506
      ]
     ]
    ]
   }
  },
  {
   "id": "93",
   "type": "Feature",
   "properties": {
    "parcel_id": "P-094",
    "ward_id": "WARD-01",
    "block_id": "BLK-09",
    "land_use": "commercial",
    "area_m2": 1482.38
   },
   "geometry": {
    "type": "Polygon",
    "coordinates": [
     [
      [
       500340.0,
       3000449.3057543584
      ],
      [
       500340.0,
       3000480.0
      ],
      [
       500392.3869966761,
       3000480.0
      ],
      [
       500392.3869966761,
       3000457.7391134943
      ],
      [
       500377.49390744016,
       3000457.7391134943
      ],
      [
       500377.49390744016,
       3000449.3057543584
      ],
      [
       500340.0,
       3000449.3057543584
      ]
     ]
    ]
   }
  },
  {
   "id": "94",
   "type": "Feature",
   "properties": {
    "parcel_id": "P-095",
    "ward_id": "WARD-01",
    "block_id": "BLK-09",
    "land_use": "residential",
    "area_m2": 3740.43
   },
   "geometry": {
    "type": "Polygon",
    "coordinates": [
     [
      [
       500392.3869966761,
       3000424.488160107
      ],
      [
       500440.3356414186,
       3000424.488160107
      ],
      [
       500440.3356414186,
       3000340.0
      ],
      [
       500404.4500273754,
       3000340.0
      ],
      [
       500404.4500273754,
       3000365.7529588905
      ],
      [
       500392.3869966761,
       3000365.7529588905
      ],
      [
       500392.3869966761,
       3000424.488160107
      ]
     ]
    ]
   }
  },
  {
   "id": "95",
   "type": "Feature",
   "properties": {
    "parcel_id": "P-096",
    "ward_id": "WARD-01",
    "block_id": "BLK-09",
    "land_use": "utility",
    "area_m2": 3067.68
   },
   "geometry": {
    "type": "Polygon",
    "coordinates": [
     [
      [
       500440.3356414186,
       3000424.488160107
      ],
      [
       500480.0,
       3000424.488160107
      ],
      [
       500480.0,
       3000340.0
      ],
      [
       500454.01963428105,
       3000340.0
      ],
      [
       500454.01963428105,
       3000360.7166288793
      ],
      [
       500440.3356414186,
       3000360.7166288793
      ],
      [
       500440.3356414186,
       3000424.488160107
      ]
     ]
    ]
   }
  },
  {
   "id": "96",
   "type": "Feature",
   "properties": {
    "parcel_id": "P-097",
    "ward_id": "WARD-01",
    "block_id": "BLK-09",
    "land_use": "mixed",
    "area_m2": 2264.53
   },
   "geometry": {
    "type": "Polygon",
    "coordinates": [
     [
      [
       500435.93969775795,
       3000424.488160107
      ],
      [
       500435.93969775795,
       3000480.0
      ],
      [
       500392.3869966761,
       3000480.0
      ],
      [
       500394.8439257278,
       3000428.3898546454
      ],
      [
       500435.93969775795,
       3000424.488160107
      ]
     ]
    ]
   }
  },
  {
   "id": "97",
   "type": "Feature",
   "properties": {
    "parcel_id": "P-098",
    "ward_id": "WARD-01",
    "block_id": "BLK-09",
    "land_use": "residential",
    "area_m2": 1390.99
   },
   "geometry": {
    "type": "Polygon",
    "coordinates": [
     [
      [
       500480.0,
       3000424.488160107
      ],
      [
       500480.0,
       3000456.0582266445
      ],
      [
       500435.93969775795,
       3000456.0582266445
      ],
      [
       500435.93969775795,
       3000424.488160107
      ],
      [
       500480.0,
       3000424.488160107
      ]
     ]
    ]
   }
  },
  {
   "id": "98",
   "type": "Feature",
   "properties": {
    "parcel_id": "P-099",
    "ward_id": "WARD-01",
    "block_id": "BLK-09",
    "land_use": "mixed",
    "area_m2": 354.89
   },
   "geometry": {
    "type": "Polygon",
    "coordinates": [
     [
      [
       500451.89330119634,
       3000456.0582266445
      ],
      [
       500435.93969775795,
       3000456.0582266445
      ],
      [
       500435.93969775795,
       3000480.0
      ],
      [
       500447.7742386505,
       3000480.0
      ],
      [
       500447.7742386505,
       3000473.4291226435
      ],
      [
       500451.89330119634,
       3000473.4291226435
      ],
      [
       500451.89330119634,
       3000456.0582266445
      ]
     ]
    ]
   }
  },
  {
   "id": "99",
   "type": "Feature",
   "properties": {
    "parcel_id": "P-100",
    "ward_id": "WARD-01",
    "block_id": "BLK-09",
    "land_use": "residential",
    "area_m2": 630.64
   },
   "geometry": {
    "type": "Polygon",
    "coordinates": [
     [
      [
       500477.85203615745,
       3000457.2375671933
      ],
      [
       500480.0,
       3000480.0
      ],
      [
       500451.89330119634,
       3000480.0
      ],
      [
       500451.89330119634,
       3000456.0582266445
      ],
      [
       500477.85203615745,
       3000457.2375671933
      ]
     ]
    ]
   }
  }
 ],
 "name": "legacy_parcels_no_crs",
 "synthetic": true,
 "_warning": "CRS metadata intentionally absent. Do NOT guess; the integration engine must flag this source for clarification."
}